,scientificName,taxonRank,vernacularName,individualCount,longitudeDecimal,latitudeDecimal,continent,country,locality,eventDate,eventTime
34479,Marmota marmota,species,Alpine Marmot,1,1.72098409384,42.5433740242,Europe,Andorra,Andorra - Pas de la Casa,2013-07-02,
59327,Marmota marmota,species,Alpine Marmot,4,1.48601621389,42.6360414953,Europe,Andorra,Andorra,2014-08-30,
59330,Gyps fulvus,species,Griffon Vulture,20,1.48601621389,42.6360414953,Europe,Andorra,Andorra,2014-08-30,
59332,Anthus spinoletta,species,Water Pipit,50,1.48601621389,42.6360414953,Europe,Andorra,Andorra,2014-08-30,
78908,Arctostaphylos uva-ursi,species,Bearberry,1,1.49960249657,42.4408132688,Europe,Andorra,Andorra,2014-08-09,17:05
87819,Vaccinium myrtillus,species,Bilberry,1,1.50034897421,42.4407152025,Europe,Andorra,Andorra,2014-08-09,16:51
117846,Pyrgus andromedae,species,Alpine Grizzled Skipper,6,1.63722038269,42.6122961245,Europe,Andorra,Andorra,2014-05-20,
46934,Gyps fulvus,species,Griffon Vulture,1,1.52787208557,42.5027943651,Europe,Andorra,Andorra,2014-07-10,
46478,Rana temporaria,species,Common Frog,1,1.47773,42.637637,Europe,Andorra,Andorra,2007-08-15,
21874,Lycaena virgaureae,species,Scarce Copper,1,1.5,42.45,Europe,Andorra,Andorra,2013-07-26,
21899,Plebejus argus,species,Silver-studded Blue,10,1.5655517578125,42.552827379347,Europe,Andorra,Andorra - Canillo,2013-07-26,
22031,Pyrrhocorax pyrrhocorax,species,Red-billed Chough,6,1.4989471435547,42.626633439691,Europe,Andorra,Andorra,2013-07-26,
22056,Prunella modularis,species,Dunnock,6,1.5023803710938,42.628654293518,Europe,Andorra,Andorra,2013-07-26,
22062,Anthus spinoletta,species,Water Pipit,8,1.5023803710938,42.628654293518,Europe,Andorra,Andorra,2013-07-25,
22078,Vipera aspis,species,Asp Viper,1,1.527099609375,42.59353262565,Europe,Andorra,Andorra,2013-07-25,
22088,Aporia crataegi,species,Black-veined White,100,1.527099609375,42.59353262565,Europe,Andorra,Andorra,2013-07-25,
22100,Erebia oeme,species,Bright-eyed Ringlet,1,1.527099609375,42.59353262565,Europe,Andorra,Andorra,2013-07-25,
22108,Coenonympha arcania,species,Pearly Heath,15,1.5,42.55,Europe,Andorra,Andorra,2013-07-25,
22609,Pararge aegeria,species,Speckled Wood,20,1.5429782867432,42.620191530278,Europe,Andorra,Andorra,2013-07-25,
65586,Oenanthe oenanthe,species,Northern Wheatear,1,1.4828380476697187,42.6317231823156,Europe,Andorra,Andorra,2013-07-21,09:16
65587,Anthus spinoletta,species,Water Pipit,4,1.4824739377959468,42.6317419577787,Europe,Andorra,Andorra,2013-07-20,22:14
65588,Gypaetus barbatus,species,Bearded Vulture,2,1.4780227281166969,42.63138145212329,Europe,Andorra,Andorra,2013-07-20,17:36
65589,Corvus corax,species,Northern Raven,3,1.4780227281166969,42.63138145212329,Europe,Andorra,Andorra,2013-07-20,17:36
9271,Gyps fulvus,species,Griffon Vulture,1,1.7411077022552,42.569517215185,Europe,Andorra,Andorra,2013-07-05,
35933,Luzula campestris,species,Field Wood-rush,1,1.7354249952041,42.544147743328,Europe,Andorra,Andorra - Pas de la Casa,2013-07-02,
35942,Reseda phyteuma,species,Corn Mignonette,1,1.7354249952041,42.544147743328,Europe,Andorra,Andorra - Pas de la Casa,2013-07-02,
35954,Veronica beccabunga,species,Brooklime Speedwell,1,1.7354249952041,42.544147743328,Europe,Andorra,Andorra - Pas de la Casa,2013-07-02,
35956,Taraxacum officinale s.l. (incl. all sec.),species,Common Dandelion,1,1.7354249952041,42.544147743328,Europe,Andorra,Andorra - Pas de la Casa,2013-07-02,
36097,Botrychium lunaria,species,Moonwort,1,1.7,42.5,Europe,Andorra,Andorra - Pas de la Casa,2013-07-02,
36100,Oxytropis halleri,species,Purple Oxytropis,1,1.7204046240658,42.543083256475,Europe,Andorra,Andorra - Pas de la Casa,2013-07-02,
36119,Anthyllis vulneraria,species,Kidney Vetch,1,1.7204046240658,42.543083256475,Europe,Andorra,Andorra - Pas de la Casa,2013-07-02,
36128,Soldanella alpina,species,Alpine snowbell,1,1.7204046240658,42.543083256475,Europe,Andorra,Andorra - Pas de la Casa,2013-07-02,
36131,Ajuga reptans,species,Bugle,1,1.7204046240658,42.543083256475,Europe,Andorra,Andorra - Pas de la Casa,2013-07-02,
36159,Myosotis alpestris,species,Alpine Forget-me-not,1,1.7204046240658,42.543083256475,Europe,Andorra,Andorra - Pas de la Casa,2013-07-02,
36163,Salix herbacea,species,Dwarf Willow,1,1.7204046240658,42.543083256475,Europe,Andorra,Andorra - Pas de la Casa,2013-07-02,
36169,Anemone narcissiflora,species,Narcissus anemone,1,1.7204046240658,42.543083256475,Europe,Andorra,Andorra - Pas de la Casa,2013-07-02,
36172,Antennaria carpatica,species,,1,1.7204046240658,42.543083256475,Europe,Andorra,Andorra - Pas de la Casa,2013-07-02,
36183,Primula elatior,species,Oxlip,1,1.72,42.54,Europe,Andorra,Andorra - Pas de la Casa,2013-07-02,
36188,Luzula lutea,species,,1,1.7204046240658,42.543083256475,Europe,Andorra,Andorra - Pas de la Casa,2013-07-02,
36191,Vaccinium uliginosum,species,Bog Bilberry,1,1.7204046240658,42.543083256475,Europe,Andorra,Andorra - Pas de la Casa,2013-07-02,
36197,Calluna vulgaris,species,Heather,1,1.7204046240658,42.543083256475,Europe,Andorra,Andorra - Pas de la Casa,2013-07-02,
36209,Juniperus communis,species,Juniper,1,1.7204046240658,42.543083256475,Europe,Andorra,Andorra - Pas de la Casa,2013-07-02,
36217,Pulsatilla alpina,species,,1,1.7204046240658,42.543083256475,Europe,Andorra,Andorra - Pas de la Casa,2013-07-02,
36234,Pulsatilla vernalis,species,,1,1.7204046240658,42.543083256475,Europe,Andorra,Andorra - Pas de la Casa,2013-07-02,
36243,Daphne cneorum,species,Rose daphne,1,1.7204046240658,42.543083256475,Europe,Andorra,Andorra - Pas de la Casa,2013-07-02,
36382,Gentiana pyrenaica,species,,1,1.7204046240658,42.543083256475,Europe,Andorra,Andorra - Pas de la Casa,2013-07-02,
94785,Carlina acaulis,species,Stemless Carline Thistle,1,1.560058,42.640196,Europe,Andorra,Andorra,2007-08-16,
98277,Astrantia major,species,Great Masterwort,1,1.551786,42.626588,Europe,Andorra,Andorra,2007-08-16,
103161,Aconitum napellus,species,Monk's-hood,1,1.551818,42.62644,Europe,Andorra,Andorra,2007-08-16,
108034,Sparganium angustifolium,species,Floating Bur-reed,40,1.4776850000001,42.634772,Europe,Andorra,Andorra,2007-08-15,
108626,Eryngium bourgatii,species,,1,1.5600580466271,42.640054107614,Europe,Andorra,Andorra,2007-08-16,
19970,Decticus verrucivorus,species,Wart-Biter,1,1.5573010000001,42.629256,Europe,Andorra,Andorra,2007-08-21,
60267,Parnassia palustris,species,Grass-of-Parnassus,20,1.55799865723,42.553238357,Europe,Andorra,Andorra,2012-08-10,
9978,Prenanthes purpurea,species,Purple Lettuce,21,1.55254840851,42.6237362419,Europe,Andorra,Andorra,2012-08-15,
10010,Prenanthes purpurea,species,Purple Lettuce,51,1.54040336609,42.5495117977,Europe,Andorra,Andorra,2012-08-10,
33068,Moneses uniflora,species,One-flowered Wintergreen,1,1.56808161526,42.5555621725,Europe,Andorra,Andorra - Canillo,2012-08-10,
57113,Carex echinata,species,Star Sedge,1,1.6840839386,42.527151723,Europe,Andorra,Andorra,2012-08-11,
57116,Carex panicea,species,Carnation Sedge,1,1.68706655502,42.5265033709,Europe,Andorra,Andorra,2012-08-11,
57176,Dryas octopetala,species,Mountain Avens,1,1.6836065054,42.5264282564,Europe,Andorra,Andorra,2012-08-11,
57177,Marmota marmota,species,Alpine Marmot,3,1.68259799481,42.5256533869,Europe,Andorra,Andorra,2012-08-11,
57190,Parnassia palustris,species,Grass-of-Parnassus,100,1.68633699417,42.5235263995,Europe,Andorra,Andorra,2012-08-11,
57195,Swertia perennis,species,Star gentian,30,1.68633699417,42.5235263995,Europe,Andorra,Andorra,2012-08-11,
62486,Ptyonoprogne rupestris,species,Eurasian Crag Martin,4,1.53243720531,42.5572887125,Europe,Andorra,Andorra,2012-08-14,
100679,Gyps fulvus,species,Griffon Vulture,2,1.56396389008,42.6224652215,Europe,Andorra,Andorra,2012-07-26,
78297,Linaria cannabina,species,Common Linnet,5,1.7226433754,42.5424413934,Europe,Andorra,Andorra - Pas de la Casa,2012-07-17,14:15
78476,Ptyonoprogne rupestris,species,Eurasian Crag Martin,1,1.528774,42.507435,Europe,Andorra,Andorra,2012-07-17,17:02
78477,Oenanthe oenanthe libanotica,subspecies,Northern Wheatear ssp libanotica,6,1.722641,42.542365,Europe,Andorra,Andorra - Pas de la Casa,2012-07-17,14:15
47656,Ptyonoprogne rupestris,species,Eurasian Crag Martin,4,1.5279810666666669,42.5075314,Europe,Andorra,Andorra,2012-07-23,14:29
122736,Oenanthe oenanthe,species,Northern Wheatear,1,1.53031826019,42.539390083,Europe,Andorra,Andorra,2007-05-26,
35280,Anguis fragilis,species,Slow Worm,1,1.56804084778,42.6222757504,Europe,Andorra,Andorra,2011-07-08,
35373,Lycaena virgaureae,species,Scarce Copper,1,1.55,42.6,Europe,Andorra,Andorra,2011-07-08,
35469,Aporia crataegi,species,Black-veined White,1,1.55748367309,42.6254966806,Europe,Andorra,Andorra,2011-07-08,
35510,Melitaea didyma,species,Spotted Fritillary,1,1.55,42.6,Europe,Andorra,Andorra,2011-07-08,
35552,Parnassius apollo,species,Apollo,1,1.55,42.6,Europe,Andorra,Andorra,2011-07-08,
47899,Decticus verrucivorus,species,Wart-Biter,1,1.55,42.55,Europe,Andorra,Andorra - Canillo,2011-07-07,16:00
47908,Decticus verrucivorus,species,Wart-Biter,1,1.55,42.55,Europe,Andorra,Andorra - Canillo,2011-07-07,
47917,Trollius europaeus,species,Globeflower,1,1.57550811767,42.5630693988,Europe,Andorra,Andorra - Canillo,2011-07-07,
47949,Aster alpinus,species,Blue alpine daisy,1,1.57550811767,42.5642072971,Europe,Andorra,Andorra - Canillo,2011-07-07,
66473,Coenonympha arcania,species,Pearly Heath,1,1.5,42.5,Europe,Andorra,Andorra,2011-07-06,
13023,Anthus spinoletta,species,Water Pipit,1,1.49725198746,42.5879561872,Europe,Andorra,Andorra,2010-05-26,
13024,Periparus ater,species,Coal Tit,1,1.49725198746,42.5879561872,Europe,Andorra,Andorra,2010-05-26,
13025,Corvus corax,species,Northern Raven,1,1.58582925797,42.538394027,Europe,Andorra,Andorra - Encamp,2010-05-26,
65522,Ptyonoprogne rupestris,species,Eurasian Crag Martin,2,1.59483343363,42.5291026687,Europe,Andorra,Andorra - Encamp,2011-07-21,
81391,Periparus ater,species,Coal Tit,1,1.58409118653,42.5282270238,Europe,Andorra,Andorra - Encamp,2011-07-21,
59951,Serinus citrinella,synonym,,4,1.47606854029,42.5401464244,Europe,Andorra,Andorra,2011-08-15,
62381,Corvus corax,species,Northern Raven,3,1.5659169488064,42.516976566713,Europe,Andorra,Andorra,2011-08-15,12:06
62382,Ptyonoprogne rupestris,species,Eurasian Crag Martin,3,1.5660631694674,42.516876864805,Europe,Andorra,Andorra,2011-08-15,12:07
62384,Periparus ater,species,Coal Tit,1,1.5695740704789,42.518919106266,Europe,Andorra,Andorra,2011-08-15,12:14
62385,Falco tinnunculus,species,Common Kestrel,5,1.424154790243,42.550377313893,Europe,Andorra,Andorra,2011-08-15,15:08
62386,Oenanthe oenanthe,species,Northern Wheatear,5,1.589685969922971,42.54232222300799,Europe,Andorra,Andorra,2011-08-15,15:09
62387,Gypaetus barbatus,species,Bearded Vulture,1,1.43972553004,42.5586522702,Europe,Andorra,Andorra,2011-08-15,15:57
62388,Pyrrhocorax pyrrhocorax,species,Red-billed Chough,5,1.4475400315736,42.555557547634,Europe,Andorra,Andorra,2011-08-15,16:07
62389,Falco tinnunculus,species,Common Kestrel,6,1.4502103688308,42.553182459063,Europe,Andorra,Andorra,2011-08-15,16:08
98211,Salamandra salamandra,species,Fire Salamander,1,1.5,42.45,Europe,Andorra,Andorra,2010-07-21,
98217,Podarcis muralis,species,Common Wall Lizard,12,1.5,42.55,Europe,Andorra,Andorra,2010-07-17,
57709,Serinus citrinella,synonym,,1,1.57568832821,42.5485829657,Europe,Andorra,Andorra,2007-09-08,
101952,Periparus ater,species,Coal Tit,1,1.52984619141,42.5571267033,Europe,Andorra,Andorra,2010-07-20,
101953,Oenanthe oenanthe,species,Northern Wheatear,2,1.52847290039,42.6203178486,Europe,Andorra,Andorra,2010-07-20,
101954,Phoenicurus ochruros,species,Black Redstart,4,1.52847290039,42.6203178486,Europe,Andorra,Andorra,2010-07-20,
101955,Ptyonoprogne rupestris,species,Eurasian Crag Martin,5,1.4769744873,42.5449866731,Europe,Andorra,Andorra,2010-07-19,
76155,Phoenicurus ochruros,species,Black Redstart,1,1.48847579956,42.6377788946,Europe,Andorra,Andorra,2008-08-02,
76156,Oenanthe oenanthe,species,Northern Wheatear,1,1.48847579956,42.6377788946,Europe,Andorra,Andorra,2008-08-02,
1099,Serinus citrinella,synonym,,2,1.56160354614,42.6238546586,Europe,Andorra,Andorra,2007-05-17,
1112,Oenanthe oenanthe,species,Northern Wheatear,1,1.53911590576,42.5711606696,Europe,Andorra,Andorra,2007-05-17,
80189,Oenanthe oenanthe,species,Northern Wheatear,1,1.59112930298,42.5452396145,Europe,Andorra,Andorra - Encamp,2009-08-16,
107518,Senecio inaequidens,species,Narrow-leaved Ragwort,1,1.51741862,42.54569333,Europe,Andorra,Andorra - La Massana,2019-09-06,
61123,Rosa pendulina,species,Alpine Rose,1,1.72282945,42.54335031,Europe,Andorra,Andorra - Pas de la Casa,2019-07-16,14:36
62533,Daphne cneorum,species,Rose daphne,1,1.72282945,42.54335031,Europe,Andorra,Andorra - Pas de la Casa,2019-07-16,14:36
62536,Androsace laggeri,species,,1,1.72221553,42.5438652,Europe,Andorra,Andorra - Pas de la Casa,2019-07-16,14:37
64230,Dianthus carthusianorum,species,Carthusian Pink,1,1.72119975,42.55474091,Europe,Andorra,Andorra - Encamp,2019-07-16,15:54
64557,Dianthus carthusianorum,species,Carthusian Pink,1,1.72119975,42.55474091,Europe,Andorra,Andorra - Encamp,2019-07-16,15:54
64571,Androsace laggeri,species,,1,1.72221553,42.5438652,Europe,Andorra,Andorra - Pas de la Casa,2019-07-16,14:37
64636,Rosa pendulina,species,Alpine Rose,1,1.72282945,42.54335031,Europe,Andorra,Andorra - Pas de la Casa,2019-07-16,14:36
64638,Saxifraga paniculata,species,Livelong Saxifrage,1,1.72282945,42.54335031,Europe,Andorra,Andorra - Pas de la Casa,2019-07-16,14:36
64639,Saxifraga paniculata,species,Livelong Saxifrage,1,1.72282945,42.54335031,Europe,Andorra,Andorra - Pas de la Casa,2019-07-16,14:36
64646,Antennaria dioica,species,Mountain Everlasting,1,1.7,42.5,Europe,Andorra,Andorra - Pas de la Casa,2019-07-16,14:36
64647,Antennaria dioica,species,Mountain Everlasting,1,1.7,42.5,Europe,Andorra,Andorra - Pas de la Casa,2019-07-16,14:36
64649,Gymnadenia rhellicani,species,,1,1.72,42.54,Europe,Andorra,Andorra - Pas de la Casa,2019-07-16,14:36
64706,Daphne cneorum,species,Rose daphne,1,1.72282945,42.54335031,Europe,Andorra,Andorra - Pas de la Casa,2019-07-16,14:36
64713,Gentiana acaulis,species,Trumpet gentian,1,1.72282945,42.54335031,Europe,Andorra,Andorra - Pas de la Casa,2019-07-16,14:36
64714,Gentiana acaulis,species,Trumpet gentian,1,1.72282945,42.54335031,Europe,Andorra,Andorra - Pas de la Casa,2019-07-16,14:36
64853,Carduus carlinoides,species,,1,1.72167504,42.54163742,Europe,Andorra,Andorra - Pas de la Casa,2019-07-16,13:22
64886,Carduus carlinoides,species,,1,1.72167504,42.54163742,Europe,Andorra,Andorra - Pas de la Casa,2019-07-16,13:22
77982,Phoenicurus ochruros,species,Black Redstart,2,1.67152202129364,42.6117515563965,Europe,Andorra,Andorra,2019-10-09,11:47
77983,Pyrrhocorax graculus,species,Alpine Chough,10,1.67119944095612,42.6120452880859,Europe,Andorra,Andorra,2019-10-09,11:53
77985,Gypaetus barbatus,species,Bearded Vulture,2,1.65980529785156,42.5964241027832,Europe,Andorra,Andorra,2019-10-09,14:19
77986,Falco tinnunculus,species,Common Kestrel,1,1.68834865093231,42.5253868103027,Europe,Andorra,Andorra - Encamp,2019-10-10,11:12
77987,Pyrrhocorax graculus,species,Alpine Chough,2,1.68837594985962,42.5253829956055,Europe,Andorra,Andorra - Encamp,2019-10-10,11:13
77988,Phoenicurus ochruros,species,Black Redstart,4,1.67618000507355,42.5236167907715,Europe,Andorra,Andorra - Encamp,2019-10-10,13:16
81911,Bilusius serratus,species,,5,1.72221124,42.54141235,Europe,Andorra,Andorra - Pas de la Casa,2019-07-16,13:36
35427,Cinclus cinclus,species,White-throated Dipper,1,1.52888405323029,42.5088691711426,Europe,Andorra,Andorra - Andorra la Vella,2019-10-04,16:15
35429,Iberolacerta aurelioi,species,Aurelio's Rock Lizard,1,1.48197984695435,42.6405372619629,Europe,Andorra,Andorra,2019-10-05,14:07
25995,Erebia triarius,species,de Prunner's Ringlet,1,1.71813595,42.54017639,Europe,Andorra,Andorra - Pas de la Casa,2019-07-16,16:37
26000,Erebia triarius,species,de Prunner's Ringlet,1,1.71813595,42.54017639,Europe,Andorra,Andorra - Pas de la Casa,2019-07-16,16:37
26165,Agriades glandon,species,Glandon Blue,4,1.72221553,42.5438652,Europe,Andorra,Andorra - Pas de la Casa,2019-07-16,14:37
26198,Agriades glandon,species,Glandon Blue,4,1.72221553,42.5438652,Europe,Andorra,Andorra - Pas de la Casa,2019-07-16,14:37
26216,Gypaetus barbatus,species,Bearded Vulture,1,1.68470501899719,42.606632232666,Europe,Andorra,Andorra,2019-07-13,14:26
26398,Coenonympha pamphilus,species,Small Heath,4,1.72104406,42.5406189,Europe,Andorra,Andorra - Pas de la Casa,2019-07-16,12:58
26408,Coenonympha pamphilus,species,Small Heath,4,1.72104406,42.5406189,Europe,Andorra,Andorra - Pas de la Casa,2019-07-16,12:58
26600,Erebia arvernensis,species,Common Brassy Ringlet,1,1.71813595,42.54017639,Europe,Andorra,Andorra - Pas de la Casa,2019-07-16,12:46
26611,Erebia arvernensis,species,Common Brassy Ringlet,1,1.71813595,42.54017639,Europe,Andorra,Andorra - Pas de la Casa,2019-07-16,12:46
26735,Pontia callidice,species,Peak White,1,1.72119975,42.55474091,Europe,Andorra,Andorra - Encamp,2019-07-16,15:54
26827,Pontia callidice,species,Peak White,1,1.72119975,42.55474091,Europe,Andorra,Andorra - Encamp,2019-07-16,15:54
26830,Erebia epiphron,species,Mountain Ringlet,1,1.71813595,42.54017639,Europe,Andorra,Andorra - Pas de la Casa,2019-07-16,12:46
26848,Erebia epiphron,species,Mountain Ringlet,1,1.71813595,42.54017639,Europe,Andorra,Andorra - Pas de la Casa,2019-07-16,12:46
19643,Pyrrhocorax graculus,species,Alpine Chough,4,1.72538375854492,42.5414924621582,Europe,Andorra,Andorra - Pas de la Casa,2019-07-16,12:15
19644,Oenanthe oenanthe,species,Northern Wheatear,1,1.7181361913681,42.5401763916016,Europe,Andorra,Andorra - Pas de la Casa,2019-07-16,12:45
19645,Phoenicurus ochruros,species,Black Redstart,4,1.72104406356812,42.5406188964844,Europe,Andorra,Andorra - Pas de la Casa,2019-07-16,12:58
19646,Monticola saxatilis,species,Common Rock Thrush,4,1.72055006027222,42.5412178039551,Europe,Andorra,Andorra - Pas de la Casa,2019-07-16,13:10
19647,Gyps fulvus,species,Griffon Vulture,1,1.72119975090027,42.5547409057617,Europe,Andorra,Andorra - Encamp,2019-07-16,15:54
19648,Marmota marmota,species,Alpine Marmot,1,1.72050774097443,42.5549545288086,Europe,Andorra,Andorra - Encamp,2019-07-16,16:06
30122,Gypaetus barbatus,species,Bearded Vulture,1,1.72318756580353,42.5432510375977,Europe,Andorra,Andorra - Pas de la Casa,2019-07-12,13:03
34490,Pyrrhocorax graculus,species,Alpine Chough,4,1.72538375854492,42.5414924621582,Europe,Andorra,Andorra - Pas de la Casa,2019-07-16,12:15
34491,Oenanthe oenanthe,species,Northern Wheatear,1,1.7181361913681,42.5401763916016,Europe,Andorra,Andorra - Pas de la Casa,2019-07-16,12:45
34492,Phoenicurus ochruros,species,Black Redstart,4,1.72104406356812,42.5406188964844,Europe,Andorra,Andorra - Pas de la Casa,2019-07-16,12:58
34493,Monticola saxatilis,species,Common Rock Thrush,4,1.72055006027222,42.5412178039551,Europe,Andorra,Andorra - Pas de la Casa,2019-07-16,13:10
34494,Gyps fulvus,species,Griffon Vulture,1,1.72119975090027,42.5547409057617,Europe,Andorra,Andorra - Encamp,2019-07-16,15:54
34495,Marmota marmota,species,Alpine Marmot,1,1.72050774097443,42.5549545288086,Europe,Andorra,Andorra - Encamp,2019-07-16,16:06
69824,Pyrrhocorax graculus,species,Alpine Chough,20,1.72334253787994,42.5432891845703,Europe,Andorra,Andorra - Pas de la Casa,2019-07-12,11:29
69825,Gypaetus barbatus,species,Bearded Vulture,1,1.72318756580353,42.5432510375977,Europe,Andorra,Andorra - Pas de la Casa,2019-07-12,13:03
8789,Pyrrhocorax graculus,species,Alpine Chough,5,1.73497021198273,42.543888092041,Europe,Andorra,Andorra - Pas de la Casa,2019-07-10,08:45
8790,Falco tinnunculus,species,Common Kestrel,1,1.70359671115875,42.5425338745117,Europe,Andorra,Andorra - Encamp,2019-07-10,09:12
8791,Phoenicurus ochruros,species,Black Redstart,1,1.70359671115875,42.5425338745117,Europe,Andorra,Andorra - Encamp,2019-07-10,09:13
67334,Daphne cneorum,species,Rose daphne,1,1.73154831,42.53815687,Europe,Andorra,Andorra - Pas de la Casa,2019-06-21,
67337,Aconitum napellus,species,Monk's-hood,1,1.73,42.53,Europe,Andorra,Andorra - Pas de la Casa,2019-06-21,
67684,Pulsatilla alpina,species,,1,1.73154831,42.53815687,Europe,Andorra,Andorra - Pas de la Casa,2019-06-21,
67686,Oenanthe oenanthe,species,Northern Wheatear,4,1.73154831,42.53815687,Europe,Andorra,Andorra - Pas de la Casa,2019-06-21,
76642,Gentiana pyrenaica,species,,1,1.73166297,42.53844121,Europe,Andorra,Andorra - Pas de la Casa,2019-06-21,
76649,Gentiana lutea,species,Yellow gentian,1,1.7,42.5,Europe,Andorra,Andorra - Pas de la Casa,2019-06-21,
76652,Gentiana acaulis,species,Trumpet gentian,1,1.73166297,42.53844121,Europe,Andorra,Andorra - Pas de la Casa,2019-06-21,
76661,Trifolium alpinum,species,Alpine clover,1,1.73166297,42.53844121,Europe,Andorra,Andorra - Pas de la Casa,2019-06-21,
76707,Sempervivum montanum,species,Mountain House-leek,1,1.73166297,42.53844121,Europe,Andorra,Andorra - Pas de la Casa,2019-06-21,
76832,Antennaria dioica,species,Mountain Everlasting,1,1.7,42.5,Europe,Andorra,Andorra - Pas de la Casa,2019-06-21,
77073,Phoenicurus ochruros,species,Black Redstart,1,1.73166297,42.53844121,Europe,Andorra,Andorra - Pas de la Casa,2019-06-21,
77096,Oenanthe oenanthe,species,Northern Wheatear,5,1.72886074,42.54131693,Europe,Andorra,Andorra - Pas de la Casa,2019-06-21,
77136,Pyrrhocorax graculus,species,Alpine Chough,60,1.72814459,42.54176059,Europe,Andorra,Andorra - Pas de la Casa,2019-06-21,
52711,Oenanthe oenanthe,species,Northern Wheatear,2,1.72092795372009,42.5409469604492,Europe,Andorra,Andorra - Pas de la Casa,2019-06-20,10:28
52712,Trifolium alpinum,species,Alpine clover,1,1.72250545024872,42.5419769287109,Europe,Andorra,Andorra - Pas de la Casa,2019-06-20,11:04
52713,Sempervivum montanum,species,Mountain House-leek,1,1.72256064414978,42.5419731140137,Europe,Andorra,Andorra - Pas de la Casa,2019-06-20,11:06
52714,Gentiana pyrenaica,species,,1,1.72253441810608,42.5419960021973,Europe,Andorra,Andorra - Pas de la Casa,2019-06-20,11:14
52715,Daphne cneorum,species,Rose daphne,1,1.72326159477234,42.5433502197266,Europe,Andorra,Andorra - Pas de la Casa,2019-06-20,11:55
52718,Oenanthe oenanthe,species,Northern Wheatear,2,1.72269666194916,42.5436058044434,Europe,Andorra,Andorra - Pas de la Casa,2019-06-20,12:01
52720,Antennaria dioica,species,Mountain Everlasting,1,1.7,42.5,Europe,Andorra,Andorra - Pas de la Casa,2019-06-20,13:03
52721,Marmota marmota,species,Alpine Marmot,2,1.71980237960815,42.5463485717773,Europe,Andorra,Andorra - Encamp,2019-06-20,13:38
52723,Daphne cneorum,species,Rose daphne,1,1.71992325782776,42.5462226867676,Europe,Andorra,Andorra - Encamp,2019-06-20,14:17
66091,Pyrrhocorax graculus,species,Alpine Chough,3,1.7271625995636,42.536937713623,Europe,Andorra,Andorra - Pas de la Casa,2019-06-21,14:17
84936,Pyrrhocorax graculus,species,Alpine Chough,2,1.72870552539825,42.5385894775391,Europe,Andorra,Andorra - Pas de la Casa,2019-06-20,10:13
84937,Pyrrhocorax graculus,species,Alpine Chough,15,1.72764313220978,42.5400314331055,Europe,Andorra,Andorra - Pas de la Casa,2019-06-20,10:14
84938,Marmota marmota,species,Alpine Marmot,2,1.72277939319611,42.5435371398926,Europe,Andorra,Andorra - Pas de la Casa,2019-06-20,12:24
84939,Oenanthe oenanthe,species,Northern Wheatear,1,1.72258460521698,42.5430526733398,Europe,Andorra,Andorra - Pas de la Casa,2019-06-20,13:05
68185,Phoenicurus ochruros,species,Black Redstart,3,1.73082244,42.54218832,Europe,Andorra,Andorra - Pas de la Casa,2019-06-14,
68187,Pyrrhocorax graculus,species,Alpine Chough,10,1.73082244,42.54218832,Europe,Andorra,Andorra - Pas de la Casa,2019-06-14,
68343,Marmota marmota,species,Alpine Marmot,2,1.47790031,42.63130655,Europe,Andorra,Andorra,2019-06-15,
68855,Phoenicurus ochruros,species,Black Redstart,2,1.70006102,42.53404592,Europe,Andorra,Andorra - Encamp,2019-06-15,
106104,Carduus carlinoides,species,,1,1.72203388,42.54139161,Europe,Andorra,Andorra - Pas de la Casa,2016-06-16,11:09
106601,Androsace carnea,synonym,,1,1.72225848,42.54143787,Europe,Andorra,Andorra - Pas de la Casa,2016-06-16,10:59
111843,Cricotopus spec.,multispecies,,1,1.4830184,42.4491811,Europe,Andorra,Andorra - Sant Julià de Lòria,2017-08-17,
68234,Falco tinnunculus,species,Common Kestrel,2,1.727251,42.53745,Europe,Andorra,Andorra - Pas de la Casa,2016-08-04,
111624,Oxytropis halleri,species,Purple Oxytropis,1,1.60746574,42.62144207,Europe,Andorra,Andorra,2017-06-23,12:31
82619,Podarcis muralis,species,Common Wall Lizard,1,1.65,42.55,Europe,Andorra,Andorra - Soldeu,2018-07-08,
103187,Botrychium lunaria,species,Moonwort,1,1.7,42.5,Europe,Andorra,Andorra,2016-06-16,13:43
79563,Polyommatus icarus,species,Common Blue,1,1.6885,42.5578,Europe,Andorra,Andorra,2016-06-15,15:17
90972,Erynnis tages,species,Dingy Skipper,1,1.7,42.5,Europe,Andorra,Andorra - Encamp,2016-06-15,14:01
91196,Rana temporaria,species,Common Frog,1,1.68853,42.55777,Europe,Andorra,Andorra,2016-06-15,
64404,Gnaphalium sylvaticum,species,Heath Cudweed,1,1.645635,42.58851997,Europe,Andorra,Andorra,2018-09-18,22:49
64405,Gnaphalium sylvaticum,species,Heath Cudweed,1,1.645635,42.58851997,Europe,Andorra,Andorra,2018-09-18,22:49
64448,Cardamine resedifolia,species,,1,1.4858749722222,42.643248305556,Europe,Andorra,Andorra,2018-09-19,21:14
66117,Potentilla rupestris,species,Rock Cinquefoil,1,1.57378,42.500009972222,Europe,Andorra,Andorra - Escaldes-Engordany,2018-09-17,19:14
66759,Galium maritimum,species,,1,1.57378,42.500006666667,Europe,Andorra,Andorra - Escaldes-Engordany,2018-09-17,19:15
70164,Saxifraga paniculata,species,Livelong Saxifrage,1,1.5684583055556,42.500673305556,Europe,Andorra,Andorra - Escaldes-Engordany,2018-09-17,18:55
70339,Gentiana lutea,species,Yellow gentian,1,1.6,42.55,Europe,Andorra,Andorra - Canillo,2018-09-18,23:16
70555,Sempervivum montanum,species,Mountain House-leek,1,1.6898283055556,42.528599972222,Europe,Andorra,Andorra - Encamp,2018-09-20,23:15
70564,Cirsium vulgare,species,Spear Thistle,1,1.6875783055556,42.526934972222,Europe,Andorra,Andorra - Encamp,2018-09-20,22:54
70762,Cirsium eriophorum,species,Woolly Thistle,1,1.6867283055556,42.528126638889,Europe,Andorra,Andorra - Encamp,2018-09-20,22:50
70883,Molopospermum peloponnesiacum,species,,1,1.68769,42.527334972222,Europe,Andorra,Andorra - Encamp,2018-09-20,22:52
70898,Leucanthemopsis alpina,species,Alpine moon daisy,1,1.48628,42.631413305556,Europe,Andorra,Andorra,2018-09-19,22:58
70964,Selinum pyrenaeum,species,,1,1.4859516666667,42.643351638889,Europe,Andorra,Andorra,2018-09-19,21:27
71096,Meum athamanticum,species,Spignel,1,1.4858599722222,42.643371666667,Europe,Andorra,Andorra,2018-09-19,21:15
71212,Geum montanum,species,,1,1.492095,42.645005,Europe,Andorra,Andorra,2018-09-19,19:28
71213,Saxifraga stellaris,species,Starry Saxifrage,1,1.492095,42.645005,Europe,Andorra,Andorra,2018-09-19,19:28
71258,Senecio adonidifolius,synonym,,1,1.6518583055556,42.584038333333,Europe,Andorra,Andorra,2018-09-18,23:30
72445,Carlina acanthifolia,species,,1,1.645635,42.58851997,Europe,Andorra,Andorra,2018-09-18,22:49
72449,Carlina acaulis,species,Stemless Carline Thistle,1,1.645635,42.588519972222,Europe,Andorra,Andorra,2018-09-18,22:49
72454,Aconitum napellus,species,Monk's-hood,1,1.65,42.58,Europe,Andorra,Andorra,2018-09-18,22:28
72456,Sedum brevifolium,species,,1,1.6605933333333,42.599626638889,Europe,Andorra,Andorra,2018-09-18,21:26
72765,Trifolium alpinum,species,Alpine clover,1,1.6605366388889,42.599525,Europe,Andorra,Andorra,2018-09-18,19:40
72783,Galium verum,species,Lady's Bedstraw,1,1.6588566388889,42.593501638889,Europe,Andorra,Andorra,2018-09-18,18:56
72798,Chamaenerion angustifolium,species,Rosebay Willowherb,1,1.65694664,42.586,Europe,Andorra,Andorra,2018-09-18,18:11
72839,Digitalis lutea,species,Straw Foxglove,1,1.57115,42.50048667,Europe,Andorra,Andorra - Escaldes-Engordany,2018-09-17,19:03
72850,Prenanthes purpurea,species,Purple Lettuce,1,1.57115,42.50048667,Europe,Andorra,Andorra - Escaldes-Engordany,2018-09-17,19:03
73003,Polypodium vulgare,species,Common Polypody,1,1.57115,42.50048667,Europe,Andorra,Andorra - Escaldes-Engordany,2018-09-17,19:03
73007,Rubus idaeus,species,Raspberry,1,1.57115,42.50048667,Europe,Andorra,Andorra - Escaldes-Engordany,2018-09-17,19:03
73009,Hepatica nobilis,species,Liverleaf,1,1.57115,42.50048667,Europe,Andorra,Andorra - Escaldes-Engordany,2018-09-17,19:03
73027,Arctostaphylos uva-ursi,species,Bearberry,1,1.57115,42.500486666667,Europe,Andorra,Andorra - Escaldes-Engordany,2018-09-17,19:03
73032,Centaurea jacea agg.,multispecies,,1,1.5665199722222,42.501256666667,Europe,Andorra,Andorra - Escaldes-Engordany,2018-09-17,18:45
73035,Campanula rotundifolia agg.,multispecies,,1,1.5673283055556,42.501096666667,Europe,Andorra,Andorra - Escaldes-Engordany,2018-09-17,18:49
73039,Sedum dasyphyllum,species,Thick-leaved Stonecrop,1,1.5683166388889,42.500643305556,Europe,Andorra,Andorra - Escaldes-Engordany,2018-09-17,18:54
73046,Anthyllis vulneraria,species,Kidney Vetch,1,1.5683183055556,42.500644972222,Europe,Andorra,Andorra - Escaldes-Engordany,2018-09-17,18:54
73057,Sempervivum tectorum,species,House-leek,1,1.5737766388889,42.500015,Europe,Andorra,Andorra - Escaldes-Engordany,2018-09-17,19:13
73073,Antirrhinum latifolium,species,,1,1.5821766666667,42.498168305556,Europe,Andorra,Andorra - Escaldes-Engordany,2018-09-17,19:43
73083,Eryngium bourgatii,species,,1,1.5845933333333,42.497029972222,Europe,Andorra,Andorra - Escaldes-Engordany,2018-09-17,19:56
73188,Aconitum anthora,species,Yellow Monkshood,1,1.5845033333333,42.497066666667,Europe,Andorra,Andorra - Escaldes-Engordany,2018-09-17,19:54
73197,Solidago virgaurea,species,Goldenrod,1,1.5880966666667,42.494823333333,Europe,Andorra,Andorra - Escaldes-Engordany,2018-09-17,20:11
73240,Hieracium amplexicaule,species,Amplexicaul Hawkweed,1,1.5782883055556,42.518523333333,Europe,Andorra,Andorra - Encamp,2018-09-18,00:10
73531,Viola arvensis,species,Field Pansy,1,1.5835583333333,42.496321666667,Europe,Andorra,Andorra - Escaldes-Engordany,2018-09-17,21:59
73662,Molopospermum peloponnesiacum,species,,1,1.5944666388889,42.49224,Europe,Andorra,Andorra - Escaldes-Engordany,2018-09-17,21:12
19906,Gypaetus barbatus,species,Bearded Vulture,1,1.52289382464067,42.504243488247,Europe,Andorra,Andorra - Andorra la Vella,2018-09-18,15:47
19907,Phoenicurus ochruros,species,Black Redstart,1,1.72026851117707,42.5399425344727,Europe,Andorra,Andorra - Pas de la Casa,2018-09-17,11:23
19908,Marmota marmota,species,Alpine Marmot,1,1.7207041120334,42.5409087899878,Europe,Andorra,Andorra - Pas de la Casa,2018-09-17,11:14
19915,Marmota marmota,species,Alpine Marmot,1,1.72059498,42.54090397,Europe,Andorra,Andorra - Pas de la Casa,2018-09-17,11:13
19916,Phoenicurus ochruros,species,Black Redstart,1,1.72068501,42.54069574,Europe,Andorra,Andorra - Pas de la Casa,2018-09-17,11:20
19917,Gypaetus barbatus,species,Bearded Vulture,1,1.52303752,42.5040704,Europe,Andorra,Andorra - Andorra la Vella,2018-09-18,15:48
96481,Monticola saxatilis,species,Common Rock Thrush,1,1.72239013,42.54155973,Europe,Andorra,Andorra - Pas de la Casa,2018-06-22,10:25
96482,Oenanthe oenanthe,species,Northern Wheatear,1,1.72310429,42.5424297,Europe,Andorra,Andorra - Pas de la Casa,2018-06-22,12:06
96483,Pyrrhocorax graculus,species,Alpine Chough,4,1.72314932,42.54354962,Europe,Andorra,Andorra - Pas de la Casa,2018-06-22,12:32
96484,Marmota marmota,species,Alpine Marmot,1,1.72384835779667,42.5442451340019,Europe,Andorra,Andorra - Pas de la Casa,2018-06-22,12:32
96485,Oenanthe oenanthe,species,Northern Wheatear,1,1.7231698,42.54358279,Europe,Andorra,Andorra - Pas de la Casa,2018-06-22,13:08
96486,Monticola saxatilis,species,Common Rock Thrush,1,1.72299014,42.54354153,Europe,Andorra,Andorra - Pas de la Casa,2018-06-22,13:27
14590,Marmota marmota,species,Alpine Marmot,1,1.72219328,42.54093825,Europe,Andorra,Andorra - Pas de la Casa,2018-06-21,10:41
14591,Trifolium alpinum,species,Alpine clover,1,1.72218719,42.54094076,Europe,Andorra,Andorra - Pas de la Casa,2018-06-21,10:46
14592,Gentiana verna,species,Spring Gentian,1,1.722168,42.54090672,Europe,Andorra,Andorra - Pas de la Casa,2018-06-21,11:00
14593,Pulsatilla vernalis,species,,1,1.72217512,42.5409151,Europe,Andorra,Andorra - Pas de la Casa,2018-06-21,11:03
14594,Pulsatilla alpina,species,,1,1.72204273,42.54143241,Europe,Andorra,Andorra - Pas de la Casa,2018-06-21,11:16
14595,Gentiana pyrenaica,species,,1,1.72241829,42.54157529,Europe,Andorra,Andorra - Pas de la Casa,2018-06-21,11:24
14596,Geum montanum,species,,1,1.72264762,42.54195241,Europe,Andorra,Andorra - Pas de la Casa,2018-06-21,11:52
14597,Antennaria dioica,species,Mountain Everlasting,1,1.7,42.5,Europe,Andorra,Andorra - Pas de la Casa,2018-06-21,12:43
14598,Antennaria carpatica,species,,1,1.72315271,42.54341592,Europe,Andorra,Andorra - Pas de la Casa,2018-06-21,12:43
14599,Gypaetus barbatus,species,Bearded Vulture,1,1.72312669,42.54342504,Europe,Andorra,Andorra - Pas de la Casa,2018-06-21,13:03
14600,Kalmia procumbens,species,Trailing Azalea,1,1.72324103,42.54334615,Europe,Andorra,Andorra - Pas de la Casa,2018-06-21,13:20
14601,Rhododendron ferrugineum,species,Alpenrose,1,1.72266842,42.54354403,Europe,Andorra,Andorra - Pas de la Casa,2018-06-21,13:43
14602,Bartsia alpina,species,Alpine Bartsia,1,1.72190663,42.54355903,Europe,Andorra,Andorra - Pas de la Casa,2018-06-21,13:49
14603,Gypaetus barbatus,species,Bearded Vulture,1,1.72001556,42.54619263,Europe,Andorra,Andorra - Encamp,2018-06-21,14:32
39712,Plantago monosperma,species,,1,1.72024727,42.54295994,Europe,Andorra,Andorra - Pas de la Casa,2018-06-21,12:00
39726,Primula integrifolia,species,,1,1.72024727,42.54295994,Europe,Andorra,Andorra - Pas de la Casa,2018-06-21,12:00
39791,Pulsatilla alpina,species,,1,1.72024727,42.54295994,Europe,Andorra,Andorra - Pas de la Casa,2018-06-21,12:00
39795,Bartsia alpina,species,Alpine Bartsia,1,1.72024727,42.54295994,Europe,Andorra,Andorra - Pas de la Casa,2018-06-21,12:00
39802,Dactylorhiza sambucina,species,Elder-flowered Orchid,1,1.72,42.54,Europe,Andorra,Andorra - Pas de la Casa,2018-06-21,12:00
39811,Gentiana alpina,species,Southern gentian,1,1.72024727,42.54295994,Europe,Andorra,Andorra - Pas de la Casa,2018-06-21,12:00
39812,Gentiana verna,species,Spring Gentian,1,1.72024727,42.54295994,Europe,Andorra,Andorra - Pas de la Casa,2018-06-21,12:00
39813,Gentiana acaulis,species,Trumpet gentian,1,1.72024727,42.54295994,Europe,Andorra,Andorra - Pas de la Casa,2018-06-21,12:00
39814,Trifolium alpinum,species,Alpine clover,1,1.72024727,42.54295994,Europe,Andorra,Andorra - Pas de la Casa,2018-06-21,12:00
39821,Rhododendron ferrugineum,species,Alpenrose,1,1.72024727,42.54295994,Europe,Andorra,Andorra - Pas de la Casa,2018-06-21,12:00
39823,Kalmia procumbens,species,Trailing Azalea,1,1.72024727,42.54295994,Europe,Andorra,Andorra - Pas de la Casa,2018-06-21,12:00
39831,Leucanthemopsis alpina,species,Alpine moon daisy,1,1.72024727,42.54295994,Europe,Andorra,Andorra - Pas de la Casa,2018-06-21,12:00
39834,Sempervivum montanum,species,Mountain House-leek,1,1.72024727,42.54295994,Europe,Andorra,Andorra - Pas de la Casa,2018-06-21,12:00
40172,Oenanthe oenanthe,species,Northern Wheatear,4,1.7205119,42.54121789,Europe,Andorra,Andorra - Pas de la Casa,2018-06-21,14:52
40178,Marmota marmota,species,Alpine Marmot,2,1.7203334062235,42.5449599023253,Europe,Andorra,Andorra - Encamp,2018-06-21,13:40
40192,Oenanthe oenanthe,species,Northern Wheatear,1,1.72319518150568,42.5431988676935,Europe,Andorra,Andorra - Pas de la Casa,2018-06-21,12:24
40218,Marmota marmota,species,Alpine Marmot,2,1.72220768,42.54127645,Europe,Andorra,Andorra - Pas de la Casa,2018-06-21,11:08
40222,Phoenicurus ochruros,species,Black Redstart,1,1.72105561285683,42.5416559752003,Europe,Andorra,Andorra - Pas de la Casa,2018-06-21,10:30
84824,Phoenicurus ochruros,species,Black Redstart,1,1.72105561285683,42.5416559752003,Europe,Andorra,Andorra - Pas de la Casa,2018-06-21,10:30
84825,Trifolium alpinum,species,Alpine clover,1,1.72213933846937,42.5409539200425,Europe,Andorra,Andorra - Pas de la Casa,2018-06-21,10:46
84826,Gentiana verna,species,Spring Gentian,20,1.72216904730623,42.5413258270606,Europe,Andorra,Andorra - Pas de la Casa,2018-06-21,10:57
84827,Gentiana alpina,species,Southern gentian,3,1.72216904730623,42.5413258270606,Europe,Andorra,Andorra - Pas de la Casa,2018-06-21,10:58
84828,Marmota marmota,species,Alpine Marmot,1,1.72220768121351,42.5412764500014,Europe,Andorra,Andorra - Pas de la Casa,2018-06-21,11:08
84829,Ranunculus pyrenaeus,species,,5,1.72220768121351,42.5412764500014,Europe,Andorra,Andorra - Pas de la Casa,2018-06-21,11:09
84830,Pulsatilla vernalis,species,,5,1.72218904506401,42.5413462880601,Europe,Andorra,Andorra - Pas de la Casa,2018-06-21,11:15
84831,Antennaria dioica,species,Mountain Everlasting,1,1.7,42.5,Europe,Andorra,Andorra - Pas de la Casa,2018-06-21,11:55
84832,Vaccinium myrtillus,species,Bilberry,1,1.72245299664296,42.5420783550027,Europe,Andorra,Andorra - Pas de la Casa,2018-06-21,11:58
84833,Kalmia procumbens,species,Trailing Azalea,50,1.72325155056899,42.5432051092158,Europe,Andorra,Andorra - Pas de la Casa,2018-06-21,12:21
84834,Oenanthe oenanthe,species,Northern Wheatear,1,1.72319518150568,42.5431988676935,Europe,Andorra,Andorra - Pas de la Casa,2018-06-21,12:24
84835,Rupicapra pyrenaica,species,Pyrenean Chamois,7,1.7232191925644,42.5432219122568,Europe,Andorra,Andorra - Pas de la Casa,2018-06-21,12:30
84836,Marmota marmota,species,Alpine Marmot,2,1.7203334062235,42.5449599023253,Europe,Andorra,Andorra - Encamp,2018-06-21,13:40
84837,Leucanthemopsis alpina,species,Alpine moon daisy,1,1.71966378425325,42.5456288822842,Europe,Andorra,Andorra - Encamp,2018-06-21,13:46
84838,Oenanthe oenanthe,species,Northern Wheatear,1,1.72051190226872,42.5412178932726,Europe,Andorra,Andorra - Pas de la Casa,2018-06-21,14:52
9749,Monticola saxatilis,species,Common Rock Thrush,1,1.72239937,42.54156681,Europe,Andorra,Andorra - Pas de la Casa,2018-06-22,10:38
9750,Pyrrhocorax graculus,species,Alpine Chough,10,1.7232684,42.54331079,Europe,Andorra,Andorra - Pas de la Casa,2018-06-22,11:54
9751,Oenanthe oenanthe,species,Northern Wheatear,1,1.72012214,42.54613115,Europe,Andorra,Andorra - Encamp,2018-06-22,13:45
42915,Erebia arvernensis,species,Common Brassy Ringlet,1,1.41989708,42.54625137,Europe,Andorra,Andorra - La Massana,2011-08-15,15:00
73733,Prunella modularis,species,Dunnock,2,1.48643974299142,42.6382969071392,Europe,Andorra,Andorra,2017-06-27,11:27
73734,Oenanthe oenanthe,species,Northern Wheatear,1,1.48439197311964,42.6356741397107,Europe,Andorra,Andorra,2017-06-27,12:00
73781,Aconitum napellus,species,Monk's-hood,30,1.57,42.56,Europe,Andorra,Andorra - Canillo,2017-08-30,12:41
73784,Carlina acaulis,species,Stemless Carline Thistle,10,1.57414722,42.56303056,Europe,Andorra,Andorra - Canillo,2017-08-30,12:43
31938,Falco tinnunculus,species,Common Kestrel,1,1.72237172,42.54170546,Europe,Andorra,Andorra - Pas de la Casa,2017-08-02,12:38
31965,Oenanthe oenanthe,species,Northern Wheatear,1,1.72083385,42.54162285,Europe,Andorra,Andorra - Pas de la Casa,2017-08-02,12:30
31981,Gyps fulvus,species,Griffon Vulture,10,1.72085348,42.54033782,Europe,Andorra,Andorra - Pas de la Casa,2017-08-02,13:00
31983,Pyrrhocorax graculus,species,Alpine Chough,2,1.72085348,42.54033782,Europe,Andorra,Andorra - Pas de la Casa,2017-08-02,13:00
100875,Oenanthe oenanthe,species,Northern Wheatear,1,1.72085761,42.54151453,Europe,Andorra,Andorra - Pas de la Casa,2017-08-02,12:28
100876,Pyrrhocorax graculus,species,Alpine Chough,4,1.72188887,42.54182164,Europe,Andorra,Andorra - Pas de la Casa,2017-08-02,12:31
111282,Ptyonoprogne rupestris,species,Eurasian Crag Martin,14,1.54009910300374,42.5552052911371,Europe,Andorra,Andorra,2017-07-09,17:14
111283,Ptyonoprogne rupestris,species,Eurasian Crag Martin,8,1.54000539332628,42.5550332525745,Europe,Andorra,Andorra,2017-07-10,09:01
1803,Gyps fulvus,species,Griffon Vulture,2,1.53589893132448,42.5590887106955,Europe,Andorra,Andorra,2017-07-09,11:28
1806,Ptyonoprogne rupestris,species,Eurasian Crag Martin,2,1.53635800816119,42.5596356298775,Europe,Andorra,Andorra,2017-07-09,11:34
1810,Ptyonoprogne rupestris,species,Eurasian Crag Martin,4,1.53929360210896,42.5587995350361,Europe,Andorra,Andorra,2017-07-09,12:27
1812,Ptyonoprogne rupestris,species,Eurasian Crag Martin,8,1.54256698675454,42.5584659771994,Europe,Andorra,Andorra,2017-07-09,12:42
1813,Ptyonoprogne rupestris,species,Eurasian Crag Martin,8,1.53439823538065,42.5564058730379,Europe,Andorra,Andorra,2017-07-09,13:11
1816,Gyps fulvus,species,Griffon Vulture,8,1.5400719,42.5550759,Europe,Andorra,Andorra,2017-07-09,14:46
1819,Gyps fulvus,species,Griffon Vulture,2,1.54006239026785,42.5551194185391,Europe,Andorra,Andorra,2017-07-09,16:46
1820,Ptyonoprogne rupestris,species,Eurasian Crag Martin,10,1.54012776911259,42.5551572628319,Europe,Andorra,Andorra,2017-07-09,16:46
10987,Gyps fulvus,species,Griffon Vulture,21,1.5403367,42.5549384,Europe,Andorra,Andorra,2017-07-08,18:04
10988,Ptyonoprogne rupestris,species,Eurasian Crag Martin,8,1.53999106027186,42.5551155209541,Europe,Andorra,Andorra,2017-07-08,18:13
22315,Ptyonoprogne rupestris,species,Eurasian Crag Martin,6,1.54007077217102,42.5551662733778,Europe,Andorra,Andorra,2017-07-07,16:58
22316,Ptyonoprogne rupestris,species,Eurasian Crag Martin,2,1.54018501751125,42.5551583524793,Europe,Andorra,Andorra,2017-07-08,09:03
22318,Ptyonoprogne rupestris,species,Eurasian Crag Martin,10,1.54010941274464,42.5551626691595,Europe,Andorra,Andorra,2017-07-08,17:00
38412,Ptyonoprogne rupestris,species,Eurasian Crag Martin,6,1.54002207331359,42.5550774671137,Europe,Andorra,Andorra,2017-07-06,17:17
38425,Gyps fulvus,species,Griffon Vulture,1,1.5402232,42.5551505,Europe,Andorra,Andorra,2017-07-07,13:05
38426,Gyps fulvus,species,Griffon Vulture,3,1.5402043,42.5551699,Europe,Andorra,Andorra,2017-07-07,15:50
52853,Ptyonoprogne rupestris,species,Eurasian Crag Martin,2,1.54022617265582,42.5551262916997,Europe,Andorra,Andorra,2017-07-06,10:14
52854,Gyps fulvus,species,Griffon Vulture,2,1.5404787,42.5549843,Europe,Andorra,Andorra,2017-07-06,10:37
52855,Ptyonoprogne rupestris,species,Eurasian Crag Martin,4,1.5404787,42.5549843,Europe,Andorra,Andorra,2017-07-06,10:38
52856,Ptyonoprogne rupestris,species,Eurasian Crag Martin,4,1.54003255069256,42.5552439736202,Europe,Andorra,Andorra,2017-07-06,16:33
68944,Ptyonoprogne rupestris,species,Eurasian Crag Martin,2,1.5404881,42.5549938,Europe,Andorra,Andorra,2017-07-04,10:31
68949,Ptyonoprogne rupestris,species,Eurasian Crag Martin,10,1.53981168754399,42.5550595298409,Europe,Andorra,Andorra,2017-07-04,18:20
68975,Ptyonoprogne rupestris,species,Eurasian Crag Martin,6,1.54023296199739,42.5552199594677,Europe,Andorra,Andorra,2017-07-05,16:58
38172,Pyrrhocorax graculus,species,Alpine Chough,1,1.723,42.5433,Europe,Andorra,Andorra - Pas de la Casa,2017-06-23,13:05
49835,Bartsia alpina,species,Alpine Bartsia,1,1.7199,42.5459,Europe,Andorra,Andorra - Encamp,2017-06-23,14:46
49836,Trifolium badium,species,Brown Clover,1,1.7199,42.5458,Europe,Andorra,Andorra - Encamp,2017-06-23,14:40
49837,Botrychium lunaria,species,Moonwort,1,1.7,42.5,Europe,Andorra,Andorra - Encamp,2017-06-23,14:38
49838,Kalmia procumbens,species,Trailing Azalea,1,1.7219,42.5435,Europe,Andorra,Andorra - Pas de la Casa,2017-06-23,14:07
49839,Papilio machaon,species,Swallowtail,1,1.7225,42.5434,Europe,Andorra,Andorra - Pas de la Casa,2017-06-23,13:55
49840,Ajuga pyramidalis,species,Pyramidal Bugle,1,1.7,42.5,Europe,Andorra,Andorra - Pas de la Casa,2017-06-23,13:49
49841,Marmota marmota,species,Alpine Marmot,1,1.7229,42.5433,Europe,Andorra,Andorra - Pas de la Casa,2017-06-23,13:05
49842,Pyrrhocorax graculus,species,Alpine Chough,1,1.723,42.5433,Europe,Andorra,Andorra - Pas de la Casa,2017-06-23,13:05
49843,Ranunculus pyrenaeus,species,,1,1.7232,42.5431,Europe,Andorra,Andorra - Pas de la Casa,2017-06-23,12:52
49844,Daphne cneorum,species,Rose daphne,1,1.7232,42.543,Europe,Andorra,Andorra - Pas de la Casa,2017-06-23,12:50
49845,Linaria alpina,species,,1,1.7225,42.5419,Europe,Andorra,Andorra - Pas de la Casa,2017-06-23,12:33
49846,Gentiana pyrenaica,species,,1,1.7225,42.5418,Europe,Andorra,Andorra - Pas de la Casa,2017-06-23,12:29
49847,Geum montanum,species,,1,1.7224,42.5419,Europe,Andorra,Andorra - Pas de la Casa,2017-06-23,12:21
49848,Antennaria dioica,species,Mountain Everlasting,1,1.7,42.5,Europe,Andorra,Andorra - Pas de la Casa,2017-06-23,12:20
49849,Cerastium alpinum,species,Alpine Mouse-ear,1,1.7221,42.5411,Europe,Andorra,Andorra - Pas de la Casa,2017-06-23,11:54
49850,Cardamine resedifolia,species,,1,1.722,42.5409,Europe,Andorra,Andorra - Pas de la Casa,2017-06-23,11:51
49851,Meum athamanticum,species,Spignel,1,1.7221,42.5409,Europe,Andorra,Andorra - Pas de la Casa,2017-06-23,11:44
49852,Trifolium alpinum,species,Alpine clover,1,1.7222,42.5409,Europe,Andorra,Andorra - Pas de la Casa,2017-06-23,11:43
49853,Pulsatilla alpina,species,,1,1.7221,42.5409,Europe,Andorra,Andorra - Pas de la Casa,2017-06-23,11:33
49854,Rhododendron ferrugineum,species,Alpenrose,1,1.7221,42.5408,Europe,Andorra,Andorra - Pas de la Casa,2017-06-23,11:29
49855,Sempervivum montanum,species,Mountain House-leek,1,1.7215,42.5409,Europe,Andorra,Andorra - Pas de la Casa,2017-06-23,11:14
49856,Gentiana pyrenaica,species,,1,1.7183,42.5402,Europe,Andorra,Andorra - Pas de la Casa,2017-06-23,11:03
119045,Boloria euphrosyne,species,Pearl-bordered Fritillary,1,1.55,42.55,Europe,Andorra,Andorra - Canillo,2017-06-08,
80245,Ptyonoprogne rupestris,species,Eurasian Crag Martin,1,1.5174,42.5424,Europe,Andorra,Andorra - La Massana,2017-06-10,16:35
80250,Ptyonoprogne rupestris,species,Eurasian Crag Martin,2,1.4959,42.6306,Europe,Andorra,Andorra,2017-06-10,11:39
80251,Oenanthe oenanthe,species,Northern Wheatear,3,1.4789,42.6273,Europe,Andorra,Andorra,2017-06-10,11:09
80252,Prunella modularis,species,Dunnock,1,1.4789,42.6269,Europe,Andorra,Andorra,2017-06-10,10:35
80253,Phoenicurus ochruros,species,Black Redstart,1,1.4777,42.627,Europe,Andorra,Andorra,2017-06-10,10:32
80254,Phoenicurus ochruros,species,Black Redstart,5,1.484,42.6308,Europe,Andorra,Andorra,2017-06-10,10:17
80257,Ptyonoprogne rupestris,species,Eurasian Crag Martin,1,1.4828,42.6315,Europe,Andorra,Andorra,2017-06-10,10:03
80261,Erebia epiphron,species,Mountain Ringlet,1,1.4993,42.6309,Europe,Andorra,Andorra,2017-06-10,09:44
80266,Ptyonoprogne rupestris,species,Eurasian Crag Martin,4,1.5172,42.5425,Europe,Andorra,Andorra - La Massana,2017-06-09,17:01
96560,Motacilla cinerea,species,Grey Wagtail,1,1.5501,42.6259,Europe,Andorra,Andorra,2017-06-09,16:09
96561,Erebia epiphron,species,Mountain Ringlet,1,1.5347,42.6034,Europe,Andorra,Andorra,2017-06-09,14:43
96562,Motacilla cinerea,species,Grey Wagtail,1,1.5357,42.6055,Europe,Andorra,Andorra,2017-06-09,14:36
96563,Pieris brassicae,species,Large White,1,1.5622,42.5559,Europe,Andorra,Andorra - Canillo,2017-06-09,14:01
96564,Erebia epiphron,species,Mountain Ringlet,1,1.5622,42.5559,Europe,Andorra,Andorra - Canillo,2017-06-09,13:46
96570,Gyps fulvus,species,Griffon Vulture,4,1.5749,42.5637,Europe,Andorra,Andorra - Canillo,2017-06-09,12:28
96573,Aglais urticae,species,Small Tortoiseshell,2,1.5716,42.5562,Europe,Andorra,Andorra - Canillo,2017-06-09,11:13
96577,Pieris brassicae,species,Large White,20,1.5707,42.5549,Europe,Andorra,Andorra - Canillo,2017-06-09,10:49
110893,Aglais urticae,species,Small Tortoiseshell,1,1.5526,42.6222,Europe,Andorra,Andorra,2017-06-08,10:59
110894,Motacilla cinerea,species,Grey Wagtail,1,1.5524,42.6221,Europe,Andorra,Andorra,2017-06-08,10:56
110895,Aglais urticae,species,Small Tortoiseshell,4,1.5261,42.6254,Europe,Andorra,Andorra,2017-06-08,10:08
120787,Ptyonoprogne rupestris,species,Eurasian Crag Martin,1,1.517,42.5428,Europe,Andorra,Andorra - La Massana,2017-06-07,15:52
19834,Papilio machaon,species,Swallowtail,1,1.72285935,42.54329207,Europe,Andorra,Andorra - Pas de la Casa,2016-06-16,12:26
33217,Sibbaldia procumbens,synonym,Sibbaldia,1,1.71918,42.54012,Europe,Andorra,Andorra - Pas de la Casa,2016-06-15,
36879,Sanguisorba officinalis,species,Great Burnet,1,1.70736,42.5459,Europe,Andorra,Andorra - Encamp,2016-06-15,
42698,Caltha palustris subsp. palustris,subspecies,Marsh Marigold,1,1.70736,42.5459,Europe,Andorra,Andorra - Encamp,2016-06-15,
42709,Caltha palustris subsp. palustris,subspecies,Marsh Marigold,1,1.47808,42.63128,Europe,Andorra,Andorra,2016-06-16,
64720,Polystichum lonchitis,species,Holly Fern,1,1.70736,42.5459,Europe,Andorra,Andorra - Encamp,2016-06-15,
64753,Polystichum lonchitis,species,Holly Fern,1,1.4788,42.6308,Europe,Andorra,Andorra,2016-06-16,
82760,Luzula nivea,species,Snow-white Wood-rush,1,1.54761314,42.55276415,Europe,Andorra,Andorra,2016-06-15,
82805,Leucanthemopsis alpina,species,Alpine moon daisy,1,1.71955,42.541,Europe,Andorra,Andorra - Pas de la Casa,2016-06-15,
106694,Homogyne alpina,species,Purple Colt's-foot,1,1.70736,42.5459,Europe,Andorra,Andorra - Encamp,2016-06-15,
10599,Meum athamanticum,species,Spignel,1,1.70736,42.5459,Europe,Andorra,Andorra - Encamp,2016-06-15,
10615,Meum athamanticum,species,Spignel,1,1.4816,42.6317,Europe,Andorra,Andorra,2016-06-16,
10731,Melampyrum pratense,species,Common Cow-wheat,1,1.548353,42.55104,Europe,Andorra,Andorra,2016-06-15,
11268,Vaccinium myrtillus,species,Bilberry,1,1.47995,42.63244,Europe,Andorra,Andorra,2016-06-16,
11295,Vaccinium myrtillus,species,Bilberry,1,1.70736,42.5459,Europe,Andorra,Andorra - Encamp,2016-06-15,
30091,Trifolium alpinum,species,Alpine clover,1,1.71955,42.541,Europe,Andorra,Andorra - Pas de la Casa,2016-06-15,
30094,Trifolium alpinum,species,Alpine clover,1,1.47995,42.63244,Europe,Andorra,Andorra,2016-06-16,
32096,Trifolium badium,species,Brown Clover,1,1.68853,42.5577,Europe,Andorra,Andorra,2016-06-16,
41807,Astragalus monspessulanus,species,,1,1.58754,42.56978,Europe,Andorra,Andorra - Canillo,2016-06-15,
41839,Astragalus glycyphyllos,species,Wild Liquorice,1,1.52114,42.63034,Europe,Andorra,Andorra,2016-06-16,
47406,Cephalanthera longifolia,species,Narrow-leaved Helleborine,1,1.5,42.6,Europe,Andorra,Andorra,2016-06-16,
47582,Cephalanthera longifolia,species,Narrow-leaved Helleborine,1,1.5,42.55,Europe,Andorra,Andorra,2016-06-15,
47934,Rhododendron ferrugineum,species,Alpenrose,1,1.70736,42.5459,Europe,Andorra,Andorra - Encamp,2016-06-15,
48009,Rhododendron ferrugineum,species,Alpenrose,1,1.4788,42.6308,Europe,Andorra,Andorra,2016-06-16,
48197,Soldanella alpina,species,Alpine snowbell,1,1.4788,42.6308,Europe,Andorra,Andorra,2016-06-16,
50662,Primula integrifolia,species,,1,1.70736,42.5459,Europe,Andorra,Andorra - Encamp,2016-06-15,
50718,Primula integrifolia,species,,1,1.71918,42.54012,Europe,Andorra,Andorra - Pas de la Casa,2016-06-15,
50841,Primula integrifolia,species,,1,1.4816,42.6317,Europe,Andorra,Andorra,2016-06-16,
50847,Primula integrifolia,species,,1,1.47808,42.63128,Europe,Andorra,Andorra,2016-06-16,
52422,Primula elatior subsp. intricata,subspecies,,1,1.70736,42.5459,Europe,Andorra,Andorra - Encamp,2016-06-15,
59159,Linaria alpina,species,,1,1.4816,42.6317,Europe,Andorra,Andorra,2016-06-16,
59163,Linaria alpina,species,,1,1.70736,42.5459,Europe,Andorra,Andorra - Encamp,2016-06-15,
59167,Linaria alpina,species,,1,1.71955,42.541,Europe,Andorra,Andorra - Pas de la Casa,2016-06-15,
63438,Kalmia procumbens,species,Trailing Azalea,1,1.71918,42.54012,Europe,Andorra,Andorra - Pas de la Casa,2016-06-15,
68615,Dactylorhiza sambucina,species,Elder-flowered Orchid,1,1.68,42.55,Europe,Andorra,Andorra,2016-06-15,
68791,Dactylorhiza majalis,species,Western Marsh-orchid s.l.,1,1.68,42.55,Europe,Andorra,Andorra,2016-06-15,
72153,Ajuga pyramidalis,species,Pyramidal Bugle,1,1.45,42.6,Europe,Andorra,Andorra,2016-06-16,
72198,Ajuga pyramidalis,species,Pyramidal Bugle,1,1.45,42.6,Europe,Andorra,Andorra,2016-06-16,
77892,Anthyllis montana,species,Mountain Kidney Vetch,1,1.58754,42.56978,Europe,Andorra,Andorra - Canillo,2016-06-15,
101411,Antennaria dioica,species,Mountain Everlasting,1,1.45,42.6,Europe,Andorra,Andorra,2016-06-16,
101452,Antennaria dioica,species,Mountain Everlasting,1,1.7,42.5,Europe,Andorra,Andorra - Pas de la Casa,2016-06-15,
101477,Antennaria carpatica,species,,1,1.71918,42.54012,Europe,Andorra,Andorra - Pas de la Casa,2016-06-15,
46797,Cerastium cerastoides,species,Starwort Mouse-ear,1,1.4788,42.6308,Europe,Andorra,Andorra,2016-06-16,
46810,Gypsophila repens,species,Alpine Gypsophila,1,1.58754,42.56978,Europe,Andorra,Andorra - Canillo,2016-06-15,
63384,Alchemilla saxatilis,species,,1,1.71918,42.54012,Europe,Andorra,Andorra - Pas de la Casa,2016-06-15,
102865,Myosotis alpestris,species,Alpine Forget-me-not,1,1.68853,42.5577,Europe,Andorra,Andorra,2016-06-15,
21307,Blitum bonus-henricus,species,Good-King-Henry,1,1.47808,42.63128,Europe,Andorra,Andorra,2016-06-16,
20139,Silene rupestris,species,,1,1.50006,42.63293,Europe,Andorra,Andorra,2016-06-16,
20316,Silene dioica,species,Red Campion,1,1.5211400000001,42.63034,Europe,Andorra,Andorra,2016-06-16,
28419,Aconitum napellus subsp. vulgare,subspecies,Monk's-hood,1,1.70736,42.5459,Europe,Andorra,Andorra - Encamp,2016-06-15,
29205,Ranunculus pyrenaeus,species,,1,1.4788,42.6308,Europe,Andorra,Andorra,2016-06-16,
29206,Ranunculus pyrenaeus,species,,1,1.7191800000001,42.54012,Europe,Andorra,Andorra - Pas de la Casa,2016-06-15,
31092,Ranunculus pyrenaeus,species,,1,1.4816,42.6317,Europe,Andorra,Andorra,2016-06-16,
31264,Ranunculus aconitifolius,species,Aconite-Leaved Buttercup,1,1.479701222229,42.630973658078,Europe,Andorra,Andorra,2016-06-16,
34002,Pedicularis verticillata,species,Whorled lousewort,1,1.68853,42.5577,Europe,Andorra,Andorra,2016-06-15,
47177,Plantago monosperma,species,,1,1.7191800000001,42.54012,Europe,Andorra,Andorra - Pas de la Casa,2016-06-15,
47480,Pedicularis foliosa,species,,1,1.6888062675285,42.557667263316,Europe,Andorra,Andorra,2016-06-15,
47642,Plantago media,species,Hoary Plantain,1,1.68872,42.5576,Europe,Andorra,Andorra,2016-06-15,
54138,Ononis cristata,species,,1,1.5848590674591,42.567442228788,Europe,Andorra,Andorra - Canillo,2016-06-15,
54152,Oxytropis halleri,species,Purple Oxytropis,1,1.58754,42.56978,Europe,Andorra,Andorra - Canillo,2016-06-15,
69465,Gentiana verna,species,Spring Gentian,1,1.7078,42.5459,Europe,Andorra,Andorra - Encamp,2016-06-15,
69473,Gentiana verna,species,Spring Gentian,1,1.68872,42.5576,Europe,Andorra,Andorra,2016-06-15,
69494,Gentiana verna,species,Spring Gentian,1,1.47808,42.63128,Europe,Andorra,Andorra,2016-06-16,
75339,Gentiana acaulis,species,Trumpet gentian,1,1.7191800000001,42.54012,Europe,Andorra,Andorra - Pas de la Casa,2016-06-15,
75373,Gentiana acaulis,species,Trumpet gentian,1,1.7078,42.5459,Europe,Andorra,Andorra - Encamp,2016-06-15,
76221,Gentiana alpina,species,Southern gentian,1,1.7191800000001,42.54012,Europe,Andorra,Andorra - Pas de la Casa,2016-06-15,
76249,Gentiana alpina,species,Southern gentian,1,1.47995,42.63244,Europe,Andorra,Andorra,2016-06-16,
76279,Gentiana pyrenaica,species,,1,1.7078,42.5459,Europe,Andorra,Andorra - Encamp,2016-06-15,
76351,Gentiana pyrenaica,species,,1,1.47995,42.63244,Europe,Andorra,Andorra,2016-06-16,
98275,Erinus alpinus,species,Fairy Foxglove,1,1.58754,42.56978,Europe,Andorra,Andorra - Canillo,2016-06-15,
104651,Dryas octopetala,species,Mountain Avens,1,1.58754,42.56978,Europe,Andorra,Andorra - Canillo,2016-06-15,
109374,Daphne cneorum,species,Rose daphne,1,1.58754,42.56978,Europe,Andorra,Andorra - Canillo,2016-06-15,
10672,Erigeron neglectus,species,,1,1.71918,42.54012,Europe,Andorra,Andorra - Pas de la Casa,2016-06-15,11:31
27964,Lathyrus laevigatus subsp. occidentalis,subspecies,,1,1.538,42.611,Europe,Andorra,Andorra,2016-06-16,
42034,Euphorbia cyparissias,species,Cypress Spurge,1,1.58754,42.56978,Europe,Andorra,Andorra - Canillo,2016-06-15,
58884,Crocus nudiflorus,species,Autumn Crocus,1,1.47995,42.63244,Europe,Andorra,Andorra,2016-06-16,
59073,Erythronium dens-canis,species,Dog's-tooth-violet,1,1.47995,42.63244,Europe,Andorra,Andorra,2016-06-16,
94759,Androsace carnea,synonym,,1,1.71955,42.541,Europe,Andorra,Andorra - Pas de la Casa,2016-06-15,
94803,Androsace carnea,synonym,,1,1.7191800000001,42.54012,Europe,Andorra,Andorra - Pas de la Casa,2016-06-15,
94857,Androsace carnea,synonym,,1,1.7078,42.5459,Europe,Andorra,Andorra - Encamp,2016-06-16,
94901,Androsace carnea,synonym,,1,1.4807000000001,42.6318,Europe,Andorra,Andorra,2016-06-16,
93151,Pinguicula grandiflora subsp. grandiflora,subspecies,,1,1.480698777771,42.631842081863,Europe,Andorra,Andorra,2016-06-16,
1494,Pulsatilla alpina subsp. apiifolia,subspecies,,1,1.7078,42.5459,Europe,Andorra,Andorra - Encamp,2016-06-15,
1668,Pulsatilla vernalis,species,,1,1.7191800000001,42.54012,Europe,Andorra,Andorra - Pas de la Casa,2016-06-15,
14238,Persicaria bistorta,species,Common Bistort,1,1.54003,42.61927,Europe,Andorra,Andorra,2016-06-16,
78795,Cerastium alpinum,species,Alpine Mouse-ear,1,1.68853,42.55777,Europe,Andorra,Andorra,2016-06-15,
99600,Cardamine resedifolia,species,,1,1.7191800000001,42.54012,Europe,Andorra,Andorra - Pas de la Casa,2016-06-15,
99640,Geum montanum,species,,1,1.7193302037049,42.54045201123,Europe,Andorra,Andorra - Pas de la Casa,2016-06-15,
9265,Sempervivum montanum,species,Mountain House-leek,1,1.7190941693116,42.54012,Europe,Andorra,Andorra - Pas de la Casa,2016-06-15,
57397,Globularia repens,species,,1,1.58754,42.56978,Europe,Andorra,Andorra - Canillo,2016-06-15,
87506,Saxifraga stellaris,species,Starry Saxifrage,1,1.7078,42.5459,Europe,Andorra,Andorra,2016-06-15,
87547,Saxifraga stellaris,species,Starry Saxifrage,1,1.6887874920654,42.557540817933,Europe,Andorra,Andorra,2016-06-15,
87626,Saxifraga stellaris,species,Starry Saxifrage,1,1.47808,42.63128,Europe,Andorra,Andorra,2016-06-16,
90603,Saxifraga stellaris,species,Starry Saxifrage,1,1.4787099813111,42.630753385346,Europe,Andorra,Andorra,2016-06-16,
91070,Saxifraga paniculata,species,Livelong Saxifrage,1,1.68853,42.55777,Europe,Andorra,Andorra,2016-06-15,
91295,Saxifraga paniculata,species,Livelong Saxifrage,1,1.50006,42.63293,Europe,Andorra,Andorra,2016-06-16,
100399,Clinopodium alpinum subsp. meridionale,subspecies,,1,1.58502,42.5673,Europe,Andorra,Andorra - Canillo,2016-06-15,
12472,Arabis scabra,species,Bristol Rock-cress,1,1.58754,42.56978,Europe,Andorra,Andorra - Canillo,2016-06-15,
27325,Fragaria vesca,species,Wild Strawberry,1,1.54353,42.55104,Europe,Andorra,Andorra,2016-06-15,
79353,Oenanthe oenanthe,species,Northern Wheatear,1,1.7171795820468,42.540313296805,Europe,Andorra,Andorra - Pas de la Casa,2016-07-16,
94379,Valeriana tripteris,species,,1,1.6885957141209,42.557757157924,Europe,Andorra,Andorra,2016-06-15,
19670,Potentilla rupestris,species,Rock Cinquefoil,1,1.5211400000001,42.63034,Europe,Andorra,Andorra,2016-06-16,
20336,Potentilla tabernaemontani,species,Spring Cinquefoil,1,1.68867,42.55767,Europe,Andorra,Andorra,2016-06-15,
27132,Bartsia alpina,species,Alpine Bartsia,1,1.7078,42.5459,Europe,Andorra,Andorra,2016-06-15,
31259,Jasione crispa subsp. crispa,subspecies,,1,1.71955,42.541,Europe,Andorra,Andorra - Pas de la Casa,2016-06-15,
70255,Blitum bonus-henricus,species,Good-King-Henry,1,1.71955,42.541,Europe,Andorra,Andorra - Pas de la Casa,2016-06-15,
82499,Arenaria grandiflora subsp. grandiflora,subspecies,,1,1.7078,42.5459,Europe,Andorra,Andorra,2016-06-15,
2719,Iberis sempervirens,species,Perennial Candytuft,1,1.58754,42.56978,Europe,Andorra,Andorra - Canillo,2016-06-15,
65749,Marmota marmota,species,Alpine Marmot,3,1.7262733707321,42.542136664333,Europe,Andorra,Andorra - Pas de la Casa,2016-07-28,
65755,Lycaena hippothoe,species,Purple-edged Copper,1,1.7,42.5,Europe,Andorra,Andorra,2016-07-28,12:53
65756,Lysandra coridon,species,Chalk hill Blue,4,1.7074,42.5459,Europe,Andorra,Andorra,2016-07-28,12:43
65757,Coenonympha glycerion,species,Chestnut Heath,2,1.7,42.5,Europe,Andorra,Andorra - Pas de la Casa,2016-07-28,11:59
65758,Oenanthe oenanthe,species,Northern Wheatear,3,1.7254,42.5412,Europe,Andorra,Andorra - Pas de la Casa,2016-07-28,11:38
65767,Erebia cassioides,species,Common Brassy Ringlet,4,1.7252970456684,42.541646565121,Europe,Andorra,Andorra - Pas de la Casa,2016-07-28,
65768,Erebia meolans,species,Piedmont Ringlet,1,1.7254616253194,42.541568386041,Europe,Andorra,Andorra - Pas de la Casa,2016-07-28,
70859,Marmota marmota,species,Alpine Marmot,3,1.7262733707321,42.542136664333,Europe,Andorra,Andorra - Pas de la Casa,2016-07-28,
71113,Lycaena hippothoe,species,Purple-edged Copper,1,1.7,42.5,Europe,Andorra,Andorra,2016-07-28,12:53
71114,Lysandra coridon,species,Chalk hill Blue,4,1.7074,42.5459,Europe,Andorra,Andorra,2016-07-28,12:43
71115,Coenonympha glycerion,species,Chestnut Heath,2,1.7,42.5,Europe,Andorra,Andorra - Pas de la Casa,2016-07-28,11:59
71116,Oenanthe oenanthe,species,Northern Wheatear,3,1.7254,42.5412,Europe,Andorra,Andorra - Pas de la Casa,2016-07-28,11:38
35573,Narcissus poeticus,species,Pheasant's-eye Daffodil,1,1.58844,42.57128,Europe,Andorra,Andorra - Canillo,2016-06-14,
46814,Erebia cassioides,species,Common Brassy Ringlet,4,1.7252970456684,42.541646565121,Europe,Andorra,Andorra - Pas de la Casa,2016-07-28,
46957,Erebia meolans,species,Piedmont Ringlet,1,1.7254616253194,42.541568386041,Europe,Andorra,Andorra - Pas de la Casa,2016-07-28,
119551,Carduus carlinoides,species,,1,1.71955,42.541,Europe,Andorra,Andorra - Pas de la Casa,2016-06-15,
120328,Veronica bellidioides,species,,1,1.4802267089843,42.632284112253,Europe,Andorra,Andorra,2016-06-16,
10303,Iberolacerta aurelioi,species,Aurelio's Rock Lizard,2,1.47,42.62,Europe,Andorra,Andorra,2016-07-16,
36001,Geranium sylvaticum,species,Wood Crane's-bill,1,1.5400407288361,42.619329212638,Europe,Andorra,Andorra,2016-06-16,
51546,Carex davalliana,species,Davall's Sedge,1,1.68853,42.55777,Europe,Andorra,Andorra,2016-06-15,
51608,Carex flacca,species,Glaucous Sedge,1,1.7189627410698,42.540035020652,Europe,Andorra,Andorra - Pas de la Casa,2016-06-15,
101477,Botrychium lunaria,species,Moonwort,1,1.7,42.5,Europe,Andorra,Andorra,2016-06-15,13:55
101478,Vaccinium myrtillus,species,Bilberry,1,1.722813444212079,42.543527288362384,Europe,Andorra,Andorra - Pas de la Casa,2016-06-15,13:24
55180,Gentiana verna,species,Spring Gentian,1,1.72224785,42.54144321,Europe,Andorra,Andorra - Pas de la Casa,2016-06-16,10:34
55181,Gentiana alpina,species,Southern gentian,1,1.72223364,42.54145423,Europe,Andorra,Andorra - Pas de la Casa,2016-06-16,10:34
55182,Pulsatilla vernalis,species,,1,1.72222327,42.54145078,Europe,Andorra,Andorra - Pas de la Casa,2016-06-16,10:42
55183,Ranunculus pyrenaeus,species,,1,1.72221857,42.54145271,Europe,Andorra,Andorra - Pas de la Casa,2016-06-16,10:43
55184,Pedicularis verticillata,species,Whorled lousewort,1,1.72222222,42.54144777,Europe,Andorra,Andorra - Pas de la Casa,2016-06-16,10:49
55185,Oenanthe oenanthe,species,Northern Wheatear,1,1.72225168,42.54142398,Europe,Andorra,Andorra - Pas de la Casa,2016-06-16,10:59
55186,Cardamine resedifolia,species,,1,1.72198895,42.54138804,Europe,Andorra,Andorra - Pas de la Casa,2016-06-16,11:08
55187,Androsace carnea,synonym,,1,1.72203388,42.54139161,Europe,Andorra,Andorra - Pas de la Casa,2016-06-16,11:09
55188,Geum montanum,species,,1,1.72174663,42.54151433,Europe,Andorra,Andorra - Pas de la Casa,2016-06-16,11:33
55189,Trifolium alpinum,species,Alpine clover,1,1.7223784,42.54196152,Europe,Andorra,Andorra - Pas de la Casa,2016-06-16,11:50
55191,Erigeron uniflorus,species,One-flowered fleabane,1,1.72237835,42.54196163,Europe,Andorra,Andorra - Pas de la Casa,2016-06-16,11:51
55192,Linaria alpina,species,,1,1.72237447,42.54212085,Europe,Andorra,Andorra - Pas de la Casa,2016-06-16,12:11
55193,Kalmia procumbens,species,Trailing Azalea,1,1.72279732,42.5430839,Europe,Andorra,Andorra - Pas de la Casa,2016-06-16,12:55
55194,Rhododendron ferrugineum,species,Alpenrose,1,1.72279732,42.5430839,Europe,Andorra,Andorra - Pas de la Casa,2016-06-16,12:55
55195,Primula integrifolia,species,,1,1.72279732,42.5430839,Europe,Andorra,Andorra - Pas de la Casa,2016-06-16,12:55
55196,Saxifraga paniculata,species,Livelong Saxifrage,1,1.72279732,42.5430839,Europe,Andorra,Andorra - Pas de la Casa,2016-06-16,12:55
55197,Falco tinnunculus,species,Common Kestrel,1,1.71958858,42.54563478,Europe,Andorra,Andorra,2016-06-16,13:44
55198,Gentiana pyrenaica,species,,1,1.71959095,42.54565208,Europe,Andorra,Andorra,2016-06-16,13:47
55199,Antennaria dioica,species,Mountain Everlasting,1,1.7,42.5,Europe,Andorra,Andorra - Pas de la Casa,2016-06-16,14:16
57437,Ranunculus pyrenaeus,species,,1,1.72221857,42.54145271,Europe,Andorra,Andorra - Pas de la Casa,2016-06-16,10:43
57438,Pedicularis verticillata,species,Whorled lousewort,1,1.72222222,42.54144777,Europe,Andorra,Andorra - Pas de la Casa,2016-06-16,10:49
57439,Oenanthe oenanthe,species,Northern Wheatear,1,1.72225168,42.54142398,Europe,Andorra,Andorra - Pas de la Casa,2016-06-16,10:59
57440,Geum montanum,species,,1,1.72174663,42.54151433,Europe,Andorra,Andorra - Pas de la Casa,2016-06-16,11:33
57441,Trifolium alpinum,species,Alpine clover,1,1.7223784,42.54196152,Europe,Andorra,Andorra - Pas de la Casa,2016-06-16,11:50
57442,Linaria alpina,species,,1,1.72237447,42.54212085,Europe,Andorra,Andorra - Pas de la Casa,2016-06-16,12:11
57443,Kalmia procumbens,species,Trailing Azalea,1,1.72279732,42.5430839,Europe,Andorra,Andorra - Pas de la Casa,2016-06-16,12:55
57444,Rhododendron ferrugineum,species,Alpenrose,1,1.72279732,42.5430839,Europe,Andorra,Andorra - Pas de la Casa,2016-06-16,12:55
57445,Primula integrifolia,species,,1,1.72279732,42.5430839,Europe,Andorra,Andorra - Pas de la Casa,2016-06-16,12:55
57446,Saxifraga paniculata,species,Livelong Saxifrage,1,1.72279732,42.5430839,Europe,Andorra,Andorra - Pas de la Casa,2016-06-16,12:55
57447,Falco tinnunculus,species,Common Kestrel,1,1.71958858,42.54563478,Europe,Andorra,Andorra,2016-06-16,13:44
57448,Gentiana pyrenaica,species,,1,1.71959095,42.54565208,Europe,Andorra,Andorra,2016-06-16,13:47
57449,Antennaria dioica,species,Mountain Everlasting,1,1.7,42.5,Europe,Andorra,Andorra - Pas de la Casa,2016-06-16,14:16
117741,Fragaria vesca,species,Wild Strawberry,5,1.5148830691578,42.537377505581,Europe,Andorra,Andorra,2016-05-07,
2113,Decticus verrucivorus,species,Wart-Biter,1,1.6,42.6,Europe,Andorra,Andorra,2015-08-21,17:07
2114,Prunella modularis,species,Dunnock,1,1.64019666666667,42.6139316666667,Europe,Andorra,Andorra,2015-08-22,10:11
2115,Gyps fulvus,species,Griffon Vulture,4,1.638765,42.6173266666667,Europe,Andorra,Andorra,2015-08-22,10:35
2116,Marmota marmota,species,Alpine Marmot,1,1.63892166666667,42.618435,Europe,Andorra,Andorra,2015-08-22,10:55
2117,Lysandra coridon,species,Chalk hill Blue,1,1.58756833333333,42.5526933333333,Europe,Andorra,Andorra - Canillo,2015-08-22,14:20
2118,Oenanthe oenanthe,species,Northern Wheatear,4,1.69360833333333,42.53087,Europe,Andorra,Andorra,2015-08-23,10:16
2119,Gyps fulvus,species,Griffon Vulture,1,1.68553,42.5268583333333,Europe,Andorra,Andorra,2015-08-23,10:59
2120,Decticus verrucivorus,species,Wart-Biter,1,1.65,42.5,Europe,Andorra,Andorra,2015-08-23,13:09
35505,Decticus verrucivorus,species,Wart-Biter,1,1.65,42.6,Europe,Andorra,Andorra,2015-08-24,
35525,Sericomyia silentis,species,,1,1.69492727,42.61321593,Europe,Andorra,Andorra,2015-08-24,
35540,Aconitum napellus,species,Monk's-hood,1,1.63,42.61,Europe,Andorra,Andorra,2015-08-24,
35642,Ptyonoprogne rupestris,species,Eurasian Crag Martin,3,1.53855356388,42.6184960455,Europe,Andorra,Andorra,2015-08-23,
35685,Sciurus vulgaris,species,Eurasian Red Squirrel,1,1.51582762599,42.6001347482,Europe,Andorra,Andorra,2015-08-23,
35812,Eliomys quercinus,species,Garden Dormouse,1,1.45,42.55,Europe,Andorra,Andorra,2015-08-21,
35877,Veratrum album,species,White false hellebore,1,1.45187269896,42.5797642716,Europe,Andorra,Andorra,2015-08-21,
118474,Erebia meolans,species,Piedmont Ringlet,12,1.5147,42.5809,Europe,Andorra,Andorra,2015-08-20,10:51
118475,Lysandra coridon,species,Chalk hill Blue,1,1.5143,42.5817,Europe,Andorra,Andorra,2015-08-20,10:44
118476,Aglais io,species,Peacock,1,1.5143,42.5817,Europe,Andorra,Andorra,2015-08-20,10:39
118477,Phoenicurus ochruros,species,Black Redstart,1,1.5162,42.5819,Europe,Andorra,Andorra,2015-08-20,10:32
118478,Gyps fulvus,species,Griffon Vulture,2,1.5208,42.5062,Europe,Andorra,Andorra,2015-08-19,15:15
118479,Pieris brassicae,species,Large White,1,1.5186,42.5822,Europe,Andorra,Andorra,2015-08-19,12:31
118480,Lysandra coridon,species,Chalk hill Blue,6,1.5154,42.5822,Europe,Andorra,Andorra,2015-08-19,12:04
118481,Pieris brassicae,species,Large White,1,1.515,42.5819,Europe,Andorra,Andorra,2015-08-19,11:57
118482,Corvus corax,species,Northern Raven,1,1.5174,42.5823,Europe,Andorra,Andorra,2015-08-19,11:31
118483,Ptyonoprogne rupestris,species,Eurasian Crag Martin,2,1.5174,42.582,Europe,Andorra,Andorra,2015-08-19,11:29
118484,Ptyonoprogne rupestris,species,Eurasian Crag Martin,15,1.5188,42.5795,Europe,Andorra,Andorra,2015-08-19,10:34
118485,Motacilla cinerea,species,Grey Wagtail,1,1.5186,42.58,Europe,Andorra,Andorra,2015-08-19,09:45
91897,Falco tinnunculus,species,Common Kestrel,2,1.70338465,42.5958953,Europe,Andorra,Andorra,2015-08-12,12:12
15,Prunella collaris,species,Alpine Accentor,1,1.474,42.6211,Europe,Andorra,Andorra,2015-07-22,12:34
16,Oenanthe oenanthe,species,Northern Wheatear,1,1.474,42.6212,Europe,Andorra,Andorra,2015-07-22,12:34
17,Anthus spinoletta,species,Water Pipit,1,1.474,42.6212,Europe,Andorra,Andorra,2015-07-22,12:34
18,Phoenicurus ochruros,species,Black Redstart,1,1.474,42.6212,Europe,Andorra,Andorra,2015-07-22,12:33
19,Phoenicurus ochruros,species,Black Redstart,1,1.4743,42.6211,Europe,Andorra,Andorra,2015-07-22,12:17
20,Oenanthe oenanthe,species,Northern Wheatear,1,1.4743,42.6211,Europe,Andorra,Andorra,2015-07-22,12:17
956,Prunella collaris,species,Alpine Accentor,1,1.5985107579,42.5750162996,Europe,Andorra,Andorra - Canillo,2015-06-17,
962,Gyps fulvus,species,Griffon Vulture,10,1.5985107579,42.5750162996,Europe,Andorra,Andorra - Canillo,2015-06-17,
12611,Falco tinnunculus,species,Common Kestrel,1,1.7194,42.5398,Europe,Andorra,Andorra - Pas de la Casa,2015-07-21,14:06
51429,Lasiommata megera,species,Wall Brown,1,1.5,42.53,Europe,Andorra,Andorra,2015-07-06,08:59
51430,Ochlodes sylvanus,species,Large Skipper,2,1.49,42.52,Europe,Andorra,Andorra,2015-07-06,09:07
51431,Coenonympha arcania,species,Pearly Heath,3,1.45,42.5,Europe,Andorra,Andorra,2015-07-06,09:09
51432,Coenonympha arcania,species,Pearly Heath,1,1.5,42.5,Europe,Andorra,Andorra,2015-07-06,09:13
51433,Coenonympha arcania,species,Pearly Heath,1,1.45,42.5,Europe,Andorra,Andorra,2015-07-06,09:16
51434,Aglais io,species,Peacock,1,1.49,42.52,Europe,Andorra,Andorra,2015-07-06,09:19
51435,Melitaea parthenoides,species,Meadow Fritillary,1,1.45,42.5,Europe,Andorra,Andorra,2015-07-06,09:23
51436,Melanargia lachesis,species,Iberian Marbled White,1,1.49,42.52,Europe,Andorra,Andorra,2015-07-06,09:25
51437,Leptidea sinapis,species,Wood White,2,1.49,42.52,Europe,Andorra,Andorra,2015-07-06,09:32
51438,Erebia meolans,species,Piedmont Ringlet,2,1.49,42.52,Europe,Andorra,Andorra,2015-07-06,09:39
51439,Coenonympha arcania,species,Pearly Heath,1,1.45,42.5,Europe,Andorra,Andorra,2015-07-06,09:51
51440,Erebia meolans,species,Piedmont Ringlet,1,1.49,42.52,Europe,Andorra,Andorra,2015-07-06,09:55
51441,Erebia meolans,species,Piedmont Ringlet,1,1.5,42.52,Europe,Andorra,Andorra,2015-07-06,10:07
51442,Lasiommata maera,species,Large Wall Brown,1,1.5,42.5,Europe,Andorra,Andorra,2015-07-06,10:21
51443,Erebia meolans,species,Piedmont Ringlet,1,1.5,42.52,Europe,Andorra,Andorra,2015-07-06,10:28
51444,Lasiommata maera,species,Large Wall Brown,1,1.5,42.5,Europe,Andorra,Andorra,2015-07-06,10:33
51445,Lasiommata maera,species,Large Wall Brown,1,1.5,42.5,Europe,Andorra,Andorra,2015-07-06,10:38
51446,Lasiommata maera,species,Large Wall Brown,1,1.5,42.5,Europe,Andorra,Andorra,2015-07-06,10:48
51447,Erebia meolans,species,Piedmont Ringlet,2,1.5,42.51,Europe,Andorra,Andorra,2015-07-06,10:57
51448,Coenonympha arcania,species,Pearly Heath,1,1.5,42.5,Europe,Andorra,Andorra,2015-07-06,11:04
51449,Erebia epiphron,species,Mountain Ringlet,2,1.5,42.51,Europe,Andorra,Andorra,2015-07-06,11:12
51450,Lampides boeticus,species,Long-tailed Blue,1,1.5,42.51,Europe,Andorra,Andorra,2015-07-06,11:21
51451,Lycaena phlaeas,species,Small Copper,1,1.5,42.51,Europe,Andorra,Andorra,2015-07-06,11:24
51452,Boloria euphrosyne,species,Pearl-bordered Fritillary,2,1.5,42.5,Europe,Andorra,Andorra,2015-07-06,11:26
51453,Erebia triarius,species,de Prunner's Ringlet,1,1.5,42.51,Europe,Andorra,Andorra,2015-07-06,11:34
51454,Aglais urticae,species,Small Tortoiseshell,20,1.5,42.51,Europe,Andorra,Andorra,2015-07-06,11:40
51455,Erebia meolans,species,Piedmont Ringlet,1,1.5,42.51,Europe,Andorra,Andorra,2015-07-06,11:43
51456,Erebia epiphron,species,Mountain Ringlet,1,1.5,42.51,Europe,Andorra,Andorra,2015-07-06,11:48
51457,Lampides boeticus,species,Long-tailed Blue,1,1.5,42.51,Europe,Andorra,Andorra,2015-07-06,11:49
51458,Lasiommata maera,species,Large Wall Brown,1,1.45,42.5,Europe,Andorra,Andorra,2015-07-06,11:55
51459,Aglais urticae,species,Small Tortoiseshell,1,1.49,42.51,Europe,Andorra,Andorra,2015-07-06,11:58
51460,Erebia meolans,species,Piedmont Ringlet,1,1.49,42.51,Europe,Andorra,Andorra,2015-07-06,12:00
51461,Lycaena alciphron,species,Purple-shot Copper,3,1.49,42.51,Europe,Andorra,Andorra,2015-07-06,12:17
51462,Papilio machaon,species,Swallowtail,1,1.49,42.51,Europe,Andorra,Andorra,2015-07-06,12:17
51463,Lasiommata megera,species,Wall Brown,5,1.49,42.51,Europe,Andorra,Andorra,2015-07-06,12:20
51464,Lycaena phlaeas,species,Small Copper,1,1.49,42.51,Europe,Andorra,Andorra,2015-07-06,12:20
51465,Satyrium esculi,species,False Ilex Hairstreak,1,1.49,42.51,Europe,Andorra,Andorra,2015-07-06,12:48
51466,Agriades glandon,species,Glandon Blue,1,1.49,42.51,Europe,Andorra,Andorra,2015-07-06,12:48
51467,Aglais urticae,species,Small Tortoiseshell,1,1.49,42.51,Europe,Andorra,Andorra,2015-07-06,12:49
51468,Pieris brassicae,species,Large White,1,1.5,42.51,Europe,Andorra,Andorra,2015-07-06,13:13
51469,Lasiommata maera,species,Large Wall Brown,1,1.5,42.5,Europe,Andorra,Andorra,2015-07-06,13:44
51470,Erebia triarius,species,de Prunner's Ringlet,1,1.5,42.52,Europe,Andorra,Andorra,2015-07-06,13:52
51471,Leptidea sinapis,species,Wood White,1,1.49,42.52,Europe,Andorra,Andorra,2015-07-06,14:05
51472,Melitaea deione,species,Provencal Fritillary,1,1.49,42.52,Europe,Andorra,Andorra,2015-07-06,14:12
51473,Fabriciana adippe,species,High Brown Fritillary,1,1.49,42.52,Europe,Andorra,Andorra,2015-07-06,14:17
51474,Thymelicus lineola,species,Essex Skipper,3,1.49,42.52,Europe,Andorra,Andorra,2015-07-06,14:25
65212,Lampides boeticus,species,Long-tailed Blue,1,1.49,42.51,Europe,Andorra,Andorra,2015-07-06,
77093,Melanargia lachesis,species,Iberian Marbled White,3,1.51,42.53,Europe,Andorra,Andorra,2015-07-05,19:04
77094,Pyrgus armoricanus,species,Oberthür's Grizzled Skipper,1,1.5,42.5,Europe,Andorra,Andorra,2015-07-05,19:10
77095,Aricia agestis,species,Brown Argus,1,1.51,42.53,Europe,Andorra,Andorra,2015-07-05,19:15
77096,Melitaea athalia,species,Heath Fritillary,2,1.5,42.5,Europe,Andorra,Andorra,2015-07-05,19:15
77097,Melitaea didyma,species,Spotted Fritillary,1,1.5,42.5,Europe,Andorra,Andorra,2015-07-05,19:29
77098,Plebejus argus,species,Silver-studded Blue,1,1.51,42.53,Europe,Andorra,Andorra,2015-07-05,19:29
77099,Melitaea parthenoides,species,Meadow Fritillary,1,1.5,42.5,Europe,Andorra,Andorra,2015-07-05,19:34
77100,Plebejus argus,species,Silver-studded Blue,1,1.51,42.53,Europe,Andorra,Andorra,2015-07-05,19:40
32891,Podarcis muralis,species,Common Wall Lizard,1,1.5,42.4,Europe,Andorra,Andorra,2014-08-09,
13702,Erythronium dens-canis,species,Dog's-tooth-violet,1,1.49050723761,42.6381339406,Europe,Andorra,Andorra,2013-07-21,
12941,Ptyonoprogne rupestris,species,Eurasian Crag Martin,2,1.48555078,42.57166484,Europe,Andorra,Andorra,2015-03-24,08:37
57913,Gypaetus barbatus,species,Bearded Vulture,1,1.49653684348,42.6076135527,Europe,Andorra,Andorra,2015-02-21,12:00
