,scientificName,taxonRank,vernacularName,individualCount,longitudeDecimal,latitudeDecimal,continent,country,locality,eventDate,eventTime
122403,Urocyon cinereoargenteus,species,Grey Fox,1,-88.939961493,17.3090143817,North America,Belize,Belize - Cayo,2015-01-18,
122775,Didelphis marsupialis,species,Common Opossum,1,-88.9830062538,17.2213351386,North America,Belize,Belize - Cayo,2015-01-16,
122833,Leopardus pardalis,species,Ocelot,1,-88.9423261955,17.3002268238,North America,Belize,Belize - Cayo,2015-01-07,
46886,Ascia monuste,species,,1,-89.0677211434,17.1573160421,North America,Belize,Belize - Cayo,2015-01-03,
46889,Panthiades bathildes,synonym,Zebra-striped Hairstreak,1,-89.0677211434,17.1573160421,North America,Belize,Belize - Cayo,2015-01-03,
46892,Anartia jatrophae,species,White Peacock,1,-89.0677211434,17.1573160421,North America,Belize,Belize - Cayo,2015-01-03,
46897,Heliconius erato,species,Red Postman,1,-89.0677211434,17.1573160421,North America,Belize,Belize - Cayo,2015-01-03,
46918,Danaus plexippus,species,American Monarch,1,-89.0677211434,17.1573160421,North America,Belize,Belize - Cayo,2015-01-03,
80387,Chaetodon striatus,species,Banded butterflyfish,1,-88.0091857945,17.7390077368,North America,Belize,Belize - Cay Caulker,2014-11-03,11:00
23352,Stelgidopteryx serripennis,species,Northern Rough-winged Swallow,1,-88.0366864801,17.7286063044,North America,Belize,Belize - Cay Caulker,2014-11-04,11:17
24252,Passerculus sandwichensis,species,Savannah Sparrow,4,-88.0283796788,17.734903849,North America,Belize,Belize - Cay Caulker,2014-11-04,10:24
114690,Mycteroperca bonaci,species,Black grouper,1,-88.008499149,17.737209232,North America,Belize,Belize - Cay Caulker,2014-11-03,11:00
93649,Dumetella carolinensis,species,Grey Catbird,1,-88.0259187505559,17.7424039228068,North America,Belize,Belize - Cay Caulker,2014-11-04,09:51
93650,Eudocimus albus,species,American White Ibis,3,-88.0261081059502,17.7424955247282,North America,Belize,Belize - Cay Caulker,2014-11-04,09:54
93651,Streptopelia decaocto,species,Eurasian Collared Dove,6,-88.0260642503893,17.7414715957509,North America,Belize,Belize - Cay Caulker,2014-11-04,09:58
93652,Amazilia rutila,species,Cinnamon Hummingbird,1,-88.0265256512267,17.741051884651,North America,Belize,Belize - Cay Caulker,2014-11-04,10:05
93653,Setophaga ruticilla,species,American Redstart,1,-88.0263626585023,17.7408914594111,North America,Belize,Belize - Cay Caulker,2014-11-04,10:07
93654,Pluvialis squatarola,species,Grey Plover,1,-88.0278013487945,17.7334131959722,North America,Belize,Belize - Cay Caulker,2014-11-04,10:44
93655,Charadrius semipalmatus,species,Semipalmated Plover,1,-88.0278013487945,17.7334131959722,North America,Belize,Belize - Cay Caulker,2014-11-04,10:44
93656,Setophaga petechia,species,Mangrove Warbler,1,-88.027851312741,17.7334446847291,North America,Belize,Belize - Cay Caulker,2014-11-04,10:45
93657,Geothlypis trichas,species,Common Yellowthroat,1,-88.027851312741,17.7334446847291,North America,Belize,Belize - Cay Caulker,2014-11-04,10:45
93658,Pluvialis squatarola,species,Grey Plover,1,-88.0305199436194,17.7308369351987,North America,Belize,Belize - Cay Caulker,2014-11-04,11:04
93659,Arenaria interpres,species,Ruddy Turnstone,5,-88.0304605299988,17.7308411508495,North America,Belize,Belize - Cay Caulker,2014-11-04,11:05
93660,Actitis macularius,species,Spotted Sandpiper,1,-88.0366612969737,17.7287488900474,North America,Belize,Belize - Cay Caulker,2014-11-04,11:21
93661,Coereba flaveola,species,Bananaquit,1,-88.032652649156,17.7295333980605,North America,Belize,Belize - Cay Caulker,2014-11-04,11:34
93662,Tringa semipalmata,species,Willet,1,-88.0300024915227,17.7310954830333,North America,Belize,Belize - Cay Caulker,2014-11-04,11:51
93663,Calidris minutilla,species,Least Sandpiper,2,-88.0300295029129,17.7311236055851,North America,Belize,Belize - Cay Caulker,2014-11-04,11:51
93664,Actitis macularius,species,Spotted Sandpiper,1,-88.0300295029129,17.7311236055851,North America,Belize,Belize - Cay Caulker,2014-11-04,11:51
93665,Egretta rufescens,species,Reddish Egret,1,-88.0298777895211,17.7315964886088,North America,Belize,Belize - Cay Caulker,2014-11-04,11:54
93666,Nyctanassa violacea,species,Yellow-crowned Night Heron,1,-88.0279704360436,17.7332056059897,North America,Belize,Belize - Cay Caulker,2014-11-04,12:02
98109,Zenaida asiatica,species,White-winged Dove,1,-88.0272269817834,17.7381783118935,North America,Belize,Belize - Cay Caulker,2014-11-03,14:54
98110,Eudocimus albus,species,American White Ibis,3,-88.0259727399083,17.7421443624363,North America,Belize,Belize - Cay Caulker,2014-11-03,15:03
98111,Arenaria interpres,species,Ruddy Turnstone,4,-88.0236111170629,17.7465918531466,North America,Belize,Belize - Cay Caulker,2014-11-03,15:40
98112,Ginglymostoma cirratum,species,Nurse Shark,10,-88.0065527558,17.7383034092,North America,Belize,Belize - Cay Caulker,2014-11-03,11:00
100744,Fregata magnificens,species,Magnificent Frigatebird,8,-88.0243550839835,17.7423266413489,North America,Belize,Belize - Cay Caulker,2014-11-03,07:27
100745,Setophaga dominica,species,Yellow-throated Warbler,1,-88.024355084,17.7423266413,North America,Belize,Belize - Cay Caulker,2014-11-02,16:30
102872,Parkesia noveboracensis,species,Northern Waterthrush,1,-88.564659822199,17.3234474750113,North America,Belize,Belize - Cayo,2014-11-02,13:23
102873,Charadrius vociferus,species,Killdeer,1,-88.6,17.3,North America,Belize,Belize - Cayo,2014-11-02,13:23
102874,Psilorhinus morio,species,Brown Jay,1,-88.5648412491638,17.3237338532495,North America,Belize,Belize - Cayo,2014-11-02,13:56
102875,Setophaga magnolia,species,Magnolia Warbler,1,-88.5648412491638,17.3237338532495,North America,Belize,Belize - Cayo,2014-11-02,13:56
12925,Sporophila morelleti,species,Morelet's Seedeater,5,-88.53904118,17.36566315,North America,Belize,Belize - Belize,2014-07-21,14:41
39933,Schiffornis veraepacis veraepacis,subspecies,Northern Schiffornis ssp veraepacis,1,-88.640441894531,16.783505561928,North America,Belize,Belize - Belize,2005-08-10,
39961,Pyrocephalus obscurus,species,Vermilion Flycatcher,1,-88.544311523438,17.698978562262,North America,Belize,Belize - Orange Walk,2005-08-10,
4357,Sporophila morelleti,species,Morelet's Seedeater,10,-88.65966796875,16.736167140985,North America,Belize,Belize - Belize,2005-07-15,
5470,Myiobius sulphureipygius sulphureipygius,subspecies,Sulphur-rumped Myiobius ssp sulphureipygius,2,-88.648681640625,16.730906589734,North America,Belize,Belize - Belize,2005-07-15,
81010,Pelecanus occidentalis,species,Brown Pelican,1,-88.0163405919,17.763700183,North America,Belize,Belize - Cay Caulker,2012-01-12,
81024,Leucophaeus atricilla,species,Laughing Gull,1,-88.0324602127,17.7409315713,North America,Belize,Belize - Cay Caulker,2012-01-10,
81026,Pelecanus occidentalis,species,Brown Pelican,1,-88.0324602127,17.7409315713,North America,Belize,Belize - Cay Caulker,2012-01-10,
81336,Egretta caerulea,species,Little Blue Heron,1,-88.01522717506519,17.7696989586,North America,Belize,Belize - Cay Caulker,2012-01-06,
81339,Calidris minutilla,species,Least Sandpiper,10,-88.03211689,17.7389695862,North America,Belize,Belize - Cay Caulker,2012-01-06,
81340,Himantopus mexicanus,species,Black-necked Stilt,1,-88.033490181,17.7363535728,North America,Belize,Belize - Cay Caulker,2012-01-06,
81341,Sphyrapicus varius,species,Yellow-bellied Sapsucker,1,-88.030743599,17.7379885857,North America,Belize,Belize - Cay Caulker,2012-01-06,
81342,Mimus gilvus,species,Tropical Mockingbird,1,-88.01472112994463,17.7718704758,North America,Belize,Belize - Cay Caulker,2012-01-06,
81344,Dumetella carolinensis,species,Grey Catbird,1,-88.0300569534,17.7386425867,North America,Belize,Belize - Cay Caulker,2012-01-06,
81345,Patagioenas leucocephala,species,White-crowned Pigeon,1,-88.0286836624,17.7396235836,North America,Belize,Belize - Cay Caulker,2012-01-06,
81357,Eudocimus albus,species,American White Ibis,1,-88.0163405919,17.763700183,North America,Belize,Belize - Cay Caulker,2012-01-06,
81358,Coereba flaveola,species,Bananaquit,1,-88.0252504349,17.7392965852,North America,Belize,Belize - Cay Caulker,2012-01-06,
81359,Setophaga petechia bryanti,subspecies,Mangrove Warbler ssp bryanti,1,-88.0283403397,17.7428935348,North America,Belize,Belize - Cay Caulker,2012-01-06,
81363,Thalasseus acuflavidus,species,Cabot's Tern,1,-88.0276536942,17.7520490803,North America,Belize,Belize - Cay Caulker,2012-01-06,
81364,Fregata magnificens,species,Magnificent Frigatebird,30,-88.0194139481,17.7631658987,North America,Belize,Belize - Cay Caulker,2012-01-06,
53020,Turdus assimilis,species,White-throated Thrush,1,-88.6061401367,16.7550886204,North America,Belize,Belize - Belize,2003-07-09,
53030,Melanerpes santacruzi,species,Velasquez's Woodpecker,1,-88.6061401367,16.7550886204,North America,Belize,Belize - Belize,2003-07-09,
53039,Phaethornis striigularis saturatus,subspecies,Stripe-throated Hermit ssp saturatus,1,-88.6061401367,16.7550886204,North America,Belize,Belize - Belize,2003-07-09,
53063,Phaethornis striigularis saturatus,subspecies,Stripe-throated Hermit ssp saturatus,1,-88.6061401367,16.7550886204,North America,Belize,Belize - Belize,2003-07-09,
53779,Sporophila morelleti,species,Morelet's Seedeater,1,-88.85518043898628,17.820400585263002,North America,Belize,Belize - Orange Walk,2003-07-01,
53789,Pyrocephalus obscurus,species,Vermilion Flycatcher,1,-88.85518043898628,17.820400585263002,North America,Belize,Belize - Orange Walk,2003-07-01,
53795,Melanerpes santacruzi,species,Velasquez's Woodpecker,1,-88.85518043898628,17.820400585263002,North America,Belize,Belize - Orange Walk,2003-07-01,
113714,Erythrodiplax berenice,species,Seaside Dragonlet,1,-87.8317451477,18.301728693,North America,Belize,Belize - Corozal,2011-10-18,
113727,Falco columbarius,species,Merlin,1,-87.8360366821,18.262935575,North America,Belize,Belize - Corozal,2011-10-18,
113750,Cyanocorax yucatanicus,species,Yucatan Jay,1,-87.8307151794,18.3028695357,North America,Belize,Belize - Corozal,2011-10-18,
113754,Melanerpes santacruzi,species,Velasquez's Woodpecker,1,-87.8307151794,18.3028695357,North America,Belize,Belize - Corozal,2011-10-18,
113755,Megaceryle alcyon,species,Belted Kingfisher,1,-87.8307151794,18.3028695357,North America,Belize,Belize - Corozal,2011-10-18,
113763,Calidris minutilla,species,Least Sandpiper,1,-87.8307151794,18.3028695357,North America,Belize,Belize - Corozal,2011-10-18,
113766,Falco sparverius,species,American Kestrel,1,-87.8307151794,18.3028695357,North America,Belize,Belize - Corozal,2011-10-18,
113767,Pandion haliaetus,species,Western Osprey,1,-87.8307151794,18.3028695357,North America,Belize,Belize - Corozal,2011-10-18,
113769,Nyctanassa violacea,species,Yellow-crowned Night Heron,1,-87.8307151794,18.3028695357,North America,Belize,Belize - Corozal,2011-10-18,
113772,Pelecanus occidentalis,species,Brown Pelican,1,-87.8307151794,18.3028695357,North America,Belize,Belize - Corozal,2011-10-18,
113775,Spatula discors,species,Blue-winged Teal,30,-87.8307151794,18.3028695357,North America,Belize,Belize - Corozal,2011-10-18,
115323,Nyctanassa violacea,species,Yellow-crowned Night Heron,1,-87.8351783752,18.2840039227,North America,Belize,Belize - Corozal,2011-10-17,
56069,Triacanthagyna caribbea,species,Caribbean Duskhawker,1,-88.98333,16.96667,North America,Belize,Belize - Cayo,1996-01-05,
56856,Tramea calverti,species,Striped Saddlebags,1,-88.8,16.1,North America,Belize,Belize - Toledo,1996-01-08,
56916,Tholymis citrina,species,Evening Skimmer,1,-88.98333,16.96667,North America,Belize,Belize - Cayo,1996-01-05,
63965,Orthemis ferruginea,species,Roseate Skimmer,1,-88.76667,17.25,North America,Belize,Belize - Cayo,1996-01-04,
71486,Ischnura ramburii,species,Rambur's Forktail,1,-88.76667,17.25,North America,Belize,Belize - Cayo,1996-01-04,
72333,Ischnura hastata,species,Citrine Forktail,1,-88.76667,17.25,North America,Belize,Belize - Cayo,1996-01-04,
73571,Gynacantha nervosa,species,Twilight Darner,1,-88.98333,16.96667,North America,Belize,Belize - Cayo,1996-01-05,
75572,Erythrodiplax umbrata,species,Band-winged Dragonlet,1,-88.98333,16.96667,North America,Belize,Belize - Cayo,1996-01-05,
83539,Cannaphila insularis,species,Gray-waisted Skimmer,1,-88.9833,16.9667,North America,Belize,Belize - Cayo,1983-07-22,
111482,Pyrocephalus obscurus,species,Vermilion Flycatcher,1,-87.9589462281,17.930808804,North America,Belize,Belize - Corozal,2009-12-14,
73377,Conocarpus erectus,species,Button Mangrove,1,-87.8749662638,18.2636283854,North America,Belize,Belize - Corozal,2011-04-28,
73514,Lantana camara,species,Largeleaf lantana,1,-87.8488951921,18.3135136429,North America,Belize,Belize - Corozal,2011-04-28,
76225,Fregata magnificens,species,Magnificent Frigatebird,1,-88.0334472656,17.7774587142,North America,Belize,Belize - Cay Caulker,2007-04-25,
71986,Sporophila morelleti,species,Morelet's Seedeater,1,-88.6782073974,16.903113921,North America,Belize,Belize - Cayo,2005-08-07,
72121,Myiobius sulphureipygius sulphureipygius,subspecies,Sulphur-rumped Myiobius ssp sulphureipygius,1,-88.8663482666,16.6098739195,North America,Belize,Belize - Toledo,2005-08-04,
72254,Amazona guatemalae guatemalae,subspecies,Northern Mealy Amazon ssp guatemalae,1,-88.8320159912,17.1867150062,North America,Belize,Belize - Cayo,2005-08-01,
45606,Rissa tridactyla,species,Black-legged Kittiwake,1,-88.0232334137,17.7472969748,North America,Belize,Belize - Cay Caulker,2000-01-09,
69450,Eudocimus albus,species,American White Ibis,1,-88.0285549164,17.7333178594,North America,Belize,Belize - Cay Caulker,2004-12-01,
69451,Pandion haliaetus ridgwayi,subspecies,Western Osprey ssp ridgwayi,1,-88.0285549164,17.7333178594,North America,Belize,Belize - Cay Caulker,2004-12-01,
69453,Egretta caerulea,species,Little Blue Heron,1,-88.0285549164,17.7333178594,North America,Belize,Belize - Cay Caulker,2004-12-01,
69455,Fregata magnificens,species,Magnificent Frigatebird,2,-88.0285549164,17.7333178594,North America,Belize,Belize - Cay Caulker,2004-12-01,
69457,Nyctanassa violacea violacea,subspecies,Yellow-crowned Night Heron ssp violacea,1,-88.0285549164,17.7333178594,North America,Belize,Belize - Cay Caulker,2004-12-01,
69460,Leucophaeus atricilla,species,Laughing Gull,1,-88.0285549164,17.7333178594,North America,Belize,Belize - Cay Caulker,2004-12-01,
69493,Basiliscus vittatus,species,Striped Basilisk,1,-88.0288982391,17.7320752189,North America,Belize,Belize - Cay Caulker,2004-11-30,
69495,Pandion haliaetus ridgwayi,subspecies,Western Osprey ssp ridgwayi,1,-88.0319023132,17.7307126638,North America,Belize,Belize - Cay Caulker,2004-11-30,
69497,Melanerpes santacruzi,species,Velasquez's Woodpecker,1,-88.0319023132,17.7307126638,North America,Belize,Belize - Cay Caulker,2004-11-30,
69514,Eudocimus albus,species,American White Ibis,1,-88.0303573608,17.731175934,North America,Belize,Belize - Cay Caulker,2004-11-30,
69515,Egretta caerulea,species,Little Blue Heron,1,-88.0303573608,17.731175934,North America,Belize,Belize - Cay Caulker,2004-11-30,
69516,Fregata magnificens,species,Magnificent Frigatebird,1,-88.0303573608,17.731175934,North America,Belize,Belize - Cay Caulker,2004-11-30,
70443,Fregata magnificens,species,Magnificent Frigatebird,1,-88.0279541016,17.7331380043,North America,Belize,Belize - Cay Caulker,2004-11-29,
83176,Fregata magnificens,species,Magnificent Frigatebird,10,-88.02498458627,17.746397904568724,North America,Belize,Belize - Cay Caulker,2020-01-18,14:35
75613,Buteo plagiatus,species,Grey Hawk,1,-88.30992937,17.58724872,North America,Belize,Belize - Belize,1995-03-09,
35583,Caretta caretta,species,Loggerhead,1,-87.99470812,17.83541789,North America,Belize,Belize - Belize,2019-09-24,
35589,Trichechus manatus manatus,subspecies,Caribbean Manatee,1,-88.00454915,17.806267,North America,Belize,Belize - Cay Caulker,2019-09-24,
36541,Pelecanus occidentalis,species,Brown Pelican,12,-88.0237731933594,17.7478923797607,North America,Belize,Belize - Cay Caulker,2019-09-23,06:56
36542,Calidris minutilla,species,Least Sandpiper,4,-88.0237731933594,17.7478923797607,North America,Belize,Belize - Cay Caulker,2019-09-23,06:57
36543,Actitis macularius,species,Spotted Sandpiper,1,-88.0237731933594,17.7478923797607,North America,Belize,Belize - Cay Caulker,2019-09-23,06:57
36544,Thalasseus acuflavidus,species,Cabot's Tern,1,-88.0237731933594,17.7478923797607,North America,Belize,Belize - Cay Caulker,2019-09-23,06:57
36545,Thalasseus maximus,species,Royal Tern,2,-88.0237731933594,17.7478923797607,North America,Belize,Belize - Cay Caulker,2019-09-23,06:58
36546,Fregata magnificens,species,Magnificent Frigatebird,15,-88.0237731933594,17.7478923797607,North America,Belize,Belize - Cay Caulker,2019-09-23,06:58
36547,Pandion haliaetus carolinensis,subspecies,American Osprey,1,-88.0237731933594,17.7478923797607,North America,Belize,Belize - Cay Caulker,2019-09-23,06:58
97942,Melanerpes santacruzi dubius,subspecies,Velasquez's Woodpecker ssp dubius,15,-89.0699920654297,17.1493511199951,North America,Belize,Belize - Cayo,2019-09-20,16:34
23144,Melanerpes santacruzi,species,Velasquez's Woodpecker,2,-88.3617443,16.530847,North America,Belize,Belize - Belize,2019-01-14,06:00
23145,Melanerpes santacruzi,species,Velasquez's Woodpecker,1,-88.3603468,16.5935845,North America,Belize,Belize - Belize,2019-01-18,06:00
23146,Melanerpes santacruzi,species,Velasquez's Woodpecker,1,-88.3613815,16.5287292,North America,Belize,Belize - Belize,2019-01-17,06:17
23147,Thalasseus acuflavidus,species,Cabot's Tern,4,-88.3603468,16.5935845,North America,Belize,Belize - Belize,2019-01-18,06:00
48280,Sula leucogaster,species,Brown Booby,1,-88.36761017,16.53580243,North America,Belize,Belize - Belize,2002-12-06,
14611,Myiobius sulphureipygius sulphureipygius,subspecies,Sulphur-rumped Myiobius ssp sulphureipygius,1,-88.4590239822865,16.7804567340078,North America,Belize,Belize - Cockscomb Basin Wildlife Sanctuary,2019-04-30,10:30
14612,Tyto furcata pratincola,subspecies,American Barn Owl ssp pratincola,1,-89.0614642202854,17.0478554244329,North America,Belize,Belize - Cayo,2019-05-05,21:35
14613,Melanerpes santacruzi,species,Velasquez's Woodpecker,1,-89.0614642202854,17.0478554244329,North America,Belize,Belize - Cayo,2019-05-06,06:05
14614,Amazilia candida,species,White-bellied Emerald,1,-89.0926513671875,17.5901889801025,North America,Belize,Belize - Orange Walk,2019-05-08,16:28
14615,Amazona oratrix belizensis,subspecies,Yellow-headed Amazon ssp belizensis,1,-89.1140594482422,17.54319190979,North America,Belize,Belize - Orange Walk,2019-05-09,07:10
14616,Aramides albiventris albiventris,subspecies,Rufous-naped Wood Rail ssp albiventris,1,-88.5287399291992,17.7702922821045,North America,Belize,Belize - Belize,2019-05-11,05:47
37541,Thalasseus acuflavidus,species,Cabot's Tern,5,-88.800704,16.102722,North America,Belize,Belize - Toledo,2017-05-26,09:15
13664,Actitis macularius,species,Spotted Sandpiper,6,-88.0234654247761,17.7467356086188,North America,Belize,Belize - Cay Caulker,2018-08-17,17:22
13665,Sporophila morelleti,species,Morelet's Seedeater,1,-88.5352031705523,17.5542630315063,North America,Belize,Belize - Belize,2018-08-18,15:42
51997,Pelecanus occidentalis,species,Brown Pelican,11,-88.02349005,17.74393391,North America,Belize,Belize - Cay Caulker,2006-03-05,
11585,Mimus gilvus,species,Tropical Mockingbird,1,-88.18558645,17.49746144,North America,Belize,Belize - Belize-city,2006-03-04,
14367,Numenius hudsonicus hudsonicus,subspecies,Hudsonian Whimbrel ssp hudsonicus,1,-88.02398615,17.74606097,North America,Belize,Belize - Cay Caulker,2006-03-05,
39262,Pandion haliaetus ridgwayi,subspecies,Western Osprey ssp ridgwayi,1,-88.0236909,17.74595225,North America,Belize,Belize - Cay Caulker,2006-03-08,
100257,Pyrisitia lisa,species,Little Yellow,1,-89.07440186,17.13812478,North America,Belize,Belize - Cayo,2016-03-30,13:00
21766,Chelonia mydas,species,Green Turtle,1,-88.01994324,17.79341214,North America,Belize,Belize - Cay Caulker,2010-07-31,
21769,Trichechus manatus,species,West Indian Manatee,1,-88.01994324,17.79341214,North America,Belize,Belize - Cay Caulker,2010-07-31,
21773,Fregata magnificens,species,Magnificent Frigatebird,1,-88.01994324,17.79341214,North America,Belize,Belize - Cay Caulker,2010-07-31,
21774,Pelecanus occidentalis,species,Brown Pelican,1,-88.01994324,17.79341214,North America,Belize,Belize - Cay Caulker,2010-07-31,
21835,Aramides albiventris albiventris,subspecies,Rufous-naped Wood Rail ssp albiventris,1,-89.01798249,17.83906329,North America,Belize,Belize - Orange Walk,2010-07-28,
21852,Amazona guatemalae guatemalae,subspecies,Northern Mealy Amazon ssp guatemalae,1,-89.01798249,17.83906329,North America,Belize,Belize - Orange Walk,2010-07-28,
97384,Boa constrictor,species,Boa Constrictor,1,-88.5262298305,16.781182753,North America,Belize,Belize - Belize,2015-12-25,14:00
97391,Panthera onca,species,Jaguar,87,-88.73715964524295,16.68725811201,North America,Belize,Belize - Cockscomb Basin Wildlife Sanctuary,2015-12-25,14:00
97392,Pecari tajacu,species,Collared Peccary,8,-88.5262298305,16.781182753,North America,Belize,Belize - Belize,2015-12-25,14:00
97413,Rupornis magnirostris,species,Roadside Hawk,3,-88.5262298305,16.781182753,North America,Belize,Belize - Belize,2015-12-25,14:00
97418,Cathartes aura,species,Turkey Vulture,3,-88.5262298305,16.781182753,North America,Belize,Belize - Belize,2015-12-25,14:00
82471,Thalasseus maximus maximus,synonym,,1,-88.3740234375,17.7486866517,North America,Belize,Belize - Belize,1996-08-17,
6998,Phalacrocorax brasilianus,species,Neotropic Cormorant,1,-89.1291656494,17.0874271393,North America,Belize,Belize - Cayo,2003-05-09,14:47
8706,Pyrocephalus obscurus,species,Vermilion Flycatcher,2,-88.5209655762,17.7362609218,North America,Belize,Belize - Belize,2003-11-29,
11786,Pyrocephalus obscurus,species,Vermilion Flycatcher,2,-88.5353851318,17.718928859,North America,Belize,Belize - Orange Walk,2003-11-28,
11866,Melanerpes santacruzi,species,Velasquez's Woodpecker,1,-88.5353851318,17.718928859,North America,Belize,Belize - Orange Walk,2003-11-28,
11896,Sporophila morelleti,species,Morelet's Seedeater,15,-88.5353851318,17.718928859,North America,Belize,Belize - Orange Walk,2003-11-28,
112730,Tetragonisca angustula,species,,50,-89.0685617919,17.0951087441,North America,Belize,Belize - Cayo,2015-04-17,
3351,Crotophaga sulcirostris,species,Groove-billed Ani,1,-88.5357034209,17.7901589419,North America,Belize,Belize - Orange Walk,2015-03-16,
3465,Piaya cayana,species,Squirrel Cuckoo,1,-88.1650829333,18.3254254392,North America,Belize,Belize - Corozal,2015-03-18,
3497,Herpetotheres cachinnans,species,Laughing Falcon,1,-88.5310363778,17.7702361627,North America,Belize,Belize - Orange Walk,2015-03-16,
3551,Platalea ajaja,species,Roseate Spoonbill,5,-88.5270881662,17.7242948895,North America,Belize,Belize - Belize,2015-03-16,
3558,Nycticorax nycticorax,species,Black-crowned Night Heron,1,-88.5270881662,17.7242948895,North America,Belize,Belize - Belize,2015-03-16,
3567,Heliornis fulica,species,Sungrebe,1,-88.5270881662,17.7242948895,North America,Belize,Belize - Belize,2015-03-16,
3585,Porphyrio martinica,species,Purple Gallinule,1,-88.5270881662,17.7242948895,North America,Belize,Belize - Belize,2015-03-16,
3612,Mycteria americana,species,Wood Stork,5,-88.5270881662,17.7242948895,North America,Belize,Belize - Belize,2015-03-16,
3638,Buteogallus urubitinga,species,Great Black Hawk,1,-88.5270881662,17.7242948895,North America,Belize,Belize - Belize,2015-03-16,
3750,Tigrisoma mexicanum,species,Bare-throated Tiger Heron,1,-88.5270881662,17.7242948895,North America,Belize,Belize - Belize,2015-03-16,
3811,Rostrhamus sociabilis,species,Snail Kite,4,-88.5270881662,17.7242948895,North America,Belize,Belize - Belize,2015-03-16,
3826,Cardinalis cardinalis,species,Northern Cardinal,1,-88.5270881662,17.7242948895,North America,Belize,Belize - Belize,2015-03-16,
3842,Cathartes burrovianus,species,Lesser Yellow-headed Vulture,1,-88.5270881662,17.7242948895,North America,Belize,Belize - Belize,2015-03-16,
4062,Megaceryle torquata,species,Ringed Kingfisher,1,-88.528404235,17.7462042969,North America,Belize,Belize - Belize,2015-03-16,
4083,Chloroceryle americana,species,Green Kingfisher,1,-88.5290908805,17.7609180658,North America,Belize,Belize - Orange Walk,2015-03-16,
4167,Spatula discors,species,Blue-winged Teal,20,-88.5296630868,17.7686559394,North America,Belize,Belize - Orange Walk,2015-03-16,
4175,Plegadis falcinellus,species,Glossy Ibis,1,-88.5296630868,17.7686559394,North America,Belize,Belize - Orange Walk,2015-03-16,
4275,Iguana iguana,species,Common Green Iguana,5,-88.5296630868,17.7686559394,North America,Belize,Belize - Orange Walk,2015-03-16,
4327,Egretta tricolor,species,Tricolored Heron,1,-88.5293197634,17.7731193601,North America,Belize,Belize - Orange Walk,2015-03-16,
4347,Jacana spinosa,species,Northern Jacana,2,-88.5332250604,17.7859511729,North America,Belize,Belize - Orange Walk,2015-03-16,
4985,Protonotaria citrea,species,Prothonotary Warbler,2,-88.5332250604,17.7859511729,North America,Belize,Belize - Orange Walk,2015-03-16,
5007,Eudocimus albus,species,American White Ibis,1,-88.5324954995,17.785005165,North America,Belize,Belize - Orange Walk,2015-03-16,
5020,Aramides albiventris albiventris,subspecies,Rufous-naped Wood Rail ssp albiventris,2,-88.5324954995,17.785005165,North America,Belize,Belize - Orange Walk,2015-03-16,
5295,Pyrocephalus obscurus,species,Vermilion Flycatcher,1,-88.5361772777,17.7912563709,North America,Belize,Belize - Orange Walk,2015-03-16,
5458,Pteroglossus torquatus,species,Collared Aracari,4,-89.068547487,17.0952739322,North America,Belize,Belize - Cayo,2015-03-14,
5571,Thraupis episcopus,species,Blue-grey Tanager,2,-88.5364347697,17.7911882659,North America,Belize,Belize - Orange Walk,2015-03-15,
5601,Tachycineta albilinea,species,Mangrove Swallow,2,-88.2682254911,16.8215335372,North America,Belize,Belize - Belize,2015-03-12,
92396,Tringa melanoleuca,species,Greater Yellowlegs,1,-88.289752007,16.8625029991,North America,Belize,Belize - Belize,2015-03-12,
92437,Egretta tricolor,species,Tricolored Heron,1,-88.289752007,16.8625029991,North America,Belize,Belize - Belize,2015-03-12,
92445,Pseudastur albicollis,species,White Hawk,1,-88.4468650835,16.7870938163,North America,Belize,Belize - Belize,2015-03-11,
92450,Rupornis magnirostris,species,Roadside Hawk,1,-88.4449768031,16.7911599647,North America,Belize,Belize - Belize,2015-03-11,
92567,Chloroceryle amazona,species,Amazon Kingfisher,1,-88.2903742791,16.8620306919,North America,Belize,Belize - Belize,2015-03-12,
92656,Ramphastos sulfuratus,species,Keel-billed Toucan,1,-88.4569716445,16.7833959963,North America,Belize,Belize - Belize,2015-03-11,
92668,Pecari tajacu,species,Collared Peccary,5,-88.4533882132,16.7843204577,North America,Belize,Belize - Belize,2015-03-11,
92672,Sciurus deppei,species,Deppe's Squirrel,1,-88.46158505,16.77938994,North America,Belize,Belize - Belize,2015-03-11,
93202,Penelope purpurascens,species,Crested Guan,1,-88.4623789805,16.7789790611,North America,Belize,Belize - Belize,2015-03-11,
93206,Galbula ruficauda,species,Rufous-tailed Jacamar,1,-88.4607911127,16.7795337516,North America,Belize,Belize - Belize,2015-03-11,
93236,Habia fuscicauda,species,Red-throated Ant Tanager,1,-88.4084987645,16.7975294939,North America,Belize,Belize - Belize,2015-03-10,
93260,Pteroglossus torquatus,species,Collared Aracari,3,-88.3835864068,16.79746787,North America,Belize,Belize - Belize,2015-03-10,
93266,Trogon massena,species,Slaty-tailed Trogon,1,-88.3835864068,16.79746787,North America,Belize,Belize - Belize,2015-03-10,
93284,Elanoides forficatus,species,Swallow-tailed Kite,1,-88.3838653566,16.7981663009,North America,Belize,Belize - Belize,2015-03-10,
93295,Ramphastos sulfuratus,species,Keel-billed Toucan,1,-88.3838653566,16.7981663009,North America,Belize,Belize - Belize,2015-03-09,
93323,Pteroglossus torquatus,species,Collared Aracari,1,-88.9380884179,16.1657405706,North America,Belize,Belize - Toledo,2015-03-09,
93671,Ramphocelus sanguinolentus,species,Crimson-collared Tanager,1,-88.9663338666,16.1764533078,North America,Belize,Belize - Toledo,2015-03-08,
93687,Tyrannus savana,species,Fork-tailed Flycatcher,1,-88.9663338666,16.1764533078,North America,Belize,Belize - Toledo,2015-03-08,
93848,Himantopus mexicanus,species,Black-necked Stilt,3,-88.9663338666,16.1764533078,North America,Belize,Belize - Toledo,2015-03-08,
93871,Calidris alpina,species,Dunlin,3,-88.9662051192,16.1773394559,North America,Belize,Belize - Toledo,2015-03-08,
97163,Tityra semifasciata,species,Masked Tityra,1,-88.9406919484,16.1702089477,North America,Belize,Belize - Toledo,2015-03-08,
97407,Sporophila morelleti,species,Morelet's Seedeater,1,-88.9406919484,16.1702089477,North America,Belize,Belize - Toledo,2015-03-08,
97671,Psilorhinus morio,species,Brown Jay,1,-88.9125823979,16.1857885687,North America,Belize,Belize - Toledo,2015-03-08,
97688,Egretta caerulea,species,Little Blue Heron,1,-88.0268955248,17.7348016614,North America,Belize,Belize - Cay Caulker,2015-03-03,
97694,Tringa semipalmata,species,Willet,2,-88.0277860166,17.7335110845,North America,Belize,Belize - Cay Caulker,2015-03-03,
97718,Coereba flaveola,species,Bananaquit,1,-88.0277860166,17.7335110845,North America,Belize,Belize - Cay Caulker,2015-03-03,
97743,Nyctanassa violacea,species,Yellow-crowned Night Heron,1,-88.0277860166,17.7335110845,North America,Belize,Belize - Cay Caulker,2015-03-03,
