,scientificName,taxonRank,vernacularName,individualCount,longitudeDecimal,latitudeDecimal,continent,country,locality,eventDate,eventTime
103758,Lophonetta specularioides,species,Crested Duck,1,-67.649331021,-22.5355513262,South America,Bolivia,Bolivia - Eduardo Avaroa National Reserve of Andean Fauna,2008-12-29,
103770,Phrygilus dorsalis,species,Red-backed Sierra Finch,1,-67.649331021,-22.5355513262,South America,Bolivia,Bolivia - Eduardo Avaroa National Reserve of Andean Fauna,2008-12-29,
103825,Phoenicoparrus jamesi,species,James's Flamingo,1,-67.7709196477189,-22.21378756236139,South America,Bolivia,Bolivia - Laguna Colorada,2008-12-29,
103849,Phoenicopterus chilensis,species,Chilean Flamingo,1,-67.2162720682,-21.2274706652,South America,Bolivia,"Bolivia - Colcha ""K"" (Potosí)",2008-12-28,
103850,Lophonetta specularioides,species,Crested Duck,1,-67.2162720682,-21.2274706652,South America,Bolivia,"Bolivia - Colcha ""K"" (Potosí)",2008-12-28,
103966,Chloephaga melanoptera,species,Andean Goose,1,-67.2162720682,-21.2274706652,South America,Bolivia,"Bolivia - Colcha ""K"" (Potosí)",2008-12-28,
103978,Sicalis uropigyalis,species,Bright-rumped Yellow Finch,1,-67.1664473548,-21.1576211507,South America,Bolivia,"Bolivia - Colcha ""K"" (Potosí)",2008-12-28,
104039,Phrygilus atriceps,species,Black-hooded Sierra Finch,1,-67.6255559203,-20.2430043684,South America,Bolivia,Bolivia - Salar de Uyuni,2008-12-27,
12548,Cinclodes albiventris,species,Cream-winged Cinclodes,1,-68.6797910929,-16.5615361228,South America,Bolivia,Bolivia - Tiahuanacu (La Paz),1997-09-30,
20734,Basileuterus punctipectus,species,Yungas Warbler,2,-67.8742003441,-16.2187232588,South America,Bolivia,Bolivia - Cotapata NP,1997-09-27,
29617,Cinclodes albiventris,species,Cream-winged Cinclodes,25,-68.0522346497,-16.2880940156,South America,Bolivia,Bolivia - Cotapata NP,1997-09-25,
45528,Cinclodes albiventris,species,Cream-winged Cinclodes,1,-69.0816557407,-16.157644407,South America,Bolivia,Bolivia - Copacabana (La Paz),1997-09-23,
45549,Cinclodes albiventris,species,Cream-winged Cinclodes,3,-69.0842199326,-16.1595096111,South America,Bolivia,Bolivia - Copacabana (La Paz),1997-09-23,
45817,Cinclodes albiventris,species,Cream-winged Cinclodes,2,-69.2041629553,-15.9904287606,South America,Bolivia,Bolivia - Copacabana (La Paz),1997-09-22,
62578,Cinclodes albiventris,species,Cream-winged Cinclodes,3,-67.6464056969,-22.5199307288,South America,Bolivia,Bolivia - Eduardo Avaroa National Reserve of Andean Fauna,1997-09-19,
103108,Alouatta sara,species,Bolivian Red Howler Monkey,2,-66.753385663,-14.1179336514,South America,Bolivia,Bolivia - Beni - José Ballivián,2013-03-21,
1253,Cinclodes albiventris,species,Cream-winged Cinclodes,2,-64.8079419136,-21.4954809273,South America,Bolivia,Bolivia - Dpto. Tarija,2000-09-08,
1979,Cinclodes albiventris,species,Cream-winged Cinclodes,1,-64.8308372498,-21.5407150671,South America,Bolivia,Bolivia - Dpto. Tarija,2000-09-07,
49541,Momotus momota,species,Amazonian Motmot,1,-63.0698,-17.7675,South America,Bolivia,Bolivia - Santa Cruz de la Sierra (Santa Cruz),2014-12-18,16:36
49542,Athene cunicularia,species,Burrowing Owl,1,-63.1622,-17.9405,South America,Bolivia,Bolivia - La Guardia (Santa Cruz),2014-12-18,11:19
52734,Icterus pyrrhopterus periporphyrus,subspecies,Variable Oriole ssp periporphyrus,1,-63.6761,-17.3922,South America,Bolivia,Bolivia - Buena Vista (Santa Cruz),2014-12-17,13:55
60159,Basileuterus punctipectus,species,Yungas Warbler,1,-65.5084,-17.1042,South America,Bolivia,Bolivia - Tiraque (Cochabamba),2014-12-15,10:41
60161,Accipiter ventralis,species,Plain-breasted Hawk,1,-65.9478,-17.2214,South America,Bolivia,Bolivia - Colomi (Cochabamba),2014-11-26,17:58
40423,Knipolegus aterrimus,species,White-winged Black Tyrant,1,-66.1716,-17.3038,South America,Bolivia,Bolivia - Cochabamba (Cochabamba),2014-11-08,09:40
49575,Phrygilus atriceps,species,Black-hooded Sierra Finch,1,-67.6267146854121,-20.2404282811284,South America,Bolivia,Bolivia - Salar de Uyuni,2014-11-04,16:54
49576,Phrygilus dorsalis,species,Red-backed Sierra Finch,1,-68.0394183584358,-21.5738084971808,South America,Bolivia,"Bolivia - Colcha ""K"" (Potosí)",2014-11-05,14:12
49577,Lagidium viscacia,species,Southern Viscacha,1,-68.0037061375866,-21.7879306675806,South America,Bolivia,"Bolivia - Colcha ""K"" (Potosí)",2014-11-05,15:14
49578,Recurvirostra andina,species,Andean Avocet,2,-67.8009087036809,-22.1729880098351,South America,Bolivia,Bolivia - Laguna Colorada,2014-11-05,17:07
9451,Lycalopex culpaeus,species,Culpeo,1,-67.41824889346708,-20.82319600456,South America,Bolivia,"Bolivia - Colcha ""K"" (Potosí)",2007-09-06,
11105,Rollandia microptera,species,Titicaca Grebe,3,-69.0954136550995,-16.1744156214597,South America,Bolivia,Bolivia - Copacabana (La Paz),2014-10-26,13:31
11106,Rollandia microptera,species,Titicaca Grebe,41,-69.1000811752546,-16.1786651674814,South America,Bolivia,Bolivia - Copacabana (La Paz),2014-10-27,06:52
11108,Rollandia microptera,species,Titicaca Grebe,1,-69.0904637825974,-16.1654107111311,South America,Bolivia,Bolivia - Copacabana (La Paz),2014-10-27,08:21
11109,Falco sparverius,species,American Kestrel,2,-69.1556086153915,-16.0330663913048,South America,Bolivia,Bolivia - Copacabana (La Paz),2014-10-27,11:14
53391,Cinclodes albiventris,species,Cream-winged Cinclodes,1,-66.3381403686,-17.2724004009,South America,Bolivia,Bolivia - Quillacollo (Cochabamba),2014-10-14,
53427,Colaptes melanochloros,species,Green-barred Woodpecker,1,-66.225,-17.294,South America,Bolivia,Bolivia - Tiquipaya (Cochabamba),2014-10-08,
56444,Knipolegus aterrimus,species,White-winged Black Tyrant,1,-66.1309003839,-17.409397983,South America,Bolivia,Bolivia - Cochabamba - Laguna Alalay,2014-10-04,
56449,Colaptes melanochloros,species,Green-barred Woodpecker,3,-66.1309003839,-17.409397983,South America,Bolivia,Bolivia - Cochabamba - Laguna Alalay,2014-10-04,
56458,Gallinula galeata,species,Common Gallinule,1,-66.1309003839,-17.409397983,South America,Bolivia,Bolivia - Cochabamba - Laguna Alalay,2014-10-04,
56899,Poospiza hypocondria,species,Rufous-sided Warbling Finch,1,-66.1729645733,-17.3037172389,South America,Bolivia,Bolivia - Tiquipaya (Cochabamba),2014-10-02,
56904,Sappho sparganurus,species,Red-tailed Comet,1,-66.1729645733,-17.3037172389,South America,Bolivia,Bolivia - Tiquipaya (Cochabamba),2014-10-02,
56909,Zonotrichia capensis,species,Rufous-collared Sparrow,1,-66.1729645733,-17.3037172389,South America,Bolivia,Bolivia - Tiquipaya (Cochabamba),2014-10-02,
56995,Zonotrichia capensis,species,Rufous-collared Sparrow,1,-66.1302,-17.3275,South America,Bolivia,Bolivia - Cochabamba (Cochabamba),2014-10-01,
57051,Sappho sparganurus,species,Red-tailed Comet,1,-66.1302,-17.3275,South America,Bolivia,Bolivia - Cochabamba (Cochabamba),2014-09-30,
71711,Zonotrichia capensis,species,Rufous-collared Sparrow,1,-66.1451,-17.3935,South America,Bolivia,Bolivia - Cochabamba (Cochabamba),2014-09-20,13:45
27259,Spatula puna,species,Puna Teal,2,-67.8568695858,-21.4348141253,South America,Bolivia,"Bolivia - Colcha ""K"" (Potosí)",2014-08-05,
30228,Phrygilus atriceps,species,Black-hooded Sierra Finch,20,-67.6267860085,-20.2411804837,South America,Bolivia,Bolivia - Salar de Uyuni,2014-08-07,
36072,Recurvirostra andina,species,Andean Avocet,7,-67.782779932,-22.2017147722,South America,Bolivia,Bolivia - Laguna Colorada,2014-08-06,
36137,Lagidium viscacia,species,Southern Viscacha,2,-68.024135828,-21.734631452,South America,Bolivia,"Bolivia - Colcha ""K"" (Potosí)",2014-08-05,
36148,Phalcoboenus megalopterus,species,Mountain Caracara,1,-68.024135828,-21.734631452,South America,Bolivia,"Bolivia - Colcha ""K"" (Potosí)",2014-08-05,
36186,Lycalopex culpaeus,species,Culpeo,2,-68.0519449711,-21.6497749021,South America,Bolivia,"Bolivia - Colcha ""K"" (Potosí)",2014-08-05,
36771,Vicugna vicugna,species,Vicugna,5,-68.0384427309,-21.5613537018,South America,Bolivia,"Bolivia - Colcha ""K"" (Potosí)",2014-08-05,
36774,Recurvirostra andina,species,Andean Avocet,2,-68.0458241701,-21.5659834576,South America,Bolivia,"Bolivia - Colcha ""K"" (Potosí)",2014-08-05,
36778,Phoenicoparrus jamesi,species,James's Flamingo,1300,-68.0458241701,-21.5659834576,South America,Bolivia,"Bolivia - Colcha ""K"" (Potosí)",2014-08-05,
37880,Phrygilus dorsalis,species,Red-backed Sierra Finch,2,-68.0099469423,-21.5014728642,South America,Bolivia,"Bolivia - Colcha ""K"" (Potosí)",2014-08-05,
38388,Vicugna vicugna,species,Vicugna,1,-68.0099469423,-21.5014728642,South America,Bolivia,"Bolivia - Colcha ""K"" (Potosí)",2014-08-05,
38389,Recurvirostra andina,species,Andean Avocet,3,-68.0120068789,-21.5070627868,South America,Bolivia,"Bolivia - Colcha ""K"" (Potosí)",2014-08-05,
38391,Phoenicoparrus jamesi,species,James's Flamingo,200,-68.0120068789,-21.5070627868,South America,Bolivia,"Bolivia - Colcha ""K"" (Potosí)",2014-08-05,
38392,Lycalopex culpaeus,species,Culpeo,2,-68.0120068789,-21.5070627868,South America,Bolivia,"Bolivia - Colcha ""K"" (Potosí)",2014-08-05,
38446,Vicugna vicugna,species,Vicugna,70,-67.5173807144,-21.3495220897,South America,Bolivia,Bolivia - San Agustín (Potosí),2014-08-05,
78189,Inia geoffrensis,species,Amazon River Dolphin,5,-67.74033884587516,-14.2860634227,South America,Bolivia,Bolivia - San Buenaventura (La Paz),2013-03-21,
78232,Sapajus apella,species,Black-capped Capuchin,1,-67.74036022766009,-14.2846126134,South America,Bolivia,Bolivia - San Buenaventura (La Paz),2013-03-21,
78264,Saimiri boliviensis boliviensis,subspecies,Bolivian Squirrel Monkey,10,-67.74033884587516,-14.2860634227,South America,Bolivia,Bolivia - San Buenaventura (La Paz),2013-03-21,
78284,Bradypus variegatus,species,Brown-throated Three-toed Sloth,2,-67.74033884587516,-14.2860634227,South America,Bolivia,Bolivia - San Buenaventura (La Paz),2013-03-21,
78617,Alouatta caraya,species,Black-and-gold Howler Monkey,4,-66.7799945176,-14.1250900762,South America,Bolivia,Bolivia - Beni - José Ballivián,2013-03-21,
78651,Hydrochoerus hydrochaeris,species,Capybara,1,-67.74033884587516,-14.2860634227,South America,Bolivia,Bolivia - San Buenaventura (La Paz),2013-03-21,
15597,Crotophaga ani,species,Smooth-billed Ani,1,-67.5272297859,-14.3628519096,South America,Bolivia,Bolivia - Beni - José Ballivián,2010-12-15,
97318,Marpesia zerynthia,species,,10,-67.7172079682,-16.155985288,South America,Bolivia,Bolivia - Dpto. La Paz,2012-08-02,
7000,Anteos menippe,species,Orange-tipped Angled-sulphur,5,-68.2116933167,-13.8229533258,South America,Bolivia,Bolivia - Ixiamas (La Paz),2012-08-17,
44829,Nessaea obrinus faventia,subspecies,,1,-67.6334935427,-14.5611546719,South America,Bolivia,Bolivia - San Buenaventura (La Paz),2012-08-10,
45146,Historis odius,species,Orion Cecropian,1,-67.6334935427,-14.5611546719,South America,Bolivia,Bolivia - San Buenaventura (La Paz),2012-08-10,
47967,Marpesia livius livius,subspecies,,10,-67.4989110231,-14.5344032893,South America,Bolivia,Bolivia - San Buenaventura (La Paz),2012-08-04,
107863,Vicugna vicugna,species,Vicugna,1,-67.47219320891669,-20.24017531094895,South America,Bolivia,Bolivia - Salar de Uyuni,2011-11-08,
107865,Lagidium viscacia,species,Southern Viscacha,1,-67.47219320891669,-20.24017531094895,South America,Bolivia,Bolivia - Salar de Uyuni,2011-11-08,
67747,Rostrhamus sociabilis sociabilis,subspecies,Snail Kite ssp sociabilis,1,-67.55035403,-14.47812069,South America,Bolivia,Bolivia - San Buenaventura (La Paz),2013-03-20,
67763,Pachyramphus minor,species,Pink-throated Becard,1,-67.909698489821,-16.707922853758,South America,Bolivia,Bolivia - Mecapaca (La Paz),2013-03-18,
14087,Rollandia microptera,species,Titicaca Grebe,1,-69.0722096030913,-16.101205936148503,South America,Bolivia,Bolivia - Copacabana (La Paz),2012-10-18,
14154,Zonotrichia capensis,species,Rufous-collared Sparrow,1,-69.0722096030913,-16.101205936148503,South America,Bolivia,Bolivia - Copacabana (La Paz),2012-10-18,
14220,Vicugna vicugna,species,Vicugna,25,-67.47219320891669,-20.24017531094895,South America,Bolivia,Bolivia - Salar de Uyuni,2012-10-24,
14240,Anas flavirostris,species,Yellow-billed Teal,1,-67.46617134046386,-20.25156212728031,South America,Bolivia,Bolivia - Salar de Uyuni,2012-10-24,
14264,Phrygilus dorsalis,species,Red-backed Sierra Finch,1,-67.46617134046386,-20.25156212728031,South America,Bolivia,Bolivia - Salar de Uyuni,2012-10-24,
14284,Thinocorus orbignyianus,species,Grey-breasted Seedsnipe,15,-67.46617134046386,-20.25156212728031,South America,Bolivia,Bolivia - Salar de Uyuni,2012-10-24,
14300,Ochthoeca oenanthoides,species,D'Orbigny's Chat-Tyrant,1,-69.174942970276,-16.026015636092,South America,Bolivia,Bolivia - Copacabana (La Paz),2012-10-18,
14370,Phrygilus atriceps,species,Black-hooded Sierra Finch,1,-67.46617134046386,-20.25156212728031,South America,Bolivia,Bolivia - Salar de Uyuni,2012-10-23,
14382,Chloephaga melanoptera,species,Andean Goose,1,-67.46617134046386,-20.25156212728031,South America,Bolivia,Bolivia - Salar de Uyuni,2012-10-23,
80677,Crotophaga ani,species,Smooth-billed Ani,10,-67.503232957679,-14.424178987996,South America,Bolivia,Bolivia - Beni - José Ballivián,2013-03-26,
80704,Crotophaga major,species,Greater Ani,1,-67.544403090142,-14.583583455157,South America,Bolivia,Bolivia - San Buenaventura (La Paz),2013-03-21,
80721,Thraupis palmarum melanoptera,subspecies,Palm Tanager ssp melanoptera,1,-67.5280952489,-14.4382821093,South America,Bolivia,Bolivia,2013-03-25,
80817,Tachycineta albiventer,species,White-winged Swallow,2,-67.516937269829,-14.571621721441,South America,Bolivia,Bolivia - San Buenaventura (La Paz),2013-03-22,
80847,Ramphastos toco albogularis,subspecies,Toco Toucan ssp albogularis,2,-67.5533294817,-14.5684318242,South America,Bolivia,Bolivia - San Buenaventura (La Paz),2013-03-21,
81109,Ara ararauna,species,Blue-and-yellow Macaw,6,-67.553329481743,-14.568431824232,South America,Bolivia,Bolivia - San Buenaventura (La Paz),2013-03-21,
93395,Caracara plancus,species,Southern Crested Caracara,1,-67.605285672471,-14.573216673014,South America,Bolivia,Bolivia - San Buenaventura (La Paz),2013-03-21,
93448,Nycticorax nycticorax hoactli,subspecies,Black-crowned Night Heron ssp hoactli,1,-67.6052856725,-14.573216673,South America,Bolivia,Bolivia - San Buenaventura (La Paz),2013-03-21,
93466,Jabiru mycteria,species,Jabiru,2,-67.605285672471,-14.573216673014,South America,Bolivia,Bolivia - San Buenaventura (La Paz),2013-03-21,
93485,Mycteria americana,species,Wood Stork,8,-67.605285672471,-14.573216673014,South America,Bolivia,Bolivia - San Buenaventura (La Paz),2013-03-21,
93514,Tityra cayana cayana,subspecies,Black-tailed Tityra ssp cayana,1,-67.6052856725,-14.573216673,South America,Bolivia,Bolivia - San Buenaventura (La Paz),2013-03-21,
93598,Eurypyga helias helias,subspecies,Sunbittern ssp helias,1,-67.6052856725,-14.573216673,South America,Bolivia,Bolivia - San Buenaventura (La Paz),2013-03-21,
93633,Butorides striata striata,subspecies,Striated Heron ssp striata,1,-67.6052856725,-14.573216673,South America,Bolivia,Bolivia - San Buenaventura (La Paz),2013-03-21,
112819,Megaceryle torquata torquata,subspecies,Ringed Kingfisher ssp torquata,1,-67.6371002232,-14.4514367907,South America,Bolivia,Bolivia - San Buenaventura (La Paz),2013-03-21,
112989,Vanellus chilensis lampronotus,subspecies,Southern Lapwing ssp lampronotus,2,-67.6371002232,-14.4514367907,South America,Bolivia,Bolivia - San Buenaventura (La Paz),2013-03-20,
113088,Ara ararauna,species,Blue-and-yellow Macaw,4,-67.637100223219,-14.451436790691,South America,Bolivia,Bolivia - San Buenaventura (La Paz),2013-03-20,
113154,Butorides striata striata,subspecies,Striated Heron ssp striata,1,-67.6371002232,-14.4514367907,South America,Bolivia,Bolivia - San Buenaventura (La Paz),2013-03-20,
113331,Jacana jacana jacana,subspecies,Wattled Jacana ssp jacana,3,-67.6371002232,-14.4514367907,South America,Bolivia,Bolivia - San Buenaventura (La Paz),2013-03-20,
113346,Dendrocygna autumnalis autumnalis,subspecies,Black-bellied Whistling Duck ssp autumnalis,2,-67.6371002232,-14.4514367907,South America,Bolivia,Bolivia - San Buenaventura (La Paz),2013-03-20,
113494,Chauna torquata,species,Southern Screamer,1,-67.637100223219,-14.451436790691,South America,Bolivia,Bolivia - San Buenaventura (La Paz),2013-03-20,
114612,Ardea cocoi,species,Cocoi Heron,1,-67.637100223219,-14.451436790691,South America,Bolivia,Bolivia - San Buenaventura (La Paz),2013-03-20,
114643,Anhinga anhinga anhinga,subspecies,Anhinga ssp anhinga,1,-67.637100223219,-14.451436790691,South America,Bolivia,Bolivia - San Buenaventura (La Paz),2013-03-20,
114667,Chauna torquata,species,Southern Screamer,1,-67.637100223219,-14.451436790691,South America,Bolivia,Bolivia - San Buenaventura (La Paz),2013-03-20,
115034,Opisthocomus hoazin,species,Hoatzin,10,-67.637100223219,-14.451436790691,South America,Bolivia,Bolivia - San Buenaventura (La Paz),2013-03-20,
116343,Phalaropus tricolor,species,Wilson's Phalarope,7,-67.79708862392,-21.695904897865,South America,Bolivia,"Bolivia - Colcha ""K"" (Potosí)",2013-03-10,
116381,Phoenicoparrus jamesi,species,James's Flamingo,1000,-67.599792508408,-21.961556955586,South America,Bolivia,"Bolivia - Colcha ""K"" (Potosí)",2013-03-10,
116442,Phoenicopterus chilensis,species,Chilean Flamingo,1,-67.779693610501,-22.218937223577,South America,Bolivia,Bolivia - Laguna Colorada,2013-03-09,
116660,Lophonetta specularioides alticola,subspecies,Crested Duck ssp alticola,4,-67.7796936105,-22.2189372236,South America,Bolivia,Bolivia - Laguna Colorada,2013-03-09,
116702,Phoenicoparrus jamesi,species,James's Flamingo,500,-67.779693610501,-22.218937223577,South America,Bolivia,Bolivia - Laguna Colorada,2013-03-09,
116714,Phoenicoparrus andinus,species,Andean Flamingo,10,-67.779693610501,-22.218937223577,South America,Bolivia,Bolivia - Laguna Colorada,2013-03-09,
116738,Phoenicoparrus jamesi,species,James's Flamingo,10,-67.794456488919,-22.801988590658,South America,Bolivia,Bolivia - Eduardo Avaroa National Reserve of Andean Fauna,2013-03-09,
117248,Recurvirostra andina,species,Andean Avocet,1,-67.825698854285,-22.788737491487,South America,Bolivia,Bolivia - Laguna Verde,2013-03-09,
117303,Charadrius alticola,species,Puna Plover,1,-67.821235658485,-22.787787919956,South America,Bolivia,Bolivia - Laguna Verde,2013-03-09,
117350,Phrygilus plebejus plebejus,subspecies,Ash-breasted Sierra Finch ssp plebejus,10,-67.8212356585,-22.78778792,South America,Bolivia,Bolivia - Laguna Verde,2013-03-09,
116953,Corades iduna,species,,1,-64.814300551079,-17.765252946644,South America,Bolivia,Bolivia - Pojo (Cochabamba),1995-07-14,
68436,Pipile cumanensis grayi,subspecies,Blue-throated Piping Guan ssp grayi,1,-67.295426,-12.944791,South America,Bolivia,Bolivia - Dpto. La Paz,2013-02-06,06:02
11900,Cinclodes albiventris,species,Cream-winged Cinclodes,1,-67.601623535156,-21.407048123461,South America,Bolivia,Bolivia - San Agustín (Potosí),1999-01-01,
11912,Cinclodes albiventris,species,Cream-winged Cinclodes,1,-64.756164550781,-17.827798674165,South America,Bolivia,Bolivia - Comarapa (Santa Cruz),1995-11-02,
9765,Lagidium viscacia,species,Southern Viscacha,1,-67.331428527832,-21.428781838715,South America,Bolivia,Bolivia - Dpto. Potosí,2003-04-18,
84532,Cinclodes albiventris,species,Cream-winged Cinclodes,25,-68.595886230469,-16.320139453118,South America,Bolivia,Bolivia - Lago Titicaca,2001-11-12,
84533,Cinclodes albiventris,species,Cream-winged Cinclodes,25,-68.054809570312,-16.351767849269,South America,Bolivia,Bolivia - Dpto. La Paz,2001-11-12,
84534,Cinclodes albiventris,species,Cream-winged Cinclodes,25,-68.054809570312,-16.351767849269,South America,Bolivia,Bolivia - Dpto. La Paz,2001-11-13,
84535,Ocreatus addae addae,subspecies,Rufous-booted Racket-tail ssp addae,1,-67.711486816406,-16.1777485244,South America,Bolivia,Bolivia - Dpto. La Paz,2001-11-13,
84536,Colibri cyanotus crissalis,subspecies,Lesser Violetear ssp crissalis,2,-68.700256347656,-16.399200837347,South America,Bolivia,Bolivia - Lago Titicaca,2001-11-12,
84793,Ortalis guttata,species,Speckled Chachalaca,20,-67.77740479,-16.20544372,South America,Bolivia,Bolivia - Cotapata NP,2001-11-13,
88164,Sarkidiornis sylvicola,species,Comb Duck,4,-64.895896911621,-14.854706808863,South America,Bolivia,Bolivia - San Javier (Beni),2001-11-11,
91993,Sporophila caerulescens,species,Double-collared Seedeater,2,-64.75135803,-14.9268718,South America,Bolivia,Bolivia - Trinidad (Beni),2001-11-09,
94313,Ortalis guttata,species,Speckled Chachalaca,3,-64.82002258,-14.87312362,South America,Bolivia,Bolivia - Trinidad (Beni),2001-11-09,
114217,Cinclodes albiventris,species,Cream-winged Cinclodes,25,-66.290130615234,-17.3090156621,South America,Bolivia,Bolivia - Tunari NP,2001-11-03,
115371,Cinclodes albiventris,species,Cream-winged Cinclodes,1,-65.29655456543,-17.589703264875,South America,Bolivia,Bolivia - Dpto. Cochabamba,2001-11-02,
115373,Colibri cyanotus crissalis,subspecies,Lesser Violetear ssp crissalis,1,-65.288314819336,-17.583812296355,South America,Bolivia,Bolivia - Dpto. Cochabamba,2001-11-02,
115380,Cinclodes albiventris,species,Cream-winged Cinclodes,5,-64.740028381348,-17.825837643015,South America,Bolivia,Bolivia - Dpto. Santa Cruz,2001-11-02,
117463,Piranga flava,species,Red Tanager,2,-64.52922821,-17.91438932,South America,Bolivia,Bolivia - Dpto. Santa Cruz,2001-10-30,
117738,Icterus pyrrhopterus periporphyrus,subspecies,Variable Oriole ssp periporphyrus,2,-64.033126831055,-17.959791675419,South America,Bolivia,Bolivia - Amboró NP,2001-10-30,
117748,Piranga flava / hepatica / lutea,multispecies,Hepatic Tanager s.l.,3,-64.03312683,-17.95979168,South America,Bolivia,Bolivia - Amboró NP,2001-10-30,
120339,Geothlypis velata,species,Southern Yellowthroat,2,-63.83056640625,-18.177331888331,South America,Bolivia,Bolivia - Samaipata - El Fuerte,2001-10-29,
1777,Icterus pyrrhopterus periporphyrus,subspecies,Variable Oriole ssp periporphyrus,1,-62.795104980469,-17.862439996746,South America,Bolivia,Bolivia - Dpto. Santa Cruz,2001-10-27,
2388,Sarkidiornis sylvicola,species,Comb Duck,1,-62.795104980469,-17.862439996746,South America,Bolivia,Bolivia - Dpto. Santa Cruz,2001-10-27,
21312,Charadrius alticola,species,Puna Plover,2,-67.818916799733,-22.793090923388,South America,Bolivia,Bolivia - Laguna Verde,2012-10-27,
21343,Phoenicoparrus jamesi,species,James's Flamingo,100,-67.7429523552,-22.2229047409,South America,Bolivia,Bolivia - Laguna Colorada,2012-10-27,
21495,Lagidium viscacia,species,Southern Viscacha,1,-67.765960344113,-21.405443602653,South America,Bolivia,Bolivia - Dpto. Potosí,2012-10-26,
31262,Rhea pennata garleppi,subspecies,Lesser Rhea ssp garleppi,2,-67.7606817463,-21.4024868959,South America,Bolivia,Bolivia - Dpto. Potosí,2012-10-26,
31319,Plegadis ridgwayi,species,Puna Ibis,1,-67.617087007093,-21.399969652427,South America,Bolivia,Bolivia - Dpto. Potosí,2012-10-26,
31951,Chloephaga melanoptera,species,Andean Goose,8,-67.617087007093,-21.399969652427,South America,Bolivia,Bolivia - Dpto. Potosí,2012-10-26,
31954,Phoenicoparrus andinus,species,Andean Flamingo,10,-67.617087007093,-21.399969652427,South America,Bolivia,Bolivia - Dpto. Potosí,2012-10-26,
38372,Phrygilus atriceps,species,Black-hooded Sierra Finch,2,-67.627226024342,-20.242069437993,South America,Bolivia,Bolivia - Salar de Uyuni,2012-10-25,
38446,Vicugna vicugna,species,Vicugna,25,-66.590992910788,-20.421974919673,South America,Bolivia,Bolivia - Dpto. Potosí,2012-10-24,
38831,Sicalis lutea,species,Puna Yellow Finch,6,-65.753724485603,-19.589311220397,South America,Bolivia,Bolivia - Potosí (Potosí),2012-10-23,
38978,Vanellus resplendens,species,Andean Lapwing,2,-65.586132824683,-19.508937228008,South America,Bolivia,Bolivia - Dpto. Potosí,2012-10-22,
62982,Vultur gryphus,species,Andean Condor,12,-63.879609285585,-18.181287515401,South America,Bolivia,Bolivia - Samaipata (Santa Cruz),2012-10-30,
63029,Phoenicoparrus jamesi,species,James's Flamingo,250,-67.182769775391,-22.491940013104,South America,Bolivia,Bolivia - Eduardo Avaroa National Reserve of Andean Fauna,2012-10-23,
77573,Basileuterus punctipectus,species,Yungas Warbler,1,-67.5167798996,-16.410974946317,South America,Bolivia,Bolivia - Dpto. La Paz,2011-01-17,
77606,Basileuterus punctipectus,species,Yungas Warbler,1,-67.525920867923,-16.408834252217,South America,Bolivia,Bolivia - Dpto. La Paz,2011-01-15,
77649,Cinclodes albiventris,species,Cream-winged Cinclodes,1,-66.99038919412055,-20.3517086511,South America,Bolivia,Bolivia - Dpto. Potosí,2011-01-09,
77687,Cinclodes albiventris,species,Cream-winged Cinclodes,20,-64.967437744141,-21.739824995209,South America,Bolivia,Bolivia - Dpto. Tarija,2011-01-05,
93574,Phalcoboenus megalopterus,species,Mountain Caracara,1,-65.409336498719,-18.969700539837,South America,Bolivia,Bolivia - Dpto. Chuquisaca,2012-10-20,
93800,Thraupis sayaca,species,Sayaca Tanager,10,-65.263260839287,-19.042031676311,South America,Bolivia,Bolivia - Sucre (Chuquisaca),2012-10-19,
97981,Phegornis mitchellii,species,Diademed Sandpiper-Plover,1,-67.466096878052,-21.801443663261,South America,Bolivia,Bolivia - Dpto. Potosí,2012-10-27,
98242,Thinocorus orbignyianus,species,Grey-breasted Seedsnipe,1,-67.463779449463,-21.800347897777,South America,Bolivia,Bolivia - Dpto. Potosí,2012-10-27,
98243,Attagis gayi,species,Rufous-bellied Seedsnipe,1,-67.463779449463,-21.800347897777,South America,Bolivia,Bolivia - Dpto. Potosí,2012-10-27,
7365,Chauna torquata,species,Southern Screamer,1,-68.2248840332,-13.745154857,South America,Bolivia,Bolivia - Dpto. La Paz,2011-06-30,
7366,Brachymesia herbida,species,Tawny Pennant,1,-68.2248840332,-13.745154857,South America,Bolivia,Bolivia - Dpto. La Paz,2011-06-30,
7368,Eichhornia crassipes,species,Water Hyacinth,1,-68.2248840332,-13.745154857,South America,Bolivia,Bolivia - Dpto. La Paz,2011-06-30,
7372,Saimiri boliviensis boliviensis,subspecies,Bolivian Squirrel Monkey,1,-68.2248840332,-13.745154857,South America,Bolivia,Bolivia - Dpto. La Paz,2011-06-29,
7373,Ardea cocoi,species,Cocoi Heron,1,-68.2248840332,-13.745154857,South America,Bolivia,Bolivia - Dpto. La Paz,2011-06-29,
7374,Ardea alba egretta,subspecies,American Great Egret,1,-68.22488403,-13.74515486,South America,Bolivia,Bolivia - Dpto. La Paz,2011-06-29,
7375,Opisthocomus hoazin,species,Hoatzin,1,-68.2248840332,-13.745154857,South America,Bolivia,Bolivia - Dpto. La Paz,2011-06-29,
7378,Hydrochoerus hydrochaeris,species,Capybara,1,-68.2248840332,-13.745154857,South America,Bolivia,Bolivia - Dpto. La Paz,2011-06-29,
7452,Bradypus variegatus,species,Brown-throated Three-toed Sloth,1,-68.2248840332,-13.745154857,South America,Bolivia,Bolivia - Dpto. La Paz,2011-06-29,
13348,Phoenicoparrus jamesi,species,James's Flamingo,1,-67.47219320891669,-20.24017531094895,South America,Bolivia,Bolivia - Salar de Uyuni,2011-06-24,
13469,Siproeta epaphus,species,Rusty-tipped Page,1,-64.0032276441441,-17.770671675728423,South America,Bolivia,Bolivia - Amboró NP,2011-06-19,
13546,Falco sparverius,species,American Kestrel,1,-63.6765441894,-17.9347404668,South America,Bolivia,Bolivia - Amboró NP,2011-06-19,
28677,Accipiter ventralis,species,Plain-breasted Hawk,1,-63.6304638386,-18.1446398546,South America,Bolivia,Bolivia - Dpto. Santa Cruz,2012-08-18,
28687,Icterus pyrrhopterus periporphyrus,subspecies,Variable Oriole ssp periporphyrus,2,-63.646600008,-18.1195983381,South America,Bolivia,Bolivia - Amboró NP,2012-08-23,
33210,Ara chloropterus,species,Red-and-green Macaw,10,-68.2043704987,-13.8249289017,South America,Bolivia,Bolivia - Dpto. La Paz,2012-08-14,
33214,Ardea cocoi,species,Cocoi Heron,2,-68.205915451,-13.8235953905,South America,Bolivia,Bolivia - Dpto. La Paz,2012-08-14,
35298,Aulacorhynchus atrogularis,species,Black-throated Toucanet,1,-67.5788793564,-14.5894148735,South America,Bolivia,Bolivia - Madidi NP,2012-08-12,
36394,Tachycineta albiventer,species,White-winged Swallow,10,-67.5710687637,-14.5932357448,South America,Bolivia,Bolivia - Madidi NP,2012-08-10,
61937,Bradypus variegatus,species,Brown-throated Three-toed Sloth,1,-66.9250855446,-14.0807166699,South America,Bolivia,Bolivia - Beni - José Ballivián,2012-08-07,
61939,Hydrochoerus hydrochaeris,species,Capybara,6,-66.7975411415,-14.1260011635,South America,Bolivia,Bolivia - Beni - José Ballivián,2012-08-07,
61946,Saimiri boliviensis,species,Black-headed Squirrel Monkey,15,-66.7922196388,-14.124669395,South America,Bolivia,Bolivia - Beni - José Ballivián,2012-08-09,
61967,Inia geoffrensis boliviensis,subspecies,Bolivian River Dolphin,4,-66.8001160622,-14.1458102992,South America,Bolivia,Bolivia - Beni - José Ballivián,2012-08-07,
62890,Chauna torquata,species,Southern Screamer,1,-66.8233010769,-14.0869500645,South America,Bolivia,Bolivia - Beni - José Ballivián,2012-08-08,
63070,Chauna torquata,species,Southern Screamer,1,-66.7866621017,-14.1247734397,South America,Bolivia,Bolivia - Beni - José Ballivián,2012-08-08,
71179,Opisthocomus hoazin,species,Hoatzin,300,-66.7962751389,-14.1353857484,South America,Bolivia,Bolivia - Beni - José Ballivián,2012-08-07,
71191,Caracara plancus,species,Southern Crested Caracara,2,-66.82318306,-14.06824937,South America,Bolivia,Bolivia - Beni - José Ballivián,2012-08-07,
71236,Chauna torquata,species,Southern Screamer,2,-66.7962751389,-14.1279779929,South America,Bolivia,Bolivia - Beni - José Ballivián,2012-08-07,
71242,Ardea alba,species,Great Egret,30,-66.7962751389,-14.1279779929,South America,Bolivia,Bolivia - Beni - José Ballivián,2012-08-07,
71243,Tigrisoma lineatum,species,Rufescent Tiger Heron,14,-66.7962751389,-14.1279779929,South America,Bolivia,Bolivia - Beni - José Ballivián,2012-08-07,
71244,Anhinga anhinga,species,Anhinga,6,-66.7962751389,-14.1279779929,South America,Bolivia,Bolivia - Beni - José Ballivián,2012-08-07,
71256,Jabiru mycteria,species,Jabiru,7,-66.7985925674,-14.1161999977,South America,Bolivia,Bolivia - Beni - José Ballivián,2012-08-07,
82731,Bradypus variegatus,species,Brown-throated Three-toed Sloth,2,-67.530996561,-14.4436636693,South America,Bolivia,Bolivia,2012-08-05,
83580,Tyto furcata,species,American Barn Owl,1,-67.6875195503,-14.9757936611,South America,Bolivia,Bolivia - Madidi NP,2012-08-04,
83684,Sarcoramphus papa,species,King Vulture,5,-67.6902661324,-15.1362576386,South America,Bolivia,Bolivia - Dpto. La Paz,2012-08-04,
83697,Coragyps atratus,species,Black Vulture,40,-67.6902661324,-15.1382461016,South America,Bolivia,Bolivia - Dpto. La Paz,2012-08-04,
91124,Thraupis sayaca,species,Sayaca Tanager,6,-67.717941165,-16.1560536083,South America,Bolivia,Bolivia - Dpto. La Paz,2012-08-02,
91269,Aulacorhynchus atrogularis atrogularis,subspecies,Black-throated Toucanet ssp atrogularis,1,-67.7152106762,-16.157676659,South America,Bolivia,Bolivia - Dpto. La Paz,2012-08-02,
102724,Merganetta armata,species,Torrent Duck,25,-68.8483581543,-15.2130691428,South America,Bolivia,Bolivia - Dpto. La Paz,2012-07-28,
102873,Cinclus leucocephalus,species,White-capped Dipper,10,-69.0676019192,-15.191109579,South America,Bolivia,Bolivia - Dpto. La Paz,2012-07-27,
102877,Zonotrichia capensis,species,Rufous-collared Sparrow,4,-69.074811697,-15.2134314926,South America,Bolivia,Bolivia - Dpto. La Paz,2012-07-27,
102888,Cinclodes albiventris,species,Cream-winged Cinclodes,2,-69.0713784695,-15.1970319497,South America,Bolivia,Bolivia - Dpto. La Paz,2012-07-27,
102928,Vicugna vicugna,species,Vicugna,7,-69.0791461468,-15.2166615552,South America,Bolivia,Bolivia - Dpto. La Paz,2012-07-27,
104651,Cinclus leucocephalus,species,White-capped Dipper,1,-69.0074453354,-15.2014736185,South America,Bolivia,Bolivia - Dpto. La Paz,2012-07-25,
104664,Zonotrichia capensis,species,Rufous-collared Sparrow,30,-69.0065870285,-15.1971665471,South America,Bolivia,Bolivia - Dpto. La Paz,2012-07-25,
104775,Phalcoboenus megalopterus,species,Mountain Caracara,30,-69.0841779709,-15.4719790647,South America,Bolivia,Bolivia - Dpto. La Paz,2012-07-24,
104813,Cathartes aura,species,Turkey Vulture,3,-69.0841779709,-15.4719790647,South America,Bolivia,Bolivia - Dpto. La Paz,2012-07-24,
104854,Theristicus branickii,species,Andean Ibis,1,-69.0668401718,-15.6104063598,South America,Bolivia,Bolivia - Dpto. La Paz,2012-07-24,
105493,Rollandia microptera,species,Titicaca Grebe,100,-68.8277587891,-16.2493238764,South America,Bolivia,Bolivia - Lago Titicaca,2012-07-22,
105554,Spatula puna,species,Puna Teal,100,-68.8277587891,-16.2493238764,South America,Bolivia,Bolivia - Lago Titicaca,2012-07-22,
106250,Vanellus chilensis,species,Southern Lapwing,9,-63.1645641327,-17.9165293522,South America,Bolivia,Bolivia - Dpto. Santa Cruz,2012-07-19,
108699,Gallinula galeata,species,Common Gallinule,1,-61.54845682192913,-16.986202592671436,South America,Bolivia,Bolivia - Dpto. Santa Cruz,2010-12-31,
108753,Vultur gryphus,species,Andean Condor,1,-63.8166940212,-18.1678109749,South America,Bolivia,Bolivia - Dpto. Santa Cruz,2010-12-30,
108795,Vanellus chilensis,species,Southern Lapwing,1,-63.1534481049,-17.9437062033,South America,Bolivia,Bolivia - Dpto. Santa Cruz,2010-12-28,
39231,Cinclodes albiventris,species,Cream-winged Cinclodes,2,-69.0930175781,-16.1619209538,South America,Bolivia,Bolivia - Dpto. La Paz,2008-08-28,
39232,Rollandia microptera,species,Titicaca Grebe,3,-69.0930175781,-16.1619209538,South America,Bolivia,Bolivia - Dpto. La Paz,2008-08-28,
92398,Spatula puna,species,Puna Teal,2,-69.1630554199,-16.05472183,South America,Bolivia,Bolivia - Lago Titicaca,2005-08-07,
61894,Cinclodes albiventris,species,Cream-winged Cinclodes,1,-68.8568115234,-16.1988499788,South America,Bolivia,Bolivia - Dpto. La Paz,2008-08-27,
61899,Rollandia microptera,species,Titicaca Grebe,3,-68.8568115234,-16.1988499788,South America,Bolivia,Bolivia - Dpto. La Paz,2008-08-27,
31018,Theristicus branickii,species,Andean Ibis,6,-67.9195404053,-16.2153339194,South America,Bolivia,Bolivia - Dpto. La Paz,2008-09-29,
31033,Ochthoeca oenanthoides,species,D'Orbigny's Chat-Tyrant,1,-67.9195404053,-16.2153339194,South America,Bolivia,Bolivia - Dpto. La Paz,2008-09-29,
31081,Podiceps occipitalis,species,Silvery Grebe,2,-68.2314491272,-16.0999174446,South America,Bolivia,Bolivia - Dpto. La Paz,2008-09-26,
31296,Lagidium viscacia,species,Southern Viscacha,10,-68.2666397095,-16.0733621422,South America,Bolivia,Bolivia - Dpto. La Paz,2008-09-25,
7676,Sarcoramphus papa,species,King Vulture,8,-67.923746109,-14.375573189,South America,Bolivia,Bolivia - Dpto. La Paz,2008-10-08,
7677,Tigrisoma lineatum,species,Rufescent Tiger Heron,1,-67.9191970825,-14.4242066947,South America,Bolivia,Bolivia - Dpto. La Paz,2008-10-07,
7678,Sarcoramphus papa,species,King Vulture,1,-67.9191970825,-14.4242066947,South America,Bolivia,Bolivia - Dpto. La Paz,2008-10-07,
7679,Opisthocomus hoazin,species,Hoatzin,11,-67.9191970825,-14.4242066947,South America,Bolivia,Bolivia - Dpto. La Paz,2008-10-07,
7680,Sarcoramphus papa,species,King Vulture,2,-67.9191970825,-14.4242066947,South America,Bolivia,Bolivia - Dpto. La Paz,2008-10-06,
7681,Alouatta sara,species,Bolivian Red Howler Monkey,12,-67.9191970825,-14.4242066947,South America,Bolivia,Bolivia - Dpto. La Paz,2008-10-06,
7682,Sapajus apella,species,Black-capped Capuchin,6,-67.9191970825,-14.4242066947,South America,Bolivia,Bolivia - Dpto. La Paz,2008-10-06,
7683,Trogon melanurus,species,Black-tailed Trogon,1,-67.9191970825,-14.4242066947,South America,Bolivia,Bolivia - Dpto. La Paz,2008-10-06,
10771,Sapajus apella,species,Black-capped Capuchin,8,-67.9133605957,-14.4286954067,South America,Bolivia,Bolivia - Dpto. La Paz,2008-10-05,
10772,Opisthocomus hoazin,species,Hoatzin,12,-67.9133605957,-14.4286954067,South America,Bolivia,Bolivia - Dpto. La Paz,2008-10-05,
10782,Alouatta sara,species,Bolivian Red Howler Monkey,1,-67.9133605957,-14.4286954067,South America,Bolivia,Bolivia - Dpto. La Paz,2008-10-04,
10785,Sarkidiornis sylvicola,species,Comb Duck,4,-67.9133605957,-14.4286954067,South America,Bolivia,Bolivia - Dpto. La Paz,2008-10-04,
10786,Tangara vassorii,species,Blue-and-black Tanager,1,-67.8522491455,-16.1177289492,South America,Bolivia,Bolivia - Dpto. La Paz,2008-10-01,
10796,Atlapetes rufinucha,species,Bolivian Brushfinch,7,-67.8285598755,-16.2156635842,South America,Bolivia,Bolivia - Dpto. La Paz,2008-09-29,
10797,Buthraupis montana,species,Hooded Mountain Tanager,1,-67.8285598755,-16.2156635842,South America,Bolivia,Bolivia - Dpto. La Paz,2008-09-29,
10798,Diuca speculifera,species,White-winged Diuca Finch,5,-68.2288742065,-16.1028861398,South America,Bolivia,Bolivia - Dpto. La Paz,2008-09-26,
10799,Lessonia oreas,species,Andean Negrito,2,-68.2288742065,-16.1028861398,South America,Bolivia,Bolivia - Dpto. La Paz,2008-09-26,
10800,Fulica gigantea,species,Giant Coot,12,-68.2288742065,-16.1028861398,South America,Bolivia,Bolivia - Dpto. La Paz,2008-09-26,
10801,Phalcoboenus megalopterus,species,Mountain Caracara,3,-68.2288742065,-16.1028861398,South America,Bolivia,Bolivia - Dpto. La Paz,2008-09-26,
10803,Oxyura ferruginea,species,Andean Duck,4,-68.2288742065,-16.1028861398,South America,Bolivia,Bolivia - Dpto. La Paz,2008-09-26,
10804,Anas flavirostris,species,Yellow-billed Teal,6,-68.2288742065,-16.1028861398,South America,Bolivia,Bolivia - Dpto. La Paz,2008-09-26,
10805,Chloephaga melanoptera,species,Andean Goose,6,-68.2288742065,-16.1028861398,South America,Bolivia,Bolivia - Dpto. La Paz,2008-09-26,
12727,Chloephaga melanoptera,species,Andean Goose,2,-68.2735061646,-16.0745167943,South America,Bolivia,Bolivia - Dpto. La Paz,2008-09-25,
12728,Diuca speculifera,species,White-winged Diuca Finch,12,-68.2735061646,-16.0745167943,South America,Bolivia,Bolivia - Dpto. La Paz,2008-09-25,
12729,Podiceps occipitalis,species,Silvery Grebe,4,-68.2735061646,-16.0745167943,South America,Bolivia,Bolivia - Dpto. La Paz,2008-09-25,
12730,Attagis gayi,species,Rufous-bellied Seedsnipe,6,-68.2971954346,-16.0131460007,South America,Bolivia,Bolivia - Dpto. La Paz,2008-09-24,
12731,Diuca speculifera,species,White-winged Diuca Finch,4,-68.2971954346,-16.0131460007,South America,Bolivia,Bolivia - Dpto. La Paz,2008-09-24,
12732,Chloephaga melanoptera,species,Andean Goose,2,-68.2719612122,-16.0763312342,South America,Bolivia,Bolivia - Dpto. La Paz,2008-09-23,
12733,Diuca speculifera,species,White-winged Diuca Finch,3,-68.2719612122,-16.0763312342,South America,Bolivia,Bolivia - Dpto. La Paz,2008-09-23,
12734,Cinclodes albiventris,species,Cream-winged Cinclodes,1,-68.2719612122,-16.0763312342,South America,Bolivia,Bolivia - Dpto. La Paz,2008-09-23,
12735,Phalcoboenus megalopterus,species,Mountain Caracara,2,-68.2719612122,-16.0763312342,South America,Bolivia,Bolivia - Dpto. La Paz,2008-09-23,
12736,Podiceps occipitalis,species,Silvery Grebe,3,-68.3226013184,-16.0867227069,South America,Bolivia,Bolivia - Dpto. La Paz,2008-09-22,
12737,Phalcoboenus megalopterus,species,Mountain Caracara,3,-68.3226013184,-16.0867227069,South America,Bolivia,Bolivia - Dpto. La Paz,2008-09-22,
12738,Diuca speculifera,species,White-winged Diuca Finch,4,-68.3226013184,-16.0867227069,South America,Bolivia,Bolivia - Dpto. La Paz,2008-09-22,
12739,Chloephaga melanoptera,species,Andean Goose,1,-68.3363342285,-16.1111322821,South America,Bolivia,Bolivia - Dpto. La Paz,2008-09-22,
35395,Steatornis caripensis,species,Oilbird,10,-65.576019287109,-17.02264645195,South America,Bolivia,Bolivia - Dpto. Cochabamba,1995-08-23,
35398,Diuca speculifera,species,White-winged Diuca Finch,1,-68.13617706,-16.35308559,South America,Bolivia,Bolivia - El Alto (La Paz),1995-08-18,
21391,Asthenes huancavelicae,species,Pale-tailed Canastero,1,-67.818603515625,-22.244615500323,South America,Bolivia,Bolivia,2003-06-10,
21428,Phoenicoparrus andinus,species,Andean Flamingo,1,-67.803840637207,-22.200756196603,South America,Bolivia,Bolivia,2003-06-10,
25503,Vanellus resplendens,species,Andean Lapwing,2,-68.382811546326,-16.463229385349,South America,Bolivia,Bolivia - Dpto. La Paz,2008-09-21,
64381,Lagidium viscacia,species,Southern Viscacha,2,-67.626342773438,-20.244159757265,South America,Bolivia,Bolivia - Salar de Uyuni,1998-06-22,
64403,Bradypus variegatus,species,Brown-throated Three-toed Sloth,2,-63.671822547913,-17.502710181066,South America,Bolivia,Bolivia - Buena Vista (Santa Cruz),2005-07-28,
68275,Rollandia microptera,species,Titicaca Grebe,1,-68.685547113419,-16.213974046477,South America,Bolivia,Bolivia - Lago Titicaca,2005-08-07,
68941,Piaya cayana mogenseni,subspecies,Squirrel Cuckoo ssp mogenseni,1,-63.817520141602,-18.179676359035,South America,Bolivia,Bolivia - Samaipata - El Fuerte,2005-07-15,
119033,Opisthocomus hoazin,species,Hoatzin,2,-63.673152923584,-17.480853058263,South America,Bolivia,Bolivia - Buena Vista (Santa Cruz),2005-07-28,
121096,Falco sparverius cearae,subspecies,American Kestrel ssp cearae,1,-63.181900978088,-17.782076525932,South America,Bolivia,Bolivia - Santa Cruz de la Sierra (Santa Cruz),2005-07-14,
4080,Dendrocygna autumnalis autumnalis,subspecies,Black-bellied Whistling Duck ssp autumnalis,1,-66.134262084961,-17.415429736441,South America,Bolivia,Bolivia - Cochabamba - Laguna Alalay,1999-01-31,
4432,Compsospiza garleppi,species,Cochabamba Mountain Finch,1,-66.293349266052,-17.290290559902,South America,Bolivia,Bolivia - Tunari NP,1998-01-16,
5510,Steatornis caripensis,species,Oilbird,1,-65.456886291504,-17.106011345348,South America,Bolivia,Bolivia - Carrasco NP,1996-05-18,
36790,Chelonoidis carbonaria,species,Red-footed Tortoise,1,-63.08237076,-17.76961136,South America,Bolivia,Bolivia - Santa Cruz de la Sierra (Santa Cruz),2019-07-18,14:17
109521,Momotus momota,species,Amazonian Motmot,1,-63.07016283,-17.76503626,South America,Bolivia,Bolivia - Santa Cruz de la Sierra (Santa Cruz),2014-12-18,
109527,Paroaria gularis,species,Red-capped Cardinal,1,-63.07016283,-17.76503626,South America,Bolivia,Bolivia - Santa Cruz de la Sierra (Santa Cruz),2014-12-18,
109708,Thraupis sayaca,species,Sayaca Tanager,1,-63.1475687,-17.96177164,South America,Bolivia,Bolivia - La Guardia (Santa Cruz),2014-12-18,
102517,Consul fabius,species,Tiger leafwing,1,-67.90431619,-14.17086787,South America,Bolivia,Bolivia - San Buenaventura (La Paz),2017-07-11,
104415,Catonephele numilia,species,,1,-67.87776768,-14.18418077,South America,Bolivia,Bolivia - San Buenaventura (La Paz),2017-11-07,
112142,Catonephele numilia,species,,1,-67.9086104,-14.16487344,South America,Bolivia,Bolivia - San Buenaventura (La Paz),2017-11-07,
75578,Bradypus variegatus,species,Brown-throated Three-toed Sloth,1,-63.07036031,-17.76516525,South America,Bolivia,Bolivia - Santa Cruz de la Sierra (Santa Cruz),2019-12-14,
75582,Bubulcus ibis,species,Western Cattle Egret,5,-63.07036031,-17.76516525,South America,Bolivia,Bolivia - Santa Cruz de la Sierra (Santa Cruz),2019-12-14,
75585,Phimosus infuscatus,species,Bare-faced Ibis,1,-63.07036031,-17.76516525,South America,Bolivia,Bolivia - Santa Cruz de la Sierra (Santa Cruz),2019-12-14,
75589,Ardea cocoi,species,Cocoi Heron,1,-63.07036031,-17.76516525,South America,Bolivia,Bolivia - Santa Cruz de la Sierra (Santa Cruz),2019-12-14,
75592,Anhinga anhinga,species,Anhinga,1,-63.07036031,-17.76516525,South America,Bolivia,Bolivia - Santa Cruz de la Sierra (Santa Cruz),2019-12-14,
111423,Chloephaga melanoptera,species,Andean Goose,2,-67.59664167,-21.59467167,South America,Bolivia,"Bolivia - Colcha ""K"" (Potosí)",2019-12-08,
111425,Phalaropus tricolor,species,Wilson's Phalarope,1,-68.00870374,-21.50225896,South America,Bolivia,"Bolivia - Colcha ""K"" (Potosí)",2019-12-08,
111426,Lagidium viscacia,species,Southern Viscacha,10,-68.00559975,-21.92554458,South America,Bolivia,"Bolivia - Colcha ""K"" (Potosí)",2019-12-08,
111428,Lycalopex gymnocercus,species,Pampas Fox,2,-67.88269021,-22.05145163,South America,Bolivia,Bolivia - San Pablo de Lípez (Potosí),2019-12-08,
111429,Vicugna vicugna,species,Vicugna,15,-67.84343541,-22.12138531,South America,Bolivia,Bolivia - San Pablo de Lípez (Potosí),2019-12-08,
111430,Lophonetta specularioides,species,Crested Duck,4,-67.80501276,-22.17109175,South America,Bolivia,Bolivia - Laguna Colorada,2019-12-08,
35805,Ozotoceros bezoarticus,species,Pampas Deer,1,-66.13613561,-13.69410889,South America,Bolivia,Bolivia - Santa Ana del Yacuma (Beni),2019-05-26,
35817,Ara ararauna,species,Blue-and-yellow Macaw,2,-66.09982923,-13.75168319,South America,Bolivia,Bolivia - Santa Ana del Yacuma (Beni),2019-04-16,
24397,Saimiri boliviensis,species,Black-headed Squirrel Monkey,1,-66.7704821,-14.0906273,South America,Bolivia,Bolivia - Beni - José Ballivián,2015-06-23,14:02
101656,Bradypus variegatus,species,Brown-throated Three-toed Sloth,1,-63.09950867,-17.7680429,South America,Bolivia,Bolivia - Santa Cruz de la Sierra (Santa Cruz),2019-09-30,
101665,Saimiri boliviensis boliviensis,subspecies,Bolivian Squirrel Monkey,10,-63.21269538,-17.77913256,South America,Bolivia,Bolivia - Santa Cruz de la Sierra (Santa Cruz),2019-09-30,
101870,Plecturocebus donacophilus,species,Bolivian Grey Titi Monkey,1,-63.22158053,-17.77374473,South America,Bolivia,Bolivia - Santa Cruz de la Sierra (Santa Cruz),2019-09-30,
101880,Plecturocebus pallescens,species,Chacoan Titi Monkey,1,-61.78205676,-19.10821535,South America,Bolivia,Bolivia - Charagua (Santa Cruz),2019-09-30,
101898,Tolypeutes matacus,species,Southern Three-banded Armadillo,1,-61.22592755,-19.05775613,South America,Bolivia,Bolivia - Charagua (Santa Cruz),2019-09-30,
101906,Conepatus chinga,species,Molina's Hog-nosed Skunk,1,-61.76579587,-19.01538378,South America,Bolivia,Bolivia - Charagua (Santa Cruz),2019-09-30,
101913,Lycalopex gymnocercus,species,Pampas Fox,1,-60.95632397,-18.62125986,South America,Bolivia,Bolivia - Charagua (Santa Cruz),2019-09-30,
45293,Herpailurus yagouaroundi,species,Jaguarundi,1,-60.94482467,-18.67816526,South America,Bolivia,Bolivia - Charagua (Santa Cruz),2019-09-23,
119184,Nystalus obamai,species,Western Striolated Puffbird,1,-67.9162,-14.1749,South America,Bolivia,Bolivia - San Buenaventura (La Paz),2017-11-06,08:10
120052,Momotus momota,species,Amazonian Motmot,2,-67.95287743,-14.35518087,South America,Bolivia,Bolivia - Apolo (La Paz),2017-11-13,08:23
120948,Lophornis verreauxii verreauxii,subspecies,Butterfly Coquette ssp verreauxii,1,-67.912,-14.1774,South America,Bolivia,Bolivia - San Buenaventura (La Paz),2017-11-07,09:32
121039,Lophornis delattrei,species,Rufous-crested Coquette,2,-68.4332,-14.9796,South America,Bolivia,Bolivia - Apolo (La Paz),2017-11-24,06:34
121070,Colibri delphinae,species,Brown Violetear,1,-68.43859512,-14.98851874,South America,Bolivia,Bolivia - Apolo (La Paz),2017-11-24,09:19
29918,Strix huhula,species,Black-banded Owl,2,-67.91550995,-14.17052903,South America,Bolivia,Bolivia - San Buenaventura (La Paz),2017-11-06,19:27
31635,Opisthocomus hoazin,species,Hoatzin,5,-67.5828,-14.4029,South America,Bolivia,Bolivia - San Buenaventura (La Paz),2017-11-05,16:30
49745,Rynchops niger,species,Black Skimmer,2,-67.5745,-14.5947,South America,Bolivia,Bolivia - Apolo (La Paz),2017-11-15,08:23
71337,Tringa solitaria,species,Solitary Sandpiper,1,-63.13773299,-17.65718281,South America,Bolivia,Bolivia - Warnes (Santa Cruz),2017-11-26,10:34
71365,Vanellus resplendens,species,Andean Lapwing,1,-68.17753473,-16.5084072,South America,Bolivia,Bolivia - El Alto (La Paz),2017-11-05,10:22
71463,Harpagus bidentatus,species,Double-toothed Kite,2,-67.952,-14.2057,South America,Bolivia,Bolivia - San Buenaventura (La Paz),2017-11-08,09:26
72445,Pilherodius pileatus,species,Capped Heron,1,-67.68831643,-14.3363095,South America,Bolivia,Bolivia - San Buenaventura (La Paz),2017-11-10,07:23
72467,Pilherodius pileatus,species,Capped Heron,2,-67.69717275,-14.33203536,South America,Bolivia,Bolivia - San Buenaventura (La Paz),2017-11-05,16:58
72805,Colibri delphinae,species,Brown Violetear,2,-67.9195,-14.1679,South America,Bolivia,Bolivia - San Buenaventura (La Paz),2017-11-07,16:12
72814,Heliornis fulica,species,Sungrebe,1,-67.58282688,-14.40299462,South America,Bolivia,Bolivia - San Buenaventura (La Paz),2017-11-05,
73111,Neochen jubata,species,Orinoco Goose,7,-67.51556066,-14.56775818,South America,Bolivia,Bolivia - San Buenaventura (La Paz),2017-11-10,09:53
73146,Streptoprocne rutila,species,Chestnut-collared Swift,10,-68.48993607,-15.08714652,South America,Bolivia,Bolivia - Juan José Pérez (La Paz),2017-11-17,13:32
73219,Streptoprocne zonaris,species,White-collared Swift,50,-68.48993607,-15.08714652,South America,Bolivia,Bolivia - Juan José Pérez (La Paz),2017-11-17,13:32
73228,Anas georgica,species,Yellow-billed Pintail,3,-68.68323493,-16.21549935,South America,Bolivia,Bolivia - Lago Titicaca,2017-11-15,13:28
82202,Lagidium viscacia,species,Southern Viscacha,1,-67.48146057,-21.76396371,South America,Bolivia,"Bolivia - Colcha ""K"" (Potosí)",2008-12-28,
38428,Alouatta caraya,species,Black-and-gold Howler Monkey,2,-66.7704821,-14.0906273,South America,Bolivia,Bolivia - Beni - José Ballivián,2015-06-23,14:02
25586,Ardea alba,species,Great Egret,2,-63.0823707580566,-17.7696113586426,South America,Bolivia,Bolivia - Santa Cruz de la Sierra (Santa Cruz),2019-07-18,14:17
25588,Bradypus variegatus,species,Brown-throated Three-toed Sloth,1,-63.0670509338379,-17.7874794006348,South America,Bolivia,Bolivia - Santa Cruz de la Sierra (Santa Cruz),2019-07-18,16:05
25589,Phimosus infuscatus,species,Bare-faced Ibis,1,-64.9078674316406,-14.8310966491699,South America,Bolivia,Bolivia - Trinidad (Beni),2019-07-21,09:33
25590,Guira guira,species,Guira Cuckoo,1,-64.9078674316406,-14.8310966491699,South America,Bolivia,Bolivia - Trinidad (Beni),2019-07-21,09:33
25592,Aramus guarauna,species,Limpkin,2,-64.91510773,-14.82751465,South America,Bolivia,Bolivia - Trinidad (Beni),2019-07-21,10:18
25593,Jacana jacana,species,Wattled Jacana,2,-64.9151077270508,-14.8275146484375,South America,Bolivia,Bolivia - Trinidad (Beni),2019-07-21,10:18
25597,Guira guira,species,Guira Cuckoo,4,-64.9076156616211,-14.8314456939697,South America,Bolivia,Bolivia - Trinidad (Beni),2019-07-22,06:57
25603,Guira guira,species,Guira Cuckoo,2,-64.910774230957,-14.8295869827271,South America,Bolivia,Bolivia - Trinidad (Beni),2019-07-22,08:13
25608,Theristicus caudatus,species,Buff-necked Ibis,2,-64.91523743,-14.82774544,South America,Bolivia,Bolivia - Trinidad (Beni),2019-07-22,17:43
25609,Rhea americana,species,Greater Rhea,3,-66.0908584594727,-13.7673816680908,South America,Bolivia,Bolivia - Santa Ana del Yacuma (Beni),2019-07-23,11:28
25610,Theristicus caerulescens,species,Plumbeous Ibis,2,-66.0982971191406,-13.7625484466553,South America,Bolivia,Bolivia - Santa Ana del Yacuma (Beni),2019-07-23,12:07
25613,Chauna torquata,species,Southern Screamer,1,-66.091682434082,-13.7546901702881,South America,Bolivia,Bolivia - Santa Ana del Yacuma (Beni),2019-07-23,14:41
25618,Dendrocygna autumnalis,species,Black-bellied Whistling Duck,300,-66.086555480957,-13.7489328384399,South America,Bolivia,Bolivia - Santa Ana del Yacuma (Beni),2019-07-23,15:17
25620,Opisthocomus hoazin,species,Hoatzin,3,-66.0892181396484,-13.749475479126,South America,Bolivia,Bolivia - Santa Ana del Yacuma (Beni),2019-07-23,15:24
25622,Neochen jubata,species,Orinoco Goose,2,-66.098747253418,-13.7623205184937,South America,Bolivia,Bolivia - Santa Ana del Yacuma (Beni),2019-07-23,16:57
25623,Anhinga anhinga,species,Anhinga,1,-66.1012802124023,-13.7621593475342,South America,Bolivia,Bolivia - Santa Ana del Yacuma (Beni),2019-07-23,17:18
25625,Mycteria americana,species,Wood Stork,3,-66.0998229980469,-13.7627449035645,South America,Bolivia,Bolivia - Santa Ana del Yacuma (Beni),2019-07-23,17:32
25628,Chauna torquata,species,Southern Screamer,1,-66.0980911254883,-13.7637405395508,South America,Bolivia,Bolivia - Santa Ana del Yacuma (Beni),2019-07-23,17:37
25630,Mesembrinibis cayennensis,species,Green Ibis,2,-66.0948104858398,-13.7648620605469,South America,Bolivia,Bolivia - Santa Ana del Yacuma (Beni),2019-07-23,17:46
25635,Jabiru mycteria,species,Jabiru,1,-66.098503112793,-13.7623291015625,South America,Bolivia,Bolivia - Santa Ana del Yacuma (Beni),2019-07-24,09:37
25636,Phimosus infuscatus,species,Bare-faced Ibis,2,-66.0984191894531,-13.7623443603516,South America,Bolivia,Bolivia - Santa Ana del Yacuma (Beni),2019-07-24,12:08
25640,Donacobius atricapilla,species,Black-capped Donacobius,1,-66.1029891967773,-13.7624006271362,South America,Bolivia,Bolivia - Santa Ana del Yacuma (Beni),2019-07-25,09:14
25642,Mycteria americana,species,Wood Stork,2,-66.0984954833984,-13.7506113052368,South America,Bolivia,Bolivia - Santa Ana del Yacuma (Beni),2019-07-25,09:57
25658,Tyto furcata tuidara,subspecies,American Barn Owl ssp tuidara,1,-66.1113891601563,-13.7629089355469,South America,Bolivia,Bolivia - Santa Ana del Yacuma (Beni),2019-07-25,19:55
25661,Opisthocomus hoazin,species,Hoatzin,4,-66.1010055541992,-13.7623453140259,South America,Bolivia,Bolivia - Santa Ana del Yacuma (Beni),2019-07-26,15:47
25665,Jabiru mycteria,species,Jabiru,2,-66.1051940917969,-13.7575979232788,South America,Bolivia,Bolivia - Santa Ana del Yacuma (Beni),2019-07-26,17:27
33780,Recurvirostra andina,species,Andean Avocet,1,-67.79269124,-22.80239739,South America,Bolivia,Bolivia - Eduardo Avaroa National Reserve of Andean Fauna,2014-12-08,
33781,Phoenicoparrus jamesi,species,James's Flamingo,1,-67.79269124,-22.80239739,South America,Bolivia,Bolivia - Eduardo Avaroa National Reserve of Andean Fauna,2014-12-08,
33792,Phrygilus atriceps,species,Black-hooded Sierra Finch,1,-67.62451739,-20.24258005,South America,Bolivia,Bolivia - Salar de Uyuni,2014-12-07,
33949,Cinclodes albiventris albiventris,subspecies,Cream-winged Cinclodes ssp albiventris,1,-66.40086079,-17.3629677,South America,Bolivia,Bolivia - Vinto (Cochabamba),2014-10-14,
34119,Zonotrichia capensis,species,Rufous-collared Sparrow,1,-66.13777802,-17.40784295,South America,Bolivia,Bolivia - Cochabamba - Laguna Alalay,2014-10-04,
34143,Colaptes melanochloros,species,Green-barred Woodpecker,1,-66.13777802,-17.40784295,South America,Bolivia,Bolivia - Cochabamba - Laguna Alalay,2014-10-04,
34249,Zonotrichia capensis,species,Rufous-collared Sparrow,1,-66.21409322,-17.33635826,South America,Bolivia,Bolivia - Tiquipaya (Cochabamba),2014-09-22,
34257,Zonotrichia capensis,species,Rufous-collared Sparrow,1,-66.18157733,-17.38008095,South America,Bolivia,Bolivia - Cochabamba (Cochabamba),2014-09-22,
10553,Ara ararauna,species,Blue-and-yellow Macaw,1,-66.7704821,-14.0906273,South America,Bolivia,Bolivia - Beni - José Ballivián,2015-06-23,14:02
10669,Butorides striata,species,Striated Heron,1,-66.7704821,-14.0906273,South America,Bolivia,Bolivia - Beni - José Ballivián,2015-06-23,14:02
10684,Ardea cocoi,species,Cocoi Heron,1,-66.7704821,-14.0906273,South America,Bolivia,Bolivia - Beni - José Ballivián,2015-06-23,14:02
10691,Tigrisoma lineatum,species,Rufescent Tiger Heron,1,-66.7704821,-14.0906273,South America,Bolivia,Bolivia - Beni - José Ballivián,2015-06-23,14:02
10708,Anhinga anhinga,species,Anhinga,1,-66.7704821,-14.0906273,South America,Bolivia,Bolivia - Beni - José Ballivián,2015-06-23,14:02
10718,Jabiru mycteria,species,Jabiru,1,-66.7704821,-14.0906273,South America,Bolivia,Bolivia - Beni - José Ballivián,2015-06-23,14:02
10812,Opisthocomus hoazin,species,Hoatzin,1,-66.7704821,-14.0906273,South America,Bolivia,Bolivia - Beni - José Ballivián,2015-06-23,14:02
6550,Vultur gryphus,species,Andean Condor,1,-67.61443377,-21.77864004,South America,Bolivia,"Bolivia - Colcha ""K"" (Potosí)",2007-06-09,
15990,Rhea pennata,species,Lesser Rhea,4,-66.87331238,-20.60093353,South America,Bolivia,"Bolivia - Colcha ""K"" (Potosí)",2007-06-08,
100247,Caracara plancus,species,Southern Crested Caracara,1,-63.26625645,-19.1891121,South America,Bolivia,Bolivia - Gutiérrez (Santa Cruz),2006-02-24,
42341,Vicugna vicugna,species,Vicugna,10,-67.6536331176758,-22.5495891571045,South America,Bolivia,Bolivia - Eduardo Avaroa National Reserve of Andean Fauna,2018-09-11,13:34
42342,Vicugna vicugna,species,Vicugna,5,-67.6462478637695,-22.5137100219727,South America,Bolivia,Bolivia - Eduardo Avaroa National Reserve of Andean Fauna,2018-09-11,15:21
75951,Vicugna vicugna,species,Vicugna,10,-67.6536331176758,-22.5495891571045,South America,Bolivia,Bolivia - Eduardo Avaroa National Reserve of Andean Fauna,2018-09-11,13:34
75952,Vicugna vicugna,species,Vicugna,5,-67.6462478637695,-22.5137100219727,South America,Bolivia,Bolivia - Eduardo Avaroa National Reserve of Andean Fauna,2018-09-11,15:21
64416,Cypsnagra hirundinacea,species,White-rumped Tanager,2,-65.74894998,-11.05749962,South America,Bolivia,Bolivia - Beni - Vaca Diez  ,2018-07-23,07:50
80175,Buteogallus urubitinga,species,Great Black Hawk,1,-65.97548504,-10.86299273,South America,Bolivia,Bolivia - Beni - Vaca Diez  ,2018-07-22,17:06
80176,Granatellus pelzelni,species,Rose-breasted Chat,1,-65.97167866,-10.86132322,South America,Bolivia,Bolivia - Beni - Vaca Diez  ,2018-07-22,18:05
84490,Paroaria gularis,species,Red-capped Cardinal,2,-66.07387762,-10.99790171,South America,Bolivia,Bolivia - Beni - Vaca Diez  ,2018-07-22,14:23
88158,Tolmomyias assimilis,species,Zimmer's Flatbill,1,-66.10001213,-11.02270188,South America,Bolivia,Bolivia - Beni - Vaca Diez  ,2018-07-22,07:50
88159,Opisthocomus hoazin,species,Hoatzin,1,-66.0997624,-11.02831168,South America,Bolivia,Bolivia - Beni - Vaca Diez  ,2018-07-22,09:32
88160,Rostrhamus sociabilis,species,Snail Kite,2,-66.09976122,-11.02897761,South America,Bolivia,Bolivia - Beni - Vaca Diez  ,2018-07-22,09:44
88161,Pteroglossus inscriptus,species,Lettered Aracari,1,-66.10065102,-11.02230785,South America,Bolivia,Bolivia - Beni - Vaca Diez  ,2018-07-22,10:41
88162,Pyrocephalus rubinus,species,Scarlet Flycatcher,1,-66.07389885,-10.99757447,South America,Bolivia,Bolivia - Beni - Vaca Diez  ,2018-07-22,11:49
99488,Tolmomyias assimilis,species,Zimmer's Flatbill,2,-66.09955039,-11.02557062,South America,Bolivia,Bolivia - Beni - Vaca Diez  ,2018-07-21,17:20
89373,Pachylia darceta,species,,1,-67.91786671,-14.1689923,South America,Bolivia,Bolivia - San Buenaventura (La Paz),2017-11-07,
99665,Pachylia darceta,species,,1,-67.952,-14.357,South America,Bolivia,Bolivia - Apolo (La Paz),2017-11-11,
48560,Pachylioides resumens,species,,1,-67.95176983,-14.3565748,South America,Bolivia,Bolivia - Apolo (La Paz),2017-11-11,
50553,Pachylia darceta,species,,1,-67.95176983,-14.3565748,South America,Bolivia,Bolivia - Apolo (La Paz),2017-11-11,
58080,Calidris bairdii,species,Baird's Sandpiper,2,-68.01498413,-21.5057347,South America,Bolivia,"Bolivia - Colcha ""K"" (Potosí)",2014-10-19,
58148,Phalaropus tricolor,species,Wilson's Phalarope,1,-68.01498413,-21.5057347,South America,Bolivia,"Bolivia - Colcha ""K"" (Potosí)",2014-10-19,
74695,Saccopteryx leptura,species,Lesser Sac-winged Bat,2,-67.94239616,-14.35884676,South America,Bolivia,Bolivia - Apolo (La Paz),2017-11-12,12:51
8094,Aulacorhynchus atrogularis atrogularis,subspecies,Black-throated Toucanet ssp atrogularis,1,-68.39538574,-14.71119005,South America,Bolivia,Bolivia - Apolo (La Paz),2017-11-18,
93334,Colaptes campestris,species,Campo Flicker,2,-63.1364,-17.6592,South America,Bolivia,Bolivia - Warnes (Santa Cruz),2017-11-26,10:43
93335,Volatinia jacarina,species,Blue-black Grassquit,1,-63.1414,-17.652,South America,Bolivia,Bolivia - Warnes (Santa Cruz),2017-11-26,10:04
93336,Sporophila hypochroma,species,Rufous-rumped Seedeater,1,-63.1414,-17.6518,South America,Bolivia,Bolivia - Warnes (Santa Cruz),2017-11-26,10:01
93337,Phalcoboenus megalopterus,species,Mountain Caracara,1,-69.0361,-15.2761,South America,Bolivia,Bolivia - Juan José Pérez (La Paz),2017-11-25,08:33
93338,Thraupis sayaca,species,Sayaca Tanager,1,-68.4392,-14.992,South America,Bolivia,Bolivia - Apolo (La Paz),2017-11-24,09:51
93339,Tangara punctata,species,Spotted Tanager,1,-68.4384,-14.9883,South America,Bolivia,Bolivia - Apolo (La Paz),2017-11-24,09:15
93340,Schistochlamys melanopis,species,Black-faced Tanager,1,-68.437,-14.986,South America,Bolivia,Bolivia - Apolo (La Paz),2017-11-24,08:19
93341,Tersina viridis,species,Swallow Tanager,2,-68.437,-14.986,South America,Bolivia,Bolivia - Apolo (La Paz),2017-11-24,08:19
93342,Tangara chrysotis,species,Golden-eared Tanager,2,-68.4342,-14.9837,South America,Bolivia,Bolivia - Apolo (La Paz),2017-11-24,07:36
93343,Tangara punctata,species,Spotted Tanager,2,-68.4342,-14.9838,South America,Bolivia,Bolivia - Apolo (La Paz),2017-11-24,07:35
93344,Schistochlamys melanopis,species,Black-faced Tanager,1,-68.4332,-14.9795,South America,Bolivia,Bolivia - Apolo (La Paz),2017-11-24,06:34
93345,Lophornis delattrei,species,Rufous-crested Coquette,2,-68.4332,-14.9796,South America,Bolivia,Bolivia - Apolo (La Paz),2017-11-24,06:34
93347,Phibalura boliviana,species,Palkachupa Cotinga,1,-68.36,-14.89,South America,Bolivia,Bolivia - Apolo (La Paz),2017-11-18,08:42
93348,Streptoprocne zonaris,species,White-collared Swift,100,-68.4906,-15.0869,South America,Bolivia,Bolivia - Juan José Pérez (La Paz),2017-11-17,13:34
93349,Thamnophilus palliatus,species,Chestnut-backed Antshrike,1,-68.4922,-15.0865,South America,Bolivia,Bolivia - Juan José Pérez (La Paz),2017-11-17,13:04
93350,Anas georgica,species,Yellow-billed Pintail,2,-68.6301,-16.2032,South America,Bolivia,Bolivia - Achacachi (La Paz),2017-11-15,15:54
93351,Rollandia rolland,species,White-tufted Grebe,1,-68.683,-16.2146,South America,Bolivia,Bolivia - Achacachi (La Paz),2017-11-15,13:51
93352,Anas georgica,species,Yellow-billed Pintail,3,-68.683,-16.2146,South America,Bolivia,Bolivia - Achacachi (La Paz),2017-11-15,13:49
93353,Spatula puna,species,Puna Teal,20,-68.6829,-16.2145,South America,Bolivia,Bolivia - Achacachi (La Paz),2017-11-15,13:41
93354,Rollandia microptera,species,Titicaca Grebe,2,-68.6834,-16.2146,South America,Bolivia,Bolivia - Achacachi (La Paz),2017-11-15,13:41
93355,Rynchops niger,species,Black Skimmer,2,-67.5745,-14.5947,South America,Bolivia,Bolivia - Apolo (La Paz),2017-11-15,08:23
93357,Myrmoborus myotherinus,species,Black-faced Antbird,1,-67.942,-14.3608,South America,Bolivia,Bolivia - Apolo (La Paz),2017-11-11,06:35
93358,Neochen jubata,species,Orinoco Goose,2,-67.7096,-14.5572,South America,Bolivia,Bolivia - San Buenaventura (La Paz),2017-11-10,11:40
93359,Platalea ajaja,species,Roseate Spoonbill,1,-67.6767,-14.5635,South America,Bolivia,Bolivia - San Buenaventura (La Paz),2017-11-10,11:24
93360,Neochen jubata,species,Orinoco Goose,2,-67.6452,-14.581,South America,Bolivia,Bolivia - Apolo (La Paz),2017-11-10,11:06
93361,Neochen jubata,species,Orinoco Goose,3,-67.5669,-14.5936,South America,Bolivia,Bolivia - San Buenaventura (La Paz),2017-11-10,10:26
93362,Neochen jubata,species,Orinoco Goose,3,-67.5147,-14.5676,South America,Bolivia,Bolivia - San Buenaventura (La Paz),2017-11-10,09:53
93363,Tigrisoma fasciatum,species,Fasciated Tiger Heron,1,-67.4979,-14.5454,South America,Bolivia,Bolivia - Madidi NP,2017-11-10,09:21
93364,Caracara plancus,species,Southern Crested Caracara,2,-67.499,-14.4936,South America,Bolivia,Bolivia - San Buenaventura (La Paz),2017-11-10,08:47
93365,Guira guira,species,Guira Cuckoo,4,-67.6808,-14.3424,South America,Bolivia,Bolivia - San Buenaventura (La Paz),2017-11-10,07:25
93366,Tangara chilensis,species,Paradise Tanager,4,-67.9098,-14.1616,South America,Bolivia,Bolivia - San Buenaventura (La Paz),2017-11-10,06:10
93367,Parkerthraustes humeralis,species,Yellow-shouldered Grosbeak,2,-67.9206,-14.1766,South America,Bolivia,Bolivia - San Buenaventura (La Paz),2017-11-09,17:38
93369,Formicarius analis,species,Black-faced Antthrush,2,-67.9132,-14.1789,South America,Bolivia,Bolivia - San Buenaventura (La Paz),2017-11-09,08:02
93370,Parkerthraustes humeralis,species,Yellow-shouldered Grosbeak,3,-67.9333,-14.1896,South America,Bolivia,Bolivia - San Buenaventura (La Paz),2017-11-08,14:46
93371,Ara chloropterus,species,Red-and-green Macaw,6,-67.9434,-14.214,South America,Bolivia,Bolivia - San Buenaventura (La Paz),2017-11-08,10:26
93372,Harpagus bidentatus,species,Double-toothed Kite,2,-67.952,-14.2057,South America,Bolivia,Bolivia - San Buenaventura (La Paz),2017-11-08,09:25
93373,Capito auratus,species,Gilded Barbet,1,-67.9201,-14.168,South America,Bolivia,Bolivia - San Buenaventura (La Paz),2017-11-07,16:54
93374,Colibri delphinae,species,Brown Violetear,2,-67.9195,-14.1679,South America,Bolivia,Bolivia - San Buenaventura (La Paz),2017-11-07,16:12
93375,Tangara chilensis,species,Paradise Tanager,2,-67.9129,-14.1723,South America,Bolivia,Bolivia - San Buenaventura (La Paz),2017-11-07,11:32
93376,Pteroglossus beauharnaesii,species,Curl-crested Aracari,1,-67.9149,-14.1749,South America,Bolivia,Bolivia - San Buenaventura (La Paz),2017-11-07,10:29
93377,Lophornis verreauxii verreauxii,subspecies,Butterfly Coquette ssp verreauxii,1,-67.912,-14.1774,South America,Bolivia,Bolivia - San Buenaventura (La Paz),2017-11-07,09:32
93378,Oxyruncus cristatus,species,Sharpbill,1,-67.912,-14.1774,South America,Bolivia,Bolivia - San Buenaventura (La Paz),2017-11-07,07:31
93379,Capito auratus,species,Gilded Barbet,1,-67.912,-14.1772,South America,Bolivia,Bolivia - San Buenaventura (La Paz),2017-11-07,07:22
93380,Formicarius analis,species,Black-faced Antthrush,1,-67.9123,-14.1729,South America,Bolivia,Bolivia - San Buenaventura (La Paz),2017-11-07,06:37
93382,Strix huhula,species,Black-banded Owl,1,-67.9153,-14.1701,South America,Bolivia,Bolivia - San Buenaventura (La Paz),2017-11-06,19:02
93383,Tangara chilensis,species,Paradise Tanager,1,-67.9156,-14.1704,South America,Bolivia,Bolivia - San Buenaventura (La Paz),2017-11-06,13:17
93384,Aulacorhynchus atrogularis,species,Black-throated Toucanet,2,-67.9151,-14.1705,South America,Bolivia,Bolivia - San Buenaventura (La Paz),2017-11-06,13:07
93385,Tangara chilensis,species,Paradise Tanager,2,-67.9186,-14.176,South America,Bolivia,Bolivia - San Buenaventura (La Paz),2017-11-06,08:56
93386,Capito auratus,species,Gilded Barbet,1,-67.9172,-14.1755,South America,Bolivia,Bolivia - San Buenaventura (La Paz),2017-11-06,08:28
93387,Nystalus obamai,species,Western Striolated Puffbird,1,-67.9162,-14.1749,South America,Bolivia,Bolivia - San Buenaventura (La Paz),2017-11-06,08:10
93388,Pteroglossus castanotis,species,Chestnut-eared Aracari,1,-67.865,-14.1593,South America,Bolivia,Bolivia - San Buenaventura (La Paz),2017-11-05,17:47
93389,Pilherodius pileatus,species,Capped Heron,2,-67.6969,-14.3321,South America,Bolivia,Bolivia - San Buenaventura (La Paz),2017-11-05,16:58
93390,Opisthocomus hoazin,species,Hoatzin,5,-67.5828,-14.4029,South America,Bolivia,Bolivia - San Buenaventura (La Paz),2017-11-05,16:30
93391,Heliornis fulica,species,Sungrebe,1,-67.5828,-14.4029,South America,Bolivia,Bolivia - San Buenaventura (La Paz),2017-11-05,16:29
93392,Vanellus resplendens,species,Andean Lapwing,1,-68.1763,-16.5081,South America,Bolivia,Bolivia - El Alto (La Paz),2017-11-05,10:36
93393,Zonotrichia capensis,species,Rufous-collared Sparrow,5,-68.1772,-16.5083,South America,Bolivia,Bolivia - El Alto (La Paz),2017-11-05,10:09
93395,Phrygilus punensis,species,Peruvian Sierra Finch,2,-68.1772,-16.5083,South America,Bolivia,Bolivia - El Alto (La Paz),2017-11-05,10:09
95998,Tigrisoma fasciatum,species,Fasciated Tiger Heron,1,-67.49801904,-14.54472787,South America,Bolivia,Bolivia - Madidi NP,2017-11-10,09:21
96003,Platalea ajaja,species,Roseate Spoonbill,1,-67.67666218,-14.56363672,South America,Bolivia,Bolivia - San Buenaventura (La Paz),2017-11-10,11:24
96010,Theristicus branickii,species,Andean Ibis,3,-69.06657855,-15.54076311,South America,Bolivia,Bolivia - Puerto Acosta (La Paz),2017-11-16,13:00
96085,Rollandia microptera,species,Titicaca Grebe,3,-68.68331585,-16.21476289,South America,Bolivia,Bolivia - Achacachi (La Paz),2017-11-15,13:19
96086,Rollandia microptera,species,Titicaca Grebe,1,-68.63106677,-16.20372093,South America,Bolivia,Bolivia - Achacachi (La Paz),2017-11-15,16:31
96088,Rollandia rolland,species,White-tufted Grebe,1,-68.68321387,-16.21532064,South America,Bolivia,Bolivia - Lago Titicaca,2017-11-15,13:22
96113,Spatula puna,species,Puna Teal,1,-68.68333461,-16.2148705,South America,Bolivia,Bolivia - Lago Titicaca,2017-11-15,13:19
96250,Cairina moschata,species,Muscovy Duck,1,-67.92990751,-14.35101614,South America,Bolivia,Bolivia - San Buenaventura (La Paz),2017-11-12,08:32
96251,Cairina moschata,species,Muscovy Duck,1,-67.94361515,-14.35750292,South America,Bolivia,Bolivia - Apolo (La Paz),2017-11-13,06:21
96252,Cairina moschata,species,Muscovy Duck,1,-67.72665864,-14.54607208,South America,Bolivia,Bolivia - San Buenaventura (La Paz),2017-11-15,07:16
96264,Anhima cornuta,species,Horned Screamer,1,-67.93770217,-14.3595949,South America,Bolivia,Bolivia - Apolo (La Paz),2017-11-14,14:15
78581,Nystalus obamai,species,Western Striolated Puffbird,1,-67.91657281,-14.17515599,South America,Bolivia,Bolivia - San Buenaventura (La Paz),2017-11-06,08:13
78582,Tangara chilensis,species,Paradise Tanager,1,-67.91558933,-14.17046298,South America,Bolivia,Bolivia - San Buenaventura (La Paz),2017-11-06,12:43
78583,Aulacorhynchus atrogularis,species,Black-throated Toucanet,2,-67.91553202,-14.17050684,South America,Bolivia,Bolivia - San Buenaventura (La Paz),2017-11-06,13:05
78585,Oxyruncus cristatus,species,Sharpbill,1,-67.91256842,-14.17834874,South America,Bolivia,Bolivia - San Buenaventura (La Paz),2017-11-07,07:47
78587,Guira guira,species,Guira Cuckoo,10,-67.68613073,-14.33747635,South America,Bolivia,Bolivia - San Buenaventura (La Paz),2017-11-10,07:25
78588,Neochen jubata,species,Orinoco Goose,5,-67.51695496,-14.56815057,South America,Bolivia,Bolivia - San Buenaventura (La Paz),2017-11-10,09:54
78589,Tangara schrankii,species,Green-and-gold Tanager,1,-67.94202949,-14.36074323,South America,Bolivia,Bolivia - Apolo (La Paz),2017-11-10,17:21
78590,Myrmoborus myotherinus,species,Black-faced Antbird,1,-67.94174476,-14.36164224,South America,Bolivia,Bolivia - Apolo (La Paz),2017-11-11,06:37
78591,Celeus flavus,species,Cream-colored Woodpecker,1,-67.9494564,-14.36864739,South America,Bolivia,Bolivia - Apolo (La Paz),2017-11-13,10:39
78593,Tangara schrankii,species,Green-and-gold Tanager,2,-67.93361729,-14.36090705,South America,Bolivia,Bolivia - Apolo (La Paz),2017-11-14,10:38
78594,Oneillornis salvini,species,White-throated Antbird,2,-67.93440018,-14.36215369,South America,Bolivia,Bolivia - Apolo (La Paz),2017-11-14,12:17
78595,Cairina moschata,species,Muscovy Duck,2,-67.9336543,-14.3609324,South America,Bolivia,Bolivia - Apolo (La Paz),2017-11-14,18:05
78596,Rynchops niger,species,Black Skimmer,2,-67.57434327,-14.59449639,South America,Bolivia,Bolivia - Apolo (La Paz),2017-11-15,08:24
78597,Theristicus branickii,species,Andean Ibis,3,-69.06541662,-15.53913319,South America,Bolivia,Bolivia - Puerto Acosta (La Paz),2017-11-16,13:01
78598,Phibalura boliviana,species,Palkachupa Cotinga,1,-68.35999454,-14.88265739,South America,Bolivia,Bolivia - Apolo (La Paz),2017-11-18,08:43
78599,Phibalura boliviana,species,Palkachupa Cotinga,3,-68.3603363,-14.88577641,South America,Bolivia,Bolivia - Apolo (La Paz),2017-11-18,09:02
78600,Phibalura boliviana,species,Palkachupa Cotinga,1,-68.36246469,-14.88470828,South America,Bolivia,Bolivia - Apolo (La Paz),2017-11-18,09:16
78601,Tangara punctata,species,Spotted Tanager,1,-68.43432986,-14.98381979,South America,Bolivia,Bolivia - Apolo (La Paz),2017-11-24,07:36
78603,Tersina viridis,species,Swallow Tanager,2,-68.43475587,-14.98419345,South America,Bolivia,Bolivia - Apolo (La Paz),2017-11-24,07:43
78604,Schistochlamys melanopis,species,Black-faced Tanager,1,-68.43701944,-14.98605775,South America,Bolivia,Bolivia - Apolo (La Paz),2017-11-24,08:18
105072,Rhea americana,species,Greater Rhea,1,-63.12542439,-17.66352925,South America,Bolivia,Bolivia - Santa Cruz de la Sierra (Santa Cruz),2017-11-26,10:50
105087,Athene cunicularia,species,Burrowing Owl,2,-63.13519342,-17.65873906,South America,Bolivia,Bolivia - Warnes (Santa Cruz),2017-11-26,10:50
105187,Sporophila hypochroma,species,Rufous-rumped Seedeater,1,-63.14145235,-17.65189537,South America,Bolivia,Bolivia - Warnes (Santa Cruz),2017-11-26,10:01
105238,Volatinia jacarina,species,Blue-black Grassquit,1,-63.14180145,-17.65124596,South America,Bolivia,Bolivia - Warnes (Santa Cruz),2017-11-26,09:58
108405,Biblis hyperia,species,Red Rim,1,-68.43383789,-14.66868121,South America,Bolivia,Bolivia - Apolo (La Paz),2017-11-19,
108407,Marpesia berania,species,,1,-68.43383789,-14.66868121,South America,Bolivia,Bolivia - Apolo (La Paz),2017-11-24,
108408,Marpesia chiron,species,Many-banded Daggerwing,3,-68.43383789,-14.66868121,South America,Bolivia,Bolivia - Apolo (La Paz),2017-11-24,
108411,Agraulis vanillae,species,Gulf Fritillary,1,-68.43383789,-14.66868121,South America,Bolivia,Bolivia - Apolo (La Paz),2017-11-19,
9409,Schistochlamys melanopis,species,Black-faced Tanager,1,-68.43450382,-14.9839608,South America,Bolivia,Bolivia - Apolo (La Paz),2017-11-24,07:31
68631,Plecturocebus brunneus,species,Brown Titi Monkey,2,-68.71036978,-12.68031804,South America,Bolivia,Bolivia - Ixiamas (La Paz),2005-04-28,15:00
75094,Pyrocephalus rubinus,species,Scarlet Flycatcher,1,-68.86097088,-12.92688241,South America,Bolivia,Bolivia - Ixiamas (La Paz),2005-04-27,12:30
75393,Plecturocebus brunneus,species,Brown Titi Monkey,1,-68.76968736,-12.74225933,South America,Bolivia,Bolivia - Ixiamas (La Paz),2005-04-24,07:00
76172,Pyrocephalus rubinus,species,Scarlet Flycatcher,1,-68.71908159,-12.68704749,South America,Bolivia,Bolivia - Ixiamas (La Paz),2005-04-23,
109791,Siproeta stelenes,species,Malachite,1,-68.41186523,-14.70056361,South America,Bolivia,Bolivia - Apolo (La Paz),2017-11-19,
116176,Hemithraupis guira,species,Guira Tanager,1,-68.41186523,-14.7165308,South America,Bolivia,Bolivia - Apolo (La Paz),2017-11-23,
120720,Falco rufigularis,species,Bat Falcon,1,-68.4173584,-14.70590462,South America,Bolivia,Bolivia - Apolo (La Paz),2017-11-21,
120906,Hemithraupis guira,species,Guira Tanager,3,-68.4173584,-14.70590462,South America,Bolivia,Bolivia - Apolo (La Paz),2017-11-21,
121258,Agraulis vanillae,species,Gulf Fritillary,1,-68.4173584,-14.70590462,South America,Bolivia,Bolivia - Apolo (La Paz),2017-11-20,
121366,Coccyzus melacoryphus,species,Dark-billed Cuckoo,1,-68.4173584,-14.70590462,South America,Bolivia,Bolivia - Apolo (La Paz),2017-11-20,
4036,Saccopteryx bilineata,species,Greater Sac-winged Bat,1,-67.94215916,-14.35929067,South America,Bolivia,Bolivia - Apolo (La Paz),2017-11-13,
4037,Saccopteryx leptura,species,Lesser Sac-winged Bat,3,-67.95367956,-14.3539968,South America,Bolivia,Bolivia - Apolo (La Paz),2017-11-12,11:59
5872,Ictinia plumbea,species,Plumbeous Kite,1,-68.40911865,-14.72445858,South America,Bolivia,Bolivia - Apolo (La Paz),2017-11-19,
5877,Formicivora melanogaster,species,Black-bellied Antwren,1,-68.40911865,-14.72445858,South America,Bolivia,Bolivia - Apolo (La Paz),2017-11-19,
24908,Streptoprocne rutila,species,Chestnut-collared Swift,10,-68.48993607,-15.08714652,South America,Bolivia,Bolivia - Juan José Pérez (La Paz),2017-11-17,13:32
31223,Plegadis ridgwayi,species,Puna Ibis,2,-69.06283549,-15.50437583,South America,Bolivia,Bolivia - Puerto Acosta (La Paz),2017-11-16,13:28
32230,Chroicocephalus serranus,species,Andean Gull,1,-68.68321302,-16.2155103,South America,Bolivia,Bolivia - Lago Titicaca,2017-11-15,13:26
32582,Anhima cornuta,species,Horned Screamer,2,-67.93868065,-14.35936032,South America,Bolivia,Bolivia - Apolo (La Paz),2017-11-14,11:55
33652,Saccopteryx bilineata,species,Greater Sac-winged Bat,1,-67.94215916,-14.35929067,South America,Bolivia,Bolivia - Apolo (La Paz),2017-11-13,14:10
36711,Pseudosphinx tetrio,species,,1,-67.94215916,-14.35929067,South America,Bolivia,Bolivia - Apolo (La Paz),2017-11-12,20:00
38086,Alouatta sara,species,Bolivian Red Howler Monkey,1,-67.93977018,-14.36481951,South America,Bolivia,Bolivia - Apolo (La Paz),2017-11-12,16:02
38109,Ameiva ameiva,species,Giant Ameiva,1,-67.9418919,-14.36010737,South America,Bolivia,Bolivia - Apolo (La Paz),2017-11-12,15:09
38115,Saccopteryx leptura,species,Lesser Sac-winged Bat,3,-67.95367956,-14.3539968,South America,Bolivia,Bolivia - Apolo (La Paz),2017-11-12,11:59
38767,Allobates trilineatus,species,Three-striped Rocket Frog ,1,-67.94204323,-14.36438269,South America,Bolivia,Bolivia - Apolo (La Paz),2017-11-11,07:11
43389,Tachyphonus luctuosus,species,White-shouldered Tanager,1,-67.940721,-14.35895675,South America,Bolivia,Bolivia - Apolo (La Paz),2017-11-11,14:42
50382,Tangara schrankii,species,Green-and-gold Tanager,1,-67.940721,-14.35895675,South America,Bolivia,Bolivia - Apolo (La Paz),2017-11-11,14:42
75413,Erythemis vesiculosa,species,Great Pondhawk,1,-68.40087891,-14.74303861,South America,Bolivia,Bolivia - Apolo (La Paz),2017-11-20,13:40
75446,Erythemis vesiculosa,species,Great Pondhawk,1,-68.40087891,-14.74303861,South America,Bolivia,Bolivia - Apolo (La Paz),2017-11-20,11:03
76676,Erythemis haematogastra,species,Red Pondhawk,1,-67.95850645,-14.19950973,South America,Bolivia,Bolivia - San Buenaventura (La Paz),2017-11-08,08:42
76763,Harpagus bidentatus,species,Double-toothed Kite,2,-67.95205114,-14.20579023,South America,Bolivia,Bolivia - San Buenaventura (La Paz),2017-11-08,09:27
77700,Ameiva ameiva,species,Giant Ameiva,1,-67.9418919,-14.36010737,South America,Bolivia,Bolivia - Apolo (La Paz),2017-11-12,15:09
85395,Ameerega picta,species,Spot-legged Poison Frog,1,-67.94214491,-14.35988865,South America,Bolivia,Bolivia - Apolo (La Paz),2017-11-10,18:06
86391,Sporophila hypochroma,species,Rufous-rumped Seedeater,1,-63.13614249,-17.66061513,South America,Bolivia,Bolivia - Santa Cruz de la Sierra (Santa Cruz),2017-11-26,10:06
95806,Sapajus apella,species,Black-capped Capuchin,3,-68.41598511,-14.70317189,South America,Bolivia,Bolivia - Apolo (La Paz),2017-11-21,
102436,Ameerega picta,species,Spot-legged Poison Frog,1,-67.91624281,-14.17504606,South America,Bolivia,Bolivia - San Buenaventura (La Paz),2017-11-06,08:08
109560,Vanellus resplendens,species,Andean Lapwing,1,-68.17753473,-16.5084072,South America,Bolivia,Bolivia - El Alto (La Paz),2017-11-05,10:22
119161,Formicivora melanogaster,species,Black-bellied Antwren,1,-68.41383129,-14.75242809,South America,Bolivia,Bolivia - Apolo (La Paz),2017-11-19,
119242,Vanellus resplendens,species,Andean Lapwing,1,-68.17748908,-16.50825117,South America,Bolivia,Bolivia - El Alto (La Paz),2017-11-05,10:22
119243,Zonotrichia capensis,species,Rufous-collared Sparrow,1,-68.17714005,-16.50833886,South America,Bolivia,Bolivia - El Alto (La Paz),2017-11-05,15:08
119244,Phrygilus punensis,species,Peruvian Sierra Finch,1,-68.17722508,-16.50833883,South America,Bolivia,Bolivia - El Alto (La Paz),2017-11-05,15:09
119246,Theristicus branickii,species,Andean Ibis,3,-69.06657855,-15.54076311,South America,Bolivia,Bolivia - Puerto Acosta (La Paz),2017-11-16,13:00
119247,Vanellus resplendens,species,Andean Lapwing,1,-69.06302826,-15.50485057,South America,Bolivia,Bolivia - Puerto Acosta (La Paz),2017-11-16,13:27
119248,Phalcoboenus megalopterus,species,Mountain Caracara,1,-69.08359681,-15.43324457,South America,Bolivia,Bolivia - Puerto Acosta (La Paz),2017-11-16,14:32
119249,Phalcoboenus megalopterus,species,Mountain Caracara,1,-69.08221559,-15.42710771,South America,Bolivia,Bolivia - Puerto Acosta (La Paz),2017-11-16,14:35
119250,Phalcoboenus megalopterus,species,Mountain Caracara,1,-69.05145358,-15.36726765,South America,Bolivia,Bolivia - Mocomoco (La Paz),2017-11-16,14:50
119252,Cathartes aura,species,Turkey Vulture,1,-68.47895447,-15.14958896,South America,Bolivia,Bolivia - Ayata (La Paz),2017-11-17,10:55
119253,Streptoprocne zonaris,species,White-collared Swift,1,-68.4826524,-15.12840981,South America,Bolivia,Bolivia - Juan José Pérez (La Paz),2017-11-17,11:53
119254,Thamnophilus palliatus,species,Chestnut-backed Antshrike,1,-68.49221789,-15.08733355,South America,Bolivia,Bolivia - Juan José Pérez (La Paz),2017-11-17,12:55
119255,Thamnophilus palliatus,species,Chestnut-backed Antshrike,1,-68.48998841,-15.08711955,South America,Bolivia,Bolivia - Juan José Pérez (La Paz),2017-11-17,13:32
119257,Cathartes aura,species,Turkey Vulture,1,-68.4820662,-15.11691839,South America,Bolivia,Bolivia - Juan José Pérez (La Paz),2017-11-24,15:05
119258,Streptoprocne zonaris,species,White-collared Swift,1,-68.4835273,-15.13085357,South America,Bolivia,Bolivia - Juan José Pérez (La Paz),2017-11-24,15:09
119310,Opisthocomus hoazin,species,Hoatzin,1,-67.582855,-14.40280833,South America,Bolivia,Bolivia - San Buenaventura (La Paz),2017-11-05,16:19
119311,Heliornis fulica,species,Sungrebe,1,-67.58282688,-14.40299462,South America,Bolivia,Bolivia - San Buenaventura (La Paz),2017-11-05,16:28
119312,Pilherodius pileatus,species,Capped Heron,2,-67.69717275,-14.33203536,South America,Bolivia,Bolivia - San Buenaventura (La Paz),2017-11-05,16:58
119313,Pteroglossus castanotis,species,Chestnut-eared Aracari,1,-67.86751539,-14.15848778,South America,Bolivia,Bolivia - San Buenaventura (La Paz),2017-11-05,17:47
119314,Tangara chilensis,species,Paradise Tanager,1,-67.91557843,-14.17040828,South America,Bolivia,Bolivia - San Buenaventura (La Paz),2017-11-06,05:55
119316,Nystalus obamai,species,Western Striolated Puffbird,1,-67.91640632,-14.17504861,South America,Bolivia,Bolivia - San Buenaventura (La Paz),2017-11-06,08:08
119317,Capito auratus,species,Gilded Barbet,1,-67.91730673,-14.17531675,South America,Bolivia,Bolivia - San Buenaventura (La Paz),2017-11-06,08:28
119318,Tangara chilensis,species,Paradise Tanager,3,-67.91857741,-14.1761685,South America,Bolivia,Bolivia - San Buenaventura (La Paz),2017-11-06,08:55
119319,Formicarius analis,species,Black-faced Antthrush,1,-67.91550537,-14.17076496,South America,Bolivia,Bolivia - San Buenaventura (La Paz),2017-11-06,11:25
119320,Pteroglossus castanotis,species,Chestnut-eared Aracari,1,-67.91551556,-14.17042646,South America,Bolivia,Bolivia - San Buenaventura (La Paz),2017-11-06,14:02
119321,Strix huhula,species,Black-banded Owl,3,-67.91554382,-14.17047245,South America,Bolivia,Bolivia - San Buenaventura (La Paz),2017-11-06,19:24
119322,Oxyruncus cristatus,species,Sharpbill,1,-67.91290848,-14.17245304,South America,Bolivia,Bolivia - San Buenaventura (La Paz),2017-11-07,06:25
119323,Formicarius analis,species,Black-faced Antthrush,1,-67.91244559,-14.17295932,South America,Bolivia,Bolivia - San Buenaventura (La Paz),2017-11-07,06:37
119326,Oxyruncus cristatus,species,Sharpbill,1,-67.91210677,-14.17752375,South America,Bolivia,Bolivia - San Buenaventura (La Paz),2017-11-07,07:30
119327,Lophornis verreauxii verreauxii,subspecies,Butterfly Coquette ssp verreauxii,2,-67.91211612,-14.1776341,South America,Bolivia,Bolivia - San Buenaventura (La Paz),2017-11-07,09:05
119328,Pteroglossus beauharnaesii,species,Curl-crested Aracari,2,-67.91474983,-14.17512871,South America,Bolivia,Bolivia - San Buenaventura (La Paz),2017-11-07,10:27
119329,Oxyruncus cristatus,species,Sharpbill,1,-67.912818,-14.17307247,South America,Bolivia,Bolivia - San Buenaventura (La Paz),2017-11-07,11:05
119330,Colibri delphinae,species,Brown Violetear,2,-67.91978547,-14.16820388,South America,Bolivia,Bolivia - San Buenaventura (La Paz),2017-11-07,16:11
119331,Capito auratus,species,Gilded Barbet,1,-67.92004804,-14.16828946,South America,Bolivia,Bolivia - San Buenaventura (La Paz),2017-11-07,16:53
119332,Pteroglossus beauharnaesii,species,Curl-crested Aracari,1,-67.95849234,-14.19964673,South America,Bolivia,Bolivia - San Buenaventura (La Paz),2017-11-08,08:43
119334,Oxyruncus cristatus,species,Sharpbill,1,-67.91595656,-14.17038067,South America,Bolivia,Bolivia - San Buenaventura (La Paz),2017-11-08,17:14
119335,Capito auratus,species,Gilded Barbet,1,-67.91512162,-14.17225493,South America,Bolivia,Bolivia - San Buenaventura (La Paz),2017-11-09,06:21
119336,Sapajus apella,species,Black-capped Capuchin,1,-67.91380818,-14.17218591,South America,Bolivia,Bolivia - San Buenaventura (La Paz),2017-11-09,06:33
119337,Formicarius analis,species,Black-faced Antthrush,1,-67.91335759,-14.17935726,South America,Bolivia,Bolivia - San Buenaventura (La Paz),2017-11-09,07:56
119338,Capito auratus,species,Gilded Barbet,1,-67.91335817,-14.17935419,South America,Bolivia,Bolivia - San Buenaventura (La Paz),2017-11-09,08:00
119339,Sapajus apella,species,Black-capped Capuchin,2,-67.91268182,-14.17843068,South America,Bolivia,Bolivia - San Buenaventura (La Paz),2017-11-09,09:00
119340,Colibri delphinae,species,Brown Violetear,1,-67.91263885,-14.17838181,South America,Bolivia,Bolivia - San Buenaventura (La Paz),2017-11-09,09:10
119341,Oxyruncus cristatus,species,Sharpbill,1,-67.91284683,-14.17307103,South America,Bolivia,Bolivia - San Buenaventura (La Paz),2017-11-09,10:19
119342,Parkerthraustes humeralis,species,Yellow-shouldered Grosbeak,2,-67.92047199,-14.17699495,South America,Bolivia,Bolivia - San Buenaventura (La Paz),2017-11-09,17:37
119343,Strix huhula,species,Black-banded Owl,1,-67.91543632,-14.1703731,South America,Bolivia,Bolivia - San Buenaventura (La Paz),2017-11-09,21:02
119345,Tangara chilensis,species,Paradise Tanager,2,-67.9100028,-14.1615703,South America,Bolivia,Bolivia - San Buenaventura (La Paz),2017-11-10,06:09
119346,Guira guira,species,Guira Cuckoo,2,-67.70103563,-14.33028927,South America,Bolivia,Bolivia - San Buenaventura (La Paz),2017-11-10,07:21
119347,Pilherodius pileatus,species,Capped Heron,1,-67.68831643,-14.3363095,South America,Bolivia,Bolivia - San Buenaventura (La Paz),2017-11-10,07:23
119349,Caracara plancus,species,Southern Crested Caracara,1,-67.50121597,-14.49438582,South America,Bolivia,Bolivia - San Buenaventura (La Paz),2017-11-10,08:46
119350,Tigrisoma fasciatum,species,Fasciated Tiger Heron,1,-67.49801904,-14.54472787,South America,Bolivia,Bolivia - Madidi NP,2017-11-10,09:21
119351,Caracara plancus,species,Southern Crested Caracara,1,-67.5039142,-14.56143732,South America,Bolivia,Bolivia - San Buenaventura (La Paz),2017-11-10,09:40
119352,Neochen jubata,species,Orinoco Goose,7,-67.51556066,-14.56775818,South America,Bolivia,Bolivia - San Buenaventura (La Paz),2017-11-10,09:53
119353,Ara chloropterus,species,Red-and-green Macaw,2,-67.56395899,-14.59536985,South America,Bolivia,Bolivia - Madidi NP,2017-11-10,10:24
119354,Neochen jubata,species,Orinoco Goose,3,-67.56525146,-14.59397788,South America,Bolivia,Bolivia - San Buenaventura (La Paz),2017-11-10,10:25
119355,Ara chloropterus,species,Red-and-green Macaw,1,-67.5885334,-14.58903937,South America,Bolivia,Bolivia - San Buenaventura (La Paz),2017-11-10,10:35
119356,Neochen jubata,species,Orinoco Goose,2,-67.64437408,-14.58103625,South America,Bolivia,Bolivia - Apolo (La Paz),2017-11-10,11:06
119357,Platalea ajaja,species,Roseate Spoonbill,1,-67.67666218,-14.56363672,South America,Bolivia,Bolivia - San Buenaventura (La Paz),2017-11-10,11:24
119359,Neochen jubata,species,Orinoco Goose,2,-67.70864424,-14.55673709,South America,Bolivia,Bolivia - San Buenaventura (La Paz),2017-11-10,11:39
119360,Neochen jubata,species,Orinoco Goose,2,-67.7259236,-14.54608068,South America,Bolivia,Bolivia - San Buenaventura (La Paz),2017-11-10,11:53
119361,Neochen jubata,species,Orinoco Goose,2,-67.76433537,-14.52671996,South America,Bolivia,Bolivia - San Buenaventura (La Paz),2017-11-10,12:17
119362,Neochen jubata,species,Orinoco Goose,7,-67.77896808,-14.52028272,South America,Bolivia,Bolivia - Apolo (La Paz),2017-11-10,12:26
119363,Neochen jubata,species,Orinoco Goose,1,-67.81591209,-14.497069,South America,Bolivia,Bolivia - Apolo (La Paz),2017-11-10,12:50
119364,Myrmoborus myotherinus,species,Black-faced Antbird,1,-67.94178591,-14.36155075,South America,Bolivia,Bolivia - Apolo (La Paz),2017-11-11,06:36
119366,Momotus momota,species,Amazonian Motmot,1,-67.9413557,-14.35839291,South America,Bolivia,Bolivia - Apolo (La Paz),2017-11-11,13:09
119367,Piaya cayana,species,Squirrel Cuckoo,1,-67.96815179,-14.333683,South America,Bolivia,Bolivia - San Buenaventura (La Paz),2017-11-11,17:42
119368,Anhima cornuta,species,Horned Screamer,2,-67.92993075,-14.35100748,South America,Bolivia,Bolivia - San Buenaventura (La Paz),2017-11-12,08:27
119369,Cairina moschata,species,Muscovy Duck,1,-67.92990751,-14.35101614,South America,Bolivia,Bolivia - San Buenaventura (La Paz),2017-11-12,08:32
119370,Artibeus obscurus,species,Dark Fruit-eating Bat,1,-67.94239616,-14.35884676,South America,Bolivia,Bolivia - Apolo (La Paz),2017-11-12,12:51
119372,Momotus momota,species,Amazonian Motmot,2,-67.94363181,-14.3577083,South America,Bolivia,Bolivia - Apolo (La Paz),2017-11-12,14:21
119373,Tangara schrankii,species,Green-and-gold Tanager,1,-67.94179053,-14.36234825,South America,Bolivia,Bolivia - Apolo (La Paz),2017-11-12,15:29
119374,Alouatta sara,species,Bolivian Red Howler Monkey,1,-67.93977018,-14.36481951,South America,Bolivia,Bolivia - Apolo (La Paz),2017-11-12,16:02
119375,Cairina moschata,species,Muscovy Duck,1,-67.94361515,-14.35750292,South America,Bolivia,Bolivia - Apolo (La Paz),2017-11-13,06:21
119376,Momotus momota,species,Amazonian Motmot,1,-67.95264777,-14.35540283,South America,Bolivia,Bolivia - Apolo (La Paz),2017-11-13,08:21
119377,Tangara schrankii,species,Green-and-gold Tanager,1,-67.95278089,-14.3597158,South America,Bolivia,Bolivia - Apolo (La Paz),2017-11-13,09:26
119378,Celeus flavus,species,Cream-colored Woodpecker,1,-67.94953106,-14.3687688,South America,Bolivia,Bolivia - Apolo (La Paz),2017-11-13,10:39
119379,Lanio versicolor,species,White-winged Shrike-Tanager,1,-67.94221109,-14.35918478,South America,Bolivia,Bolivia - Apolo (La Paz),2017-11-13,12:17
119380,Tangara schrankii,species,Green-and-gold Tanager,1,-67.94221037,-14.35917202,South America,Bolivia,Bolivia - Apolo (La Paz),2017-11-13,12:17
119381,Lophornis verreauxii verreauxii,subspecies,Butterfly Coquette ssp verreauxii,2,-67.94678599,-14.3545161,South America,Bolivia,Bolivia - Madidi NP,2017-11-14,08:55
119382,Anhima cornuta,species,Horned Screamer,1,-67.94558758,-14.35616186,South America,Bolivia,Bolivia - Apolo (La Paz),2017-11-14,10:44
119383,Anhima cornuta,species,Horned Screamer,1,-67.93770217,-14.3595949,South America,Bolivia,Bolivia - Apolo (La Paz),2017-11-14,14:15
119385,Tangara schrankii,species,Green-and-gold Tanager,1,-67.93377005,-14.36021014,South America,Bolivia,Bolivia - Apolo (La Paz),2017-11-14,14:36
119386,Oneillornis salvini,species,White-throated Antbird,1,-67.93501448,-14.36295197,South America,Bolivia,Bolivia - Apolo (La Paz),2017-11-14,15:03
119387,Ara ararauna,species,Blue-and-yellow Macaw,20,-67.87955142,-14.45890168,South America,Bolivia,Bolivia - San Buenaventura (La Paz),2017-11-15,06:13
119388,Neochen jubata,species,Orinoco Goose,1,-67.80178668,-14.50358394,South America,Bolivia,Bolivia - Apolo (La Paz),2017-11-15,06:41
119389,Ibycter americanus,species,Red-throated Caracara,1,-67.79959708,-14.50328538,South America,Bolivia,Bolivia - San Buenaventura (La Paz),2017-11-15,06:42
119390,Neochen jubata,species,Orinoco Goose,5,-67.7970711,-14.50271028,South America,Bolivia,Bolivia - San Buenaventura (La Paz),2017-11-15,06:43
119391,Neochen jubata,species,Orinoco Goose,1,-67.74485017,-14.54504609,South America,Bolivia,Bolivia - San Buenaventura (La Paz),2017-11-15,07:09
119392,Neochen jubata,species,Orinoco Goose,2,-67.72676956,-14.54606076,South America,Bolivia,Bolivia - San Buenaventura (La Paz),2017-11-15,07:16
119393,Cairina moschata,species,Muscovy Duck,1,-67.72665864,-14.54607208,South America,Bolivia,Bolivia - San Buenaventura (La Paz),2017-11-15,07:16
119395,Rynchops niger,species,Black Skimmer,2,-67.57478556,-14.59483855,South America,Bolivia,Bolivia - Apolo (La Paz),2017-11-15,08:23
119396,Zonotrichia capensis,species,Rufous-collared Sparrow,1,-68.20644504,-16.49032126,South America,Bolivia,Bolivia - El Alto (La Paz),2017-11-15,12:12
119397,Rollandia microptera,species,Titicaca Grebe,3,-68.68331585,-16.21476289,South America,Bolivia,Bolivia - Achacachi (La Paz),2017-11-15,13:19
119398,Spatula puna,species,Puna Teal,1,-68.68333461,-16.2148705,South America,Bolivia,Bolivia - Lago Titicaca,2017-11-15,13:19
119399,Rollandia rolland,species,White-tufted Grebe,1,-68.68321387,-16.21532064,South America,Bolivia,Bolivia - Lago Titicaca,2017-11-15,13:22
119400,Oxyura ferruginea,species,Andean Duck,1,-68.68322431,-16.21535504,South America,Bolivia,Bolivia - Lago Titicaca,2017-11-15,13:22
119401,Anas georgica,species,Yellow-billed Pintail,5,-68.68320289,-16.21543426,South America,Bolivia,Bolivia - Lago Titicaca,2017-11-15,13:23
119402,Himantopus melanurus,species,White-backed Stilt,1,-68.63103189,-16.20362533,South America,Bolivia,Bolivia - Achacachi (La Paz),2017-11-15,15:18
119403,Rollandia microptera,species,Titicaca Grebe,1,-68.63106677,-16.20372093,South America,Bolivia,Bolivia - Achacachi (La Paz),2017-11-15,16:31
119404,Lophornis delattrei,species,Rufous-crested Coquette,2,-68.43329563,-14.97958089,South America,Bolivia,Bolivia - Apolo (La Paz),2017-11-24,06:33
119405,Tangara punctata,species,Spotted Tanager,1,-68.43434182,-14.9836849,South America,Bolivia,Bolivia - Apolo (La Paz),2017-11-24,07:33
119406,Tangara chrysotis,species,Golden-eared Tanager,1,-68.43443185,-14.9836829,South America,Bolivia,Bolivia - Apolo (La Paz),2017-11-24,07:33
119407,Chlorophanes spiza,species,Green Honeycreeper,1,-68.43824153,-14.98691023,South America,Bolivia,Bolivia - Apolo (La Paz),2017-11-24,09:04
119409,Lophornis delattrei,species,Rufous-crested Coquette,2,-68.44236227,-15.00156501,South America,Bolivia,Bolivia - Apolo (La Paz),2017-11-24,11:13
119410,Phalcoboenus megalopterus,species,Mountain Caracara,1,-69.03673005,-15.27610173,South America,Bolivia,Bolivia - Juan José Pérez (La Paz),2017-11-25,08:32
119411,Phalcoboenus megalopterus,species,Mountain Caracara,1,-69.03951446,-15.2856286,South America,Bolivia,Bolivia - Juan José Pérez (La Paz),2017-11-25,08:37
119412,Phalcoboenus megalopterus,species,Mountain Caracara,1,-69.03953071,-15.35606156,South America,Bolivia,Bolivia - Mocomoco (La Paz),2017-11-25,09:05
119413,Plegadis ridgwayi,species,Puna Ibis,2,-69.07266071,-15.49915025,South America,Bolivia,Bolivia - Puerto Acosta (La Paz),2017-11-25,10:02
119414,Plegadis ridgwayi,species,Puna Ibis,1,-69.05578808,-15.51262994,South America,Bolivia,Bolivia - Puerto Acosta (La Paz),2017-11-25,10:13
119418,Zonotrichia capensis,species,Rufous-collared Sparrow,1,-68.13741162,-16.49972702,South America,Bolivia,Bolivia - La Paz (La Paz),2017-11-25,17:27
119421,Volatinia jacarina,species,Blue-black Grassquit,1,-63.14061574,-17.65328788,South America,Bolivia,Bolivia - Warnes (Santa Cruz),2017-11-26,10:12
119422,Tringa solitaria,species,Solitary Sandpiper,1,-63.13780645,-17.65723434,South America,Bolivia,Bolivia - Warnes (Santa Cruz),2017-11-26,10:35
119423,Colaptes campestris,species,Campo Flicker,1,-63.13650349,-17.65917835,South America,Bolivia,Bolivia - Warnes (Santa Cruz),2017-11-26,10:41
119763,Volatinia jacarina,species,Blue-black Grassquit,1,-63.14180145,-17.65124596,South America,Bolivia,Bolivia - Warnes (Santa Cruz),2017-11-26,09:58
119764,Sporophila hypochroma,species,Rufous-rumped Seedeater,1,-63.14145235,-17.65189537,South America,Bolivia,Bolivia - Warnes (Santa Cruz),2017-11-26,10:01
119765,Tringa solitaria,species,Solitary Sandpiper,1,-63.13773299,-17.65718281,South America,Bolivia,Bolivia - Warnes (Santa Cruz),2017-11-26,10:34
119766,Colaptes campestris,species,Campo Flicker,2,-63.13519342,-17.65873906,South America,Bolivia,Bolivia - Warnes (Santa Cruz),2017-11-26,10:50
6259,Zonotrichia capensis,species,Rufous-collared Sparrow,1,-68.17682643,-16.50841808,South America,Bolivia,Bolivia - El Alto (La Paz),2017-11-05,10:07
6260,Phrygilus punensis,species,Peruvian Sierra Finch,3,-68.17723653,-16.50832878,South America,Bolivia,Bolivia - El Alto (La Paz),2017-11-05,10:09
6261,Opisthocomus hoazin,species,Hoatzin,2,-67.58276358,-14.40292033,South America,Bolivia,Bolivia - San Buenaventura (La Paz),2017-11-05,16:20
6262,Heliornis fulica,species,Sungrebe,1,-67.58281346,-14.40297895,South America,Bolivia,Bolivia - San Buenaventura (La Paz),2017-11-05,16:29
6263,Pilherodius pileatus,species,Capped Heron,2,-67.69762568,-14.33179813,South America,Bolivia,Bolivia - San Buenaventura (La Paz),2017-11-05,16:58
6264,Aramides cajaneus,species,Grey-necked Wood Rail,1,-67.7995271,-14.19919035,South America,Bolivia,Bolivia - San Buenaventura (La Paz),2017-11-05,17:28
6265,Pteroglossus castanotis,species,Chestnut-eared Aracari,1,-67.8739421,-14.15556009,South America,Bolivia,Bolivia - San Buenaventura (La Paz),2017-11-05,17:48
6266,Nystalus obamai,species,Western Striolated Puffbird,1,-67.91624281,-14.17504606,South America,Bolivia,Bolivia - San Buenaventura (La Paz),2017-11-06,08:08
6268,Capito auratus,species,Gilded Barbet,1,-67.91740798,-14.17530959,South America,Bolivia,Bolivia - San Buenaventura (La Paz),2017-11-06,08:35
6269,Tangara chilensis,species,Paradise Tanager,1,-67.91864696,-14.17586086,South America,Bolivia,Bolivia - San Buenaventura (La Paz),2017-11-06,08:56
6270,Strix huhula,species,Black-banded Owl,2,-67.91550995,-14.17052903,South America,Bolivia,Bolivia - San Buenaventura (La Paz),2017-11-06,19:27
6271,Oxyruncus cristatus,species,Sharpbill,1,-67.91242874,-14.1723475,South America,Bolivia,Bolivia - San Buenaventura (La Paz),2017-11-07,06:25
6272,Formicarius analis,species,Black-faced Antthrush,1,-67.91219304,-14.17293606,South America,Bolivia,Bolivia - San Buenaventura (La Paz),2017-11-07,06:37
6273,Oxyruncus cristatus,species,Sharpbill,1,-67.91222,-14.17733049,South America,Bolivia,Bolivia - San Buenaventura (La Paz),2017-11-07,07:26
6274,Lophornis verreauxii verreauxii,subspecies,Butterfly Coquette ssp verreauxii,1,-67.91216857,-14.17763654,South America,Bolivia,Bolivia - San Buenaventura (La Paz),2017-11-07,08:59
6275,Oxyruncus cristatus,species,Sharpbill,1,-67.9120339,-14.17575325,South America,Bolivia,Bolivia - San Buenaventura (La Paz),2017-11-07,09:50
6276,Pteroglossus beauharnaesii,species,Curl-crested Aracari,1,-67.91475554,-14.17506044,South America,Bolivia,Bolivia - San Buenaventura (La Paz),2017-11-07,10:28
6277,Oxyruncus cristatus,species,Sharpbill,2,-67.91295644,-14.1724229,South America,Bolivia,Bolivia - San Buenaventura (La Paz),2017-11-07,11:33
6278,Colibri delphinae,species,Brown Violetear,1,-67.9198377,-14.16820147,South America,Bolivia,Bolivia - San Buenaventura (La Paz),2017-11-07,16:11
6280,Tangara chilensis,species,Paradise Tanager,2,-67.9336784,-14.18941374,South America,Bolivia,Bolivia - San Buenaventura (La Paz),2017-11-08,07:09
6281,Pteroglossus beauharnaesii,species,Curl-crested Aracari,1,-67.95850645,-14.19950973,South America,Bolivia,Bolivia - San Buenaventura (La Paz),2017-11-08,08:42
6282,Ara chloropterus,species,Red-and-green Macaw,6,-67.94348683,-14.21462638,South America,Bolivia,Bolivia - San Buenaventura (La Paz),2017-11-08,10:27
6283,Capito auratus,species,Gilded Barbet,1,-67.9151015,-14.17229338,South America,Bolivia,Bolivia - San Buenaventura (La Paz),2017-11-09,06:19
6284,Formicarius analis,species,Black-faced Antthrush,1,-67.91353885,-14.17926826,South America,Bolivia,Bolivia - San Buenaventura (La Paz),2017-11-09,08:00
6285,Capito auratus,species,Gilded Barbet,1,-67.91326067,-14.17928382,South America,Bolivia,Bolivia - San Buenaventura (La Paz),2017-11-09,08:00
6286,Tangara chilensis,species,Paradise Tanager,2,-67.91262946,-14.17844831,South America,Bolivia,Bolivia - San Buenaventura (La Paz),2017-11-09,08:49
6287,Oxyruncus cristatus,species,Sharpbill,1,-67.91291412,-14.17322241,South America,Bolivia,Bolivia - San Buenaventura (La Paz),2017-11-09,10:19
6288,Guira guira,species,Guira Cuckoo,10,-67.68577274,-14.33750628,South America,Bolivia,Bolivia - San Buenaventura (La Paz),2017-11-10,07:25
6290,Phaetusa simplex,species,Large-billed Tern,15,-67.5094655,-14.49174129,South America,Bolivia,Bolivia - Beni - José Ballivián,2017-11-10,08:42
6291,Caracara plancus,species,Southern Crested Caracara,1,-67.49851944,-14.49338638,South America,Bolivia,Bolivia - San Buenaventura (La Paz),2017-11-10,08:48
6292,Phalacrocorax brasilianus,species,Neotropic Cormorant,1,-67.49541896,-14.4925132,South America,Bolivia,Bolivia - San Buenaventura (La Paz),2017-11-10,08:49
6293,Tigrisoma fasciatum,species,Fasciated Tiger Heron,1,-67.49801289,-14.54585318,South America,Bolivia,Bolivia - Madidi NP,2017-11-10,09:21
6294,Neochen jubata,species,Orinoco Goose,6,-67.51638302,-14.56791324,South America,Bolivia,Bolivia - San Buenaventura (La Paz),2017-11-10,09:53
6295,Mycteria americana,species,Wood Stork,1,-67.5209648,-14.59178701,South America,Bolivia,Bolivia - Madidi NP,2017-11-10,10:05
6296,Neochen jubata,species,Orinoco Goose,3,-67.56623621,-14.59386341,South America,Bolivia,Bolivia - San Buenaventura (La Paz),2017-11-10,10:25
6297,Platalea ajaja,species,Roseate Spoonbill,1,-67.67814798,-14.56219503,South America,Bolivia,Bolivia - San Buenaventura (La Paz),2017-11-10,11:25
6298,Neochen jubata,species,Orinoco Goose,2,-67.76492107,-14.52666983,South America,Bolivia,Bolivia - San Buenaventura (La Paz),2017-11-10,12:17
6299,Neochen jubata,species,Orinoco Goose,9,-67.78014794,-14.51859312,South America,Bolivia,Bolivia - San Buenaventura (La Paz),2017-11-10,12:27
6300,Myrmoborus myotherinus,species,Black-faced Antbird,1,-67.94235607,-14.36091185,South America,Bolivia,Bolivia - Apolo (La Paz),2017-11-11,06:21
6301,Tangara schrankii,species,Green-and-gold Tanager,1,-67.94365789,-14.36891281,South America,Bolivia,Bolivia - Apolo (La Paz),2017-11-11,08:09
6302,Anhima cornuta,species,Horned Screamer,3,-67.92992577,-14.35109461,South America,Bolivia,Bolivia - San Buenaventura (La Paz),2017-11-12,08:27
6303,Cairina moschata,species,Muscovy Duck,1,-67.92992992,-14.35098154,South America,Bolivia,Bolivia - San Buenaventura (La Paz),2017-11-12,08:32
6304,Ara ararauna,species,Blue-and-yellow Macaw,3,-67.92992351,-14.35099897,South America,Bolivia,Bolivia - San Buenaventura (La Paz),2017-11-12,08:36
6306,Momotus momota,species,Amazonian Motmot,2,-67.95287743,-14.35518087,South America,Bolivia,Bolivia - Apolo (La Paz),2017-11-13,08:23
6307,Tangara schrankii,species,Green-and-gold Tanager,1,-67.95297259,-14.35905111,South America,Bolivia,Bolivia - Apolo (La Paz),2017-11-13,09:12
6308,Myrmoborus myotherinus,species,Black-faced Antbird,1,-67.9517602,-14.36220864,South America,Bolivia,Bolivia - Apolo (La Paz),2017-11-13,09:42
6309,Celeus flavus,species,Cream-colored Woodpecker,1,-67.94925918,-14.36949691,South America,Bolivia,Bolivia - Apolo (La Paz),2017-11-13,10:44
6310,Lanio versicolor,species,White-winged Shrike-Tanager,1,-67.94215916,-14.35929067,South America,Bolivia,Bolivia - Apolo (La Paz),2017-11-13,12:10
6311,Oneillornis salvini,species,White-throated Antbird,5,-67.93435218,-14.36221558,South America,Bolivia,Bolivia - Apolo (La Paz),2017-11-14,11:08
6312,Celeus flavus,species,Cream-colored Woodpecker,1,-67.93435174,-14.36221574,South America,Bolivia,Bolivia - Apolo (La Paz),2017-11-14,11:09
6313,Piaya cayana,species,Squirrel Cuckoo,1,-67.94569493,-14.35598826,South America,Bolivia,Bolivia - Apolo (La Paz),2017-11-14,15:24
6314,Myrmoborus myotherinus,species,Black-faced Antbird,1,-67.94847962,-14.35519225,South America,Bolivia,Bolivia - Apolo (La Paz),2017-11-14,15:44
6315,Neochen jubata,species,Orinoco Goose,5,-67.79798985,-14.50278398,South America,Bolivia,Bolivia - San Buenaventura (La Paz),2017-11-15,06:43
6316,Rynchops niger,species,Black Skimmer,2,-67.57447685,-14.59459375,South America,Bolivia,Bolivia - Apolo (La Paz),2017-11-15,08:23
6317,Rollandia microptera,species,Titicaca Grebe,3,-68.68326943,-16.21539356,South America,Bolivia,Bolivia - Lago Titicaca,2017-11-15,13:22
6318,Spatula puna,species,Puna Teal,10,-68.68320448,-16.21532399,South America,Bolivia,Bolivia - Lago Titicaca,2017-11-15,13:22
6319,Oxyura ferruginea,species,Andean Duck,2,-68.68323457,-16.21532183,South America,Bolivia,Bolivia - Lago Titicaca,2017-11-15,13:23
6320,Rollandia rolland,species,White-tufted Grebe,1,-68.68321302,-16.2155103,South America,Bolivia,Bolivia - Lago Titicaca,2017-11-15,13:26
6321,Anas georgica,species,Yellow-billed Pintail,3,-68.68323493,-16.21549935,South America,Bolivia,Bolivia - Lago Titicaca,2017-11-15,13:28
6322,Himantopus melanurus,species,White-backed Stilt,3,-68.63107406,-16.20379647,South America,Bolivia,Bolivia - Achacachi (La Paz),2017-11-15,15:30
6323,Rollandia microptera,species,Titicaca Grebe,4,-68.63104236,-16.2037918,South America,Bolivia,Bolivia - Achacachi (La Paz),2017-11-15,15:31
6325,Theristicus branickii,species,Andean Ibis,3,-69.06609928,-15.54246636,South America,Bolivia,Bolivia - Puerto Acosta (La Paz),2017-11-16,12:59
6326,Vanellus resplendens,species,Andean Lapwing,1,-69.06285196,-15.50439596,South America,Bolivia,Bolivia - Puerto Acosta (La Paz),2017-11-16,13:28
6327,Cathartes aura,species,Turkey Vulture,4,-68.4781995,-15.14944331,South America,Bolivia,Bolivia - Ayata (La Paz),2017-11-17,10:56
6328,Thamnophilus palliatus,species,Chestnut-backed Antshrike,1,-68.49220848,-15.08722793,South America,Bolivia,Bolivia - Juan José Pérez (La Paz),2017-11-17,12:56
6329,Streptoprocne zonaris,species,White-collared Swift,50,-68.48993607,-15.08714652,South America,Bolivia,Bolivia - Juan José Pérez (La Paz),2017-11-17,13:32
6330,Streptoprocne zonaris,species,White-collared Swift,50,-68.46101608,-15.01241545,South America,Bolivia,Bolivia - Apolo (La Paz),2017-11-17,14:50
6331,Nystalus chacuru,species,White-eared Puffbird,1,-68.1173128106424,-14.612455080458,South America,Bolivia,Bolivia - Apolo (La Paz),2017-11-18,06:33
6332,Sporophila ruficollis,species,Dark-throated Seedeater,1,-68.1173128106424,-14.612455080458,South America,Bolivia,Bolivia - Apolo (La Paz),2017-11-18,06:47
6334,Aulacorhynchus atrogularis,species,Black-throated Toucanet,1,-68.1173128106424,-14.612455080458,South America,Bolivia,Bolivia - Apolo (La Paz),2017-11-18,09:52
6335,Tangara meyerdeschauenseei,species,Green-capped Tanager,1,-68.12,-14.62,South America,Bolivia,Bolivia - Apolo (La Paz),2017-11-18,10:33
6336,Athene cunicularia,species,Burrowing Owl,3,-68.1173128106424,-14.612455080458,South America,Bolivia,Bolivia - Apolo (La Paz),2017-11-18,11:33
6337,Lophornis delattrei,species,Rufous-crested Coquette,1,-68.43316155,-14.97952337,South America,Bolivia,Bolivia - Apolo (La Paz),2017-11-24,06:31
6338,Lophornis delattrei,species,Rufous-crested Coquette,1,-68.43310212,-14.98004168,South America,Bolivia,Bolivia - Apolo (La Paz),2017-11-24,06:36
6339,Tangara chrysotis,species,Golden-eared Tanager,2,-68.43450382,-14.9839608,South America,Bolivia,Bolivia - Apolo (La Paz),2017-11-24,07:31
6340,Tangara punctata,species,Spotted Tanager,2,-68.43443064,-14.98388384,South America,Bolivia,Bolivia - Apolo (La Paz),2017-11-24,07:35
6341,Tersina viridis,species,Swallow Tanager,2,-68.43675274,-14.98561896,South America,Bolivia,Bolivia - Apolo (La Paz),2017-11-24,08:16
6342,Thraupis sayaca,species,Sayaca Tanager,2,-68.43826093,-14.98739761,South America,Bolivia,Bolivia - Apolo (La Paz),2017-11-24,09:00
6343,Chlorophanes spiza,species,Green Honeycreeper,1,-68.43859419,-14.98851785,South America,Bolivia,Bolivia - Apolo (La Paz),2017-11-24,09:19
6344,Colibri delphinae,species,Brown Violetear,1,-68.43859512,-14.98851874,South America,Bolivia,Bolivia - Apolo (La Paz),2017-11-24,09:19
6345,Phalcoboenus megalopterus,species,Mountain Caracara,1,-69.0405395,-15.35674277,South America,Bolivia,Bolivia - Mocomoco (La Paz),2017-11-25,09:08
6346,Plegadis ridgwayi,species,Puna Ibis,2,-69.0725557,-15.49915678,South America,Bolivia,Bolivia - Puerto Acosta (La Paz),2017-11-25,10:06
74075,Gallinula galeata,species,Common Gallinule,1,-69.03564152,-16.18302406,South America,Bolivia,Bolivia - Copacabana (La Paz),2002-04-21,
109727,Guira guira,species,Guira Cuckoo,2,-63.18216292,-17.78341139,South America,Bolivia,Bolivia - Santa Cruz de la Sierra (Santa Cruz),2017-09-19,08:59
109728,Phalacrocorax brasilianus,species,Neotropic Cormorant,3,-63.18059283,-17.77863753,South America,Bolivia,Bolivia - Santa Cruz de la Sierra (Santa Cruz),2017-09-19,17:40
109729,Guira guira,species,Guira Cuckoo,6,-63.18174492,-17.783266,South America,Bolivia,Bolivia - Santa Cruz de la Sierra (Santa Cruz),2017-09-20,07:20
109730,Coragyps atratus,species,Black Vulture,1,-63.2259322,-17.80143363,South America,Bolivia,Bolivia - Santa Cruz de la Sierra (Santa Cruz),2017-09-23,09:22
109731,Cyanocorax chrysops,species,Plush-crested Jay,2,-63.59821311,-18.10527293,South America,Bolivia,Bolivia - Samaipata (Santa Cruz),2017-09-23,11:45
109733,Turdus albicollis,species,White-necked Thrush,1,-63.59729207,-18.10300008,South America,Bolivia,Bolivia - Samaipata (Santa Cruz),2017-09-23,15:42
109734,Tangara cyanotis,species,Blue-browed Tanager,1,-63.59521108,-18.09785171,South America,Bolivia,Bolivia - Samaipata (Santa Cruz),2017-09-23,16:40
109735,Pteroglossus castanotis,species,Chestnut-eared Aracari,5,-63.60165808,-18.10846707,South America,Bolivia,Bolivia - Samaipata (Santa Cruz),2017-09-24,06:29
109736,Setophaga pitiayumi,species,Tropical Parula,1,-63.59768881,-18.10578182,South America,Bolivia,Bolivia - Samaipata (Santa Cruz),2017-09-24,07:48
109737,Pionus menstruus,species,Blue-headed Parrot,4,-63.59763342,-18.10574696,South America,Bolivia,Bolivia - Samaipata (Santa Cruz),2017-09-24,07:55
109739,Ara militaris,species,Military Macaw,2,-63.5936805,-18.11102235,South America,Bolivia,Bolivia - Samaipata (Santa Cruz),2017-09-24,15:37
109740,Notiochelidon cyanoleuca,species,Blue-and-white Swallow,5,-63.8786396,-18.17697824,South America,Bolivia,Bolivia - Samaipata (Santa Cruz),2017-09-25,07:34
109741,Thraupis bonariensis,species,Blue-and-yellow Tanager,2,-63.87814533,-18.1764323,South America,Bolivia,Bolivia - Samaipata (Santa Cruz),2017-09-25,08:32
109742,Vultur gryphus,species,Andean Condor,2,-63.82138589,-18.17883568,South America,Bolivia,Bolivia - Samaipata - El Fuerte,2017-09-25,12:12
109743,Athene cunicularia,species,Burrowing Owl,4,-62.0563741,-16.13740117,South America,Bolivia,Bolivia - Concepción (Santa Cruz),2017-09-26,16:55
109744,Athene cunicularia,species,Burrowing Owl,4,-62.00929054,-16.21312387,South America,Bolivia,Bolivia - Concepción (Santa Cruz),2017-09-27,08:25
109747,Vanellus chilensis,species,Southern Lapwing,1,-61.9963445,-16.33142449,South America,Bolivia,Bolivia - Concepción (Santa Cruz),2017-09-27,08:42
109748,Caracara plancus,species,Southern Crested Caracara,1,-61.99413444,-16.41000016,South America,Bolivia,Bolivia - Concepción (Santa Cruz),2017-09-27,08:55
109752,Ramphastos toco,species,Toco Toucan,5,-61.87372817,-16.85873807,South America,Bolivia,Bolivia - San Antonio de Lomerío (Santa Cruz),2017-09-27,18:01
7301,Thraupis sayaca,species,Sayaca Tanager,1,-65.26199226,-19.03381125,South America,Bolivia,Bolivia - Sucre (Chuquisaca),2017-06-15,
7416,Phoenicoparrus jamesi,species,James's Flamingo,100,-67.80669709,-20.14656066,South America,Bolivia,Bolivia - Salar de Uyuni,2017-06-15,
7422,Lophonetta specularioides,species,Crested Duck,2,-67.80669709,-20.14656066,South America,Bolivia,Bolivia - Salar de Uyuni,2017-06-15,
7634,Chroicocephalus serranus,species,Andean Gull,10,-68.33309328,-19.85569734,South America,Bolivia,Bolivia - Llica NP,2017-06-15,
7638,Vanellus chilensis,species,Southern Lapwing,1,-66.74919438,-19.0989766,South America,Bolivia,Bolivia - Dpto. Oruro,2017-06-15,
7657,Chloephaga melanoptera,species,Andean Goose,4,-67.68308717,-20.57936174,South America,Bolivia,"Bolivia - Colcha ""K"" (Potosí)",2017-06-15,
7678,Plegadis ridgwayi,species,Puna Ibis,1,-66.046138,-17.55973588,South America,Bolivia,Bolivia - Arbieto (Cochabamba),2017-06-15,
7730,Sicalis olivascens,species,Greenish Yellow Finch,1,-67.4633057,-20.23694426,South America,Bolivia,Bolivia - Salar de Uyuni,2017-06-15,
7740,Phrygilus atriceps,species,Black-hooded Sierra Finch,4,-67.4633057,-20.23694426,South America,Bolivia,Bolivia - Salar de Uyuni,2017-06-15,
7747,Phrygilus dorsalis,species,Red-backed Sierra Finch,1,-67.4633057,-20.23694426,South America,Bolivia,Bolivia - Salar de Uyuni,2017-06-15,
34372,Agraulis vanillae,species,Gulf Fritillary,1,-63.87634987,-18.18142458,South America,Bolivia,Bolivia - Samaipata (Santa Cruz),2017-07-18,10:17
102027,Ameiva ameiva,species,Giant Ameiva,1,-67.56273486,-14.5922847,South America,Bolivia,Bolivia - San Buenaventura (La Paz),2017-08-06,
116589,Erythrodiplax umbrata,species,Band-winged Dragonlet,1,-67.53127434,-14.44651532,South America,Bolivia,Bolivia - Dpto. Beni,2017-08-09,
39606,Colobura dirce,species,Dirce Beauty,1,-67.52963841,-14.45213759,South America,Bolivia,Bolivia - Dpto. Beni,2017-08-09,10:35
39987,Catonephele numilia,species,,1,-67.56313551,-14.59225339,South America,Bolivia,Bolivia - San Buenaventura (La Paz),2017-08-06,12:24
88618,Ardea alba,species,Great Egret,2,-63.07009894,-17.76609875,South America,Bolivia,Bolivia - Santa Cruz de la Sierra (Santa Cruz),2017-08-13,16:21
88619,Megaceryle torquata,species,Ringed Kingfisher,1,-63.07011558,-17.7666643,South America,Bolivia,Bolivia - Santa Cruz de la Sierra (Santa Cruz),2017-08-13,16:24
88620,Plecturocebus donacophilus,species,Bolivian Grey Titi Monkey,6,-63.07027903,-17.76856712,South America,Bolivia,Bolivia - Santa Cruz de la Sierra (Santa Cruz),2017-08-13,16:47
88621,Bradypus variegatus,species,Brown-throated Three-toed Sloth,1,-63.07005942,-17.77450744,South America,Bolivia,Bolivia - Santa Cruz de la Sierra (Santa Cruz),2017-08-13,17:17
88622,Mico melanurus,species,Black-tailed Marmoset,6,-63.06974156,-17.775657,South America,Bolivia,Bolivia - Santa Cruz de la Sierra (Santa Cruz),2017-08-13,17:27
88623,Phimosus infuscatus,species,Bare-faced Ibis,21,-63.0694375,-17.76726594,South America,Bolivia,Bolivia - Santa Cruz de la Sierra (Santa Cruz),2017-08-13,18:01
88624,Bubulcus ibis,species,Western Cattle Egret,101,-63.06940503,-17.76724614,South America,Bolivia,Bolivia - Santa Cruz de la Sierra (Santa Cruz),2017-08-13,18:03
88625,Bradypus variegatus,species,Brown-throated Three-toed Sloth,1,-63.07014898,-17.76609665,South America,Bolivia,Bolivia - Santa Cruz de la Sierra (Santa Cruz),2017-08-14,08:35
88626,Nycticorax nycticorax,species,Black-crowned Night Heron,4,-63.0700031,-17.76601155,South America,Bolivia,Bolivia - Santa Cruz de la Sierra (Santa Cruz),2017-08-14,08:41
88627,Phimosus infuscatus,species,Bare-faced Ibis,5,-63.06999451,-17.76602024,South America,Bolivia,Bolivia - Santa Cruz de la Sierra (Santa Cruz),2017-08-14,08:41
88628,Ardea alba,species,Great Egret,2,-63.06994735,-17.7658286,South America,Bolivia,Bolivia - Santa Cruz de la Sierra (Santa Cruz),2017-08-14,08:45
88629,Megaceryle torquata,species,Ringed Kingfisher,1,-63.06999759,-17.76611848,South America,Bolivia,Bolivia - Santa Cruz de la Sierra (Santa Cruz),2017-08-14,08:46
88630,Bradypus variegatus,species,Brown-throated Three-toed Sloth,1,-63.07043748,-17.76947004,South America,Bolivia,Bolivia - Santa Cruz de la Sierra (Santa Cruz),2017-08-14,09:05
88631,Plecturocebus donacophilus,species,Bolivian Grey Titi Monkey,2,-63.06935511,-17.77000906,South America,Bolivia,Bolivia - Santa Cruz de la Sierra (Santa Cruz),2017-08-14,09:18
88632,Plecturocebus donacophilus,species,Bolivian Grey Titi Monkey,4,-63.0706099,-17.77630805,South America,Bolivia,Bolivia - Santa Cruz de la Sierra (Santa Cruz),2017-08-14,10:04
88633,Biblis hyperia,species,Red Rim,1,-63.07050453,-17.77786813,South America,Bolivia,Bolivia - Santa Cruz de la Sierra (Santa Cruz),2017-08-14,10:15
88634,Momotus momota,species,Amazonian Motmot,1,-63.06731739,-17.78620557,South America,Bolivia,Bolivia - Santa Cruz de la Sierra (Santa Cruz),2017-08-14,11:09
88635,Nasua nasua,species,South American Coati,2,-63.06556075,-17.78610798,South America,Bolivia,Bolivia - Santa Cruz de la Sierra (Santa Cruz),2017-08-14,11:21
88636,Mico melanurus,species,Black-tailed Marmoset,4,-63.06555883,-17.78610509,South America,Bolivia,Bolivia - Santa Cruz de la Sierra (Santa Cruz),2017-08-14,11:21
88637,Sapajus cay,species,Azaras’s Capuchin,1,-63.06607651,-17.78221732,South America,Bolivia,Bolivia - Santa Cruz de la Sierra (Santa Cruz),2017-08-14,11:36
88638,Morpho helenor,species,Helenor Morpho,1,-63.06992563,-17.77075064,South America,Bolivia,Bolivia - Santa Cruz de la Sierra (Santa Cruz),2017-08-14,12:34
33182,Thraupis episcopus,species,Blue-grey Tanager,2,-67.5283773,-14.44592399,South America,Bolivia,Bolivia - Dpto. Beni,2017-08-09,09:55
33183,Pyrocephalus rubinus,species,Scarlet Flycatcher,1,-67.53165272,-14.44519749,South America,Bolivia,Bolivia - Dpto. Beni,2017-08-09,11:10
44365,Thraupis episcopus,species,Blue-grey Tanager,1,-67.52872726,-14.44019924,South America,Bolivia,Bolivia - Dpto. Beni,2017-08-06,08:09
44366,Caracara plancus,species,Southern Crested Caracara,2,-67.49965125,-14.55738237,South America,Bolivia,Bolivia - Madidi NP,2017-08-06,10:34
44367,Monasa nigrifrons,species,Black-fronted Nunbird,1,-67.56103791,-14.59263151,South America,Bolivia,Bolivia - San Buenaventura (La Paz),2017-08-06,13:09
44368,Ara chloropterus,species,Red-and-green Macaw,2,-67.60654086,-14.57462154,South America,Bolivia,Bolivia - San Buenaventura (La Paz),2017-08-06,14:51
44369,Ara chloropterus,species,Red-and-green Macaw,17,-67.61236385,-14.57551353,South America,Bolivia,Bolivia - San Buenaventura (La Paz),2017-08-06,15:31
44370,Cathartes melambrotus,species,Greater Yellow-headed Vulture,1,-67.56252491,-14.59620261,South America,Bolivia,Bolivia - Apolo (La Paz),2017-08-06,18:27
44371,Rynchops niger,species,Black Skimmer,1,-67.51029458,-14.56497632,South America,Bolivia,Bolivia - San Buenaventura (La Paz),2017-08-07,07:20
44372,Hydrochoerus hydrochaeris,species,Capybara,7,-67.032676,-14.124932,South America,Bolivia,Bolivia - Beni - José Ballivián,2017-08-07,10:50
44373,Rhea americana,species,Greater Rhea,1,-66.96898471,-14.09076237,South America,Bolivia,Bolivia - Beni - José Ballivián,2017-08-07,11:03
44374,Jabiru mycteria,species,Jabiru,1,-66.9179054,-14.07760406,South America,Bolivia,Bolivia - Beni - José Ballivián,2017-08-07,11:13
44375,Mycteria americana,species,Wood Stork,16,-66.91636776,-14.07687423,South America,Bolivia,Bolivia - Beni - José Ballivián,2017-08-07,11:14
44376,Coragyps atratus,species,Black Vulture,2,-66.78077102,-14.11608521,South America,Bolivia,Bolivia - Beni - José Ballivián,2017-08-07,11:48
44377,Ardea cocoi,species,Cocoi Heron,1,-66.78092365,-14.12050161,South America,Bolivia,Bolivia - Beni - José Ballivián,2017-08-07,12:11
44378,Anhinga anhinga,species,Anhinga,1,-66.78084293,-14.12176055,South America,Bolivia,Bolivia - Beni - José Ballivián,2017-08-07,12:13
44379,Ardea cocoi,species,Cocoi Heron,1,-66.78129926,-14.12569488,South America,Bolivia,Bolivia - Beni - José Ballivián,2017-08-07,12:15
44380,Opisthocomus hoazin,species,Hoatzin,1,-66.78191248,-14.12594825,South America,Bolivia,Bolivia - Beni - José Ballivián,2017-08-07,12:15
44381,Monasa nigrifrons,species,Black-fronted Nunbird,3,-66.78413095,-14.12432583,South America,Bolivia,Bolivia - Beni - José Ballivián,2017-08-07,13:42
44382,Opisthocomus hoazin,species,Hoatzin,1,-66.78221022,-14.12474516,South America,Bolivia,Bolivia - Beni - José Ballivián,2017-08-07,15:05
44383,Opisthocomus hoazin,species,Hoatzin,2,-66.78216259,-14.12560353,South America,Bolivia,Bolivia - Beni - José Ballivián,2017-08-07,15:07
44384,Saimiri boliviensis,species,Black-headed Squirrel Monkey,3,-66.78160598,-14.1258457,South America,Bolivia,Bolivia - Beni - José Ballivián,2017-08-07,15:11
44385,Tigrisoma lineatum,species,Rufescent Tiger Heron,1,-66.78065996,-14.12464967,South America,Bolivia,Bolivia - Beni - José Ballivián,2017-08-07,15:20
44386,Opisthocomus hoazin,species,Hoatzin,11,-66.78057858,-14.12392133,South America,Bolivia,Bolivia - Beni - José Ballivián,2017-08-07,15:21
44387,Opisthocomus hoazin,species,Hoatzin,5,-66.78044949,-14.12203395,South America,Bolivia,Bolivia - Beni - José Ballivián,2017-08-07,15:24
44388,Butorides striata,species,Striated Heron,3,-66.78092802,-14.12156938,South America,Bolivia,Bolivia - Beni - José Ballivián,2017-08-07,15:26
44389,Opisthocomus hoazin,species,Hoatzin,5,-66.7812664,-14.12151902,South America,Bolivia,Bolivia - Beni - José Ballivián,2017-08-07,15:28
44390,Tigrisoma lineatum,species,Rufescent Tiger Heron,1,-66.77949699,-14.1196205,South America,Bolivia,Bolivia - Beni - José Ballivián,2017-08-07,15:31
44391,Opisthocomus hoazin,species,Hoatzin,4,-66.77860613,-14.11480017,South America,Bolivia,Bolivia - Beni - José Ballivián,2017-08-07,15:41
44392,Cochlearius cochlearius,species,Boat-billed Heron,1,-66.7784009,-14.11546209,South America,Bolivia,Bolivia - Beni - José Ballivián,2017-08-07,15:42
44393,Opisthocomus hoazin,species,Hoatzin,7,-66.7784009,-14.11546209,South America,Bolivia,Bolivia - Beni - José Ballivián,2017-08-07,15:42
44394,Inia geoffrensis,species,Amazon River Dolphin,4,-66.77763377,-14.11712199,South America,Bolivia,Bolivia - Beni - José Ballivián,2017-08-07,15:46
44395,Opisthocomus hoazin,species,Hoatzin,6,-66.7774988,-14.1171811,South America,Bolivia,Bolivia - Beni - José Ballivián,2017-08-07,15:47
44396,Opisthocomus hoazin,species,Hoatzin,3,-66.77543796,-14.11796549,South America,Bolivia,Bolivia - Beni - José Ballivián,2017-08-07,16:17
44397,Tigrisoma lineatum,species,Rufescent Tiger Heron,1,-66.77451071,-14.11928611,South America,Bolivia,Bolivia - Beni - José Ballivián,2017-08-07,16:22
44398,Opisthocomus hoazin,species,Hoatzin,2,-66.77249615,-14.1213772,South America,Bolivia,Bolivia - Beni - José Ballivián,2017-08-07,16:26
44399,Opisthocomus hoazin,species,Hoatzin,2,-66.77185685,-14.12213739,South America,Bolivia,Bolivia - Beni - José Ballivián,2017-08-07,16:27
44400,Ardea cocoi,species,Cocoi Heron,1,-66.77311066,-14.12394652,South America,Bolivia,Bolivia - Beni - José Ballivián,2017-08-07,16:31
44401,Opisthocomus hoazin,species,Hoatzin,2,-66.77311066,-14.12394652,South America,Bolivia,Bolivia - Beni - José Ballivián,2017-08-07,16:31
44402,Opisthocomus hoazin,species,Hoatzin,4,-66.77345223,-14.12506869,South America,Bolivia,Bolivia - Beni - José Ballivián,2017-08-07,16:32
44403,Ardea cocoi,species,Cocoi Heron,2,-66.77202019,-14.12717256,South America,Bolivia,Bolivia - Beni - José Ballivián,2017-08-07,16:52
44404,Tigrisoma lineatum,species,Rufescent Tiger Heron,1,-66.77147325,-14.1274491,South America,Bolivia,Bolivia - Beni - José Ballivián,2017-08-07,16:55
44405,Cochlearius cochlearius,species,Boat-billed Heron,3,-66.77759204,-14.11703054,South America,Bolivia,Bolivia - Beni - José Ballivián,2017-08-07,17:59
44406,Alouatta caraya,species,Black-and-gold Howler Monkey,2,-66.78344274,-14.12448908,South America,Bolivia,Bolivia - Beni - José Ballivián,2017-08-07,18:23
44407,Alouatta caraya,species,Black-and-gold Howler Monkey,1,-66.7834769,-14.12466424,South America,Bolivia,Bolivia - Beni - José Ballivián,2017-08-08,06:50
44408,Inia geoffrensis,species,Amazon River Dolphin,1,-66.78344807,-14.12456906,South America,Bolivia,Bolivia - Beni - José Ballivián,2017-08-08,07:28
44409,Butorides striata,species,Striated Heron,1,-66.78389782,-14.12619482,South America,Bolivia,Bolivia - Beni - José Ballivián,2017-08-08,08:07
44410,Ardea cocoi,species,Cocoi Heron,1,-66.78506552,-14.12796604,South America,Bolivia,Bolivia - Beni - José Ballivián,2017-08-08,08:09
44411,Opisthocomus hoazin,species,Hoatzin,11,-66.78586323,-14.12850024,South America,Bolivia,Bolivia - Beni - José Ballivián,2017-08-08,08:10
44412,Anhinga anhinga,species,Anhinga,1,-66.78705786,-14.12433803,South America,Bolivia,Bolivia - Beni - José Ballivián,2017-08-08,08:14
44413,Tigrisoma lineatum,species,Rufescent Tiger Heron,1,-66.78738087,-14.12307203,South America,Bolivia,Bolivia - Beni - José Ballivián,2017-08-08,08:15
44414,Anhinga anhinga,species,Anhinga,2,-66.78922096,-14.12323045,South America,Bolivia,Bolivia - Beni - José Ballivián,2017-08-08,08:16
44415,Ardea cocoi,species,Cocoi Heron,1,-66.78922096,-14.12323045,South America,Bolivia,Bolivia - Beni - José Ballivián,2017-08-08,08:17
44416,Opisthocomus hoazin,species,Hoatzin,9,-66.78919146,-14.12368338,South America,Bolivia,Bolivia - Beni - José Ballivián,2017-08-08,08:17
44417,Opisthocomus hoazin,species,Hoatzin,2,-66.78925144,-14.12413039,South America,Bolivia,Bolivia - Beni - José Ballivián,2017-08-08,08:17
44418,Opisthocomus hoazin,species,Hoatzin,10,-66.79152231,-14.12212206,South America,Bolivia,Bolivia - Beni - José Ballivián,2017-08-08,08:20
44419,Opisthocomus hoazin,species,Hoatzin,3,-66.79210254,-14.12218405,South America,Bolivia,Bolivia - Beni - José Ballivián,2017-08-08,08:20
44420,Inia geoffrensis,species,Amazon River Dolphin,1,-66.7973457,-14.12252947,South America,Bolivia,Bolivia - Beni - José Ballivián,2017-08-08,08:27
44421,Opisthocomus hoazin,species,Hoatzin,2,-66.79816529,-14.12397724,South America,Bolivia,Bolivia - Beni - José Ballivián,2017-08-08,08:28
44422,Ardea cocoi,species,Cocoi Heron,1,-66.79820737,-14.12447511,South America,Bolivia,Bolivia - Beni - José Ballivián,2017-08-08,08:29
44423,Cochlearius cochlearius,species,Boat-billed Heron,1,-66.79812501,-14.12549337,South America,Bolivia,Bolivia - Beni - José Ballivián,2017-08-08,08:30
44424,Ardea cocoi,species,Cocoi Heron,1,-66.79780384,-14.12595723,South America,Bolivia,Bolivia - Beni - José Ballivián,2017-08-08,08:30
44425,Inia geoffrensis,species,Amazon River Dolphin,1,-66.79706006,-14.12642102,South America,Bolivia,Bolivia - Beni - José Ballivián,2017-08-08,08:30
44426,Tigrisoma lineatum,species,Rufescent Tiger Heron,2,-66.79484884,-14.126157,South America,Bolivia,Bolivia - Beni - José Ballivián,2017-08-08,08:32
44427,Butorides striata,species,Striated Heron,2,-66.79646375,-14.12823884,South America,Bolivia,Bolivia - Beni - José Ballivián,2017-08-08,08:35
44428,Coragyps atratus,species,Black Vulture,1,-66.79507828,-14.12963783,South America,Bolivia,Bolivia - Beni - José Ballivián,2017-08-08,08:36
44429,Opisthocomus hoazin,species,Hoatzin,14,-66.79437525,-14.13094285,South America,Bolivia,Bolivia - Beni - José Ballivián,2017-08-08,08:38
44430,Opisthocomus hoazin,species,Hoatzin,20,-66.79782718,-14.13192465,South America,Bolivia,Bolivia - Beni - José Ballivián,2017-08-08,08:40
44431,Cochlearius cochlearius,species,Boat-billed Heron,1,-66.79805905,-14.13225175,South America,Bolivia,Bolivia - Beni - José Ballivián,2017-08-08,08:41
44432,Cochlearius cochlearius,species,Boat-billed Heron,1,-66.79535266,-14.13358659,South America,Bolivia,Bolivia - Beni - José Ballivián,2017-08-08,08:43
44433,Busarellus nigricollis,species,Black-collared Hawk,2,-66.79629431,-14.13503411,South America,Bolivia,Bolivia - Beni - José Ballivián,2017-08-08,08:45
44434,Cochlearius cochlearius,species,Boat-billed Heron,5,-66.79585777,-14.13625248,South America,Bolivia,Bolivia - Beni - José Ballivián,2017-08-08,08:47
44435,Agamia agami,species,Agami Heron,1,-66.79554544,-14.13634303,South America,Bolivia,Bolivia - Beni - José Ballivián,2017-08-08,08:51
44436,Hydrochoerus hydrochaeris,species,Capybara,2,-66.79466205,-14.13776213,South America,Bolivia,Bolivia - Beni - José Ballivián,2017-08-08,08:53
44437,Anhinga anhinga,species,Anhinga,1,-66.79822691,-14.14137028,South America,Bolivia,Bolivia - Beni - José Ballivián,2017-08-08,08:57
44438,Ardea cocoi,species,Cocoi Heron,2,-66.79916713,-14.14239077,South America,Bolivia,Bolivia - Beni - José Ballivián,2017-08-08,08:57
44439,Inia geoffrensis,species,Amazon River Dolphin,1,-66.80077063,-14.14584671,South America,Bolivia,Bolivia - Beni - José Ballivián,2017-08-08,09:05
44440,Opisthocomus hoazin,species,Hoatzin,11,-66.8020948,-14.14539192,South America,Bolivia,Bolivia - Beni - José Ballivián,2017-08-08,09:06
44441,Ardea cocoi,species,Cocoi Heron,1,-66.80549189,-14.14628683,South America,Bolivia,Bolivia - Beni - José Ballivián,2017-08-08,09:09
44442,Anhinga anhinga,species,Anhinga,1,-66.80717023,-14.14671632,South America,Bolivia,Bolivia - Beni - José Ballivián,2017-08-08,09:10
44443,Butorides striata,species,Striated Heron,1,-66.80844772,-14.14585668,South America,Bolivia,Bolivia - Beni - José Ballivián,2017-08-08,09:11
44444,Butorides striata,species,Striated Heron,3,-66.80642883,-14.14398693,South America,Bolivia,Bolivia - Beni - José Ballivián,2017-08-08,09:14
44445,Cochlearius cochlearius,species,Boat-billed Heron,1,-66.80848077,-14.1435167,South America,Bolivia,Bolivia - Beni - José Ballivián,2017-08-08,09:17
44446,Butorides striata,species,Striated Heron,1,-66.8161359,-14.14112942,South America,Bolivia,Bolivia - Beni - José Ballivián,2017-08-08,09:24
44447,Coragyps atratus,species,Black Vulture,1,-66.82317386,-14.14244434,South America,Bolivia,Bolivia - Beni - José Ballivián,2017-08-08,09:30
44448,Ardea cocoi,species,Cocoi Heron,1,-66.82226281,-14.15264145,South America,Bolivia,Bolivia - Beni - José Ballivián,2017-08-08,09:39
44449,Jabiru mycteria,species,Jabiru,1,-66.82234169,-14.16406516,South America,Bolivia,Bolivia - Beni - José Ballivián,2017-08-08,09:51
44450,Saimiri boliviensis,species,Black-headed Squirrel Monkey,6,-66.82291709,-14.16623412,South America,Bolivia,Bolivia - Beni - José Ballivián,2017-08-08,09:56
44451,Neochen jubata,species,Orinoco Goose,2,-66.81143311,-14.14303534,South America,Bolivia,Bolivia - Beni - José Ballivián,2017-08-08,10:33
44452,Nasua nasua,species,South American Coati,1,-66.78698412,-14.12487681,South America,Bolivia,Bolivia - Beni - José Ballivián,2017-08-08,11:14
107242,Zonotrichia capensis,species,Rufous-collared Sparrow,1,-68.13220147,-16.50059656,South America,Bolivia,Bolivia - La Paz (La Paz),2017-08-01,17:03
107243,Zonotrichia capensis,species,Rufous-collared Sparrow,1,-68.14454094,-16.49124644,South America,Bolivia,Bolivia - La Paz (La Paz),2017-08-02,12:27
107244,Vicugna vicugna,species,Vicugna,2,-67.61573948,-19.90765475,South America,Bolivia,Bolivia - Salar de Uyuni,2017-08-03,16:03
107245,Phoenicoparrus jamesi,species,James's Flamingo,28,-67.62054311,-19.90519816,South America,Bolivia,Bolivia - Salar de Uyuni,2017-08-03,16:13
107246,Phoenicoparrus jamesi,species,James's Flamingo,51,-67.62248734,-19.90481584,South America,Bolivia,Bolivia - Salar de Uyuni,2017-08-04,07:10
107247,Phrygilus atriceps,species,Black-hooded Sierra Finch,1,-67.62762462,-20.24112323,South America,Bolivia,Bolivia - Salar de Uyuni,2017-08-04,13:46
107248,Phrygilus atriceps,species,Black-hooded Sierra Finch,1,-67.62533565,-20.24335647,South America,Bolivia,Bolivia - Salar de Uyuni,2017-08-04,14:15
40295,Agraulis vanillae,species,Gulf Fritillary,2,-66.10045398,-17.37163759,South America,Bolivia,Bolivia - Sacaba (Cochabamba),2017-07-30,13:02
63635,Zonotrichia capensis,species,Rufous-collared Sparrow,4,-66.14411814,-17.36666402,South America,Bolivia,Bolivia - Cochabamba (Cochabamba),2017-07-27,08:01
96789,Anas georgica,species,Yellow-billed Pintail,3,-68.626,-16.1975,South America,Bolivia,Bolivia - Achacachi (La Paz),2017-07-14,11:30
96790,Spatula puna,species,Puna Teal,10,-68.626,-16.1975,South America,Bolivia,Bolivia - Achacachi (La Paz),2017-07-14,11:28
108897,Zonotrichia capensis,species,Rufous-collared Sparrow,1,-66.15360962,-17.37477149,South America,Bolivia,Bolivia - Cochabamba (Cochabamba),2017-07-26,17:23
41704,Diglossa sittoides,species,Rusty Flowerpiercer,1,-63.88212692,-18.18543121,South America,Bolivia,Bolivia - Samaipata (Santa Cruz),2017-07-18,07:02
41705,Notiochelidon cyanoleuca,species,Blue-and-white Swallow,3,-63.88511241,-18.18553109,South America,Bolivia,Bolivia - Samaipata (Santa Cruz),2017-07-18,07:23
41706,Notiochelidon cyanoleuca,species,Blue-and-white Swallow,2,-63.8760303,-18.1827055,South America,Bolivia,Bolivia - Samaipata (Santa Cruz),2017-07-19,08:07
41707,Vultur gryphus,species,Andean Condor,1,-63.87883409,-18.09897804,South America,Bolivia,Bolivia - Samaipata (Santa Cruz),2017-07-19,11:48
41708,Vultur gryphus,species,Andean Condor,3,-63.86262954,-18.13707873,South America,Bolivia,Bolivia - Samaipata (Santa Cruz),2017-07-19,13:20
41709,Phalcoboenus megalopterus,species,Mountain Caracara,1,-63.86557099,-18.1456954,South America,Bolivia,Bolivia - Samaipata (Santa Cruz),2017-07-19,13:26
41710,Notiochelidon cyanoleuca,species,Blue-and-white Swallow,2,-63.8799019,-18.18459245,South America,Bolivia,Bolivia - Samaipata (Santa Cruz),2017-07-20,07:40
41711,Vultur gryphus,species,Andean Condor,2,-63.81914702,-18.17891631,South America,Bolivia,Bolivia - Samaipata - El Fuerte,2017-07-20,13:14
41712,Nisoniades criton,species,,1,-63.82201438,-18.1795866,South America,Bolivia,Bolivia - Samaipata - El Fuerte,2017-07-20,13:35
41713,Vultur gryphus,species,Andean Condor,1,-63.84264336,-18.17313818,South America,Bolivia,Bolivia - Samaipata (Santa Cruz),2017-07-20,15:41
41714,Phalcoboenus megalopterus,species,Mountain Caracara,1,-63.84246644,-18.17315914,South America,Bolivia,Bolivia - Samaipata (Santa Cruz),2017-07-20,16:16
61236,Cinclodes albiventris,species,Cream-winged Cinclodes,1,-69.1452,-16.0327,South America,Bolivia,Bolivia - Copacabana (La Paz),2017-07-13,13:36
61237,Phalcoboenus megalopterus,species,Mountain Caracara,2,-69.1478,-16.0291,South America,Bolivia,Bolivia - Copacabana (La Paz),2017-07-13,12:07
61238,Falco sparverius,species,American Kestrel,1,-69.1499,-16.0287,South America,Bolivia,Bolivia - Copacabana (La Paz),2017-07-13,11:53
61239,Cinclodes albiventris,species,Cream-winged Cinclodes,1,-69.1501,-16.029,South America,Bolivia,Bolivia - Copacabana (La Paz),2017-07-13,11:48
61240,Phalcoboenus megalopterus,species,Mountain Caracara,3,-69.151,-16.0283,South America,Bolivia,Bolivia - Copacabana (La Paz),2017-07-13,11:44
61241,Phalcoboenus megalopterus,species,Mountain Caracara,2,-69.1444,-16.0487,South America,Bolivia,Bolivia - Copacabana (La Paz),2017-07-13,09:50
61242,Cinclodes albiventris,species,Cream-winged Cinclodes,2,-69.1438,-16.0484,South America,Bolivia,Bolivia - Copacabana (La Paz),2017-07-13,09:26
61243,Cinclodes albiventris,species,Cream-winged Cinclodes,2,-69.1443,-16.0385,South America,Bolivia,Bolivia - Copacabana (La Paz),2017-07-13,07:54
75579,Falco sparverius,species,American Kestrel,1,-69.1237,-16.0699,South America,Bolivia,Bolivia - Copacabana (La Paz),2017-07-12,15:54
75580,Falco sparverius,species,American Kestrel,1,-69.088,-16.0947,South America,Bolivia,Bolivia - Copacabana (La Paz),2017-07-12,15:18
75581,Rollandia rolland,species,White-tufted Grebe,3,-69.0916,-16.1645,South America,Bolivia,Bolivia - Copacabana (La Paz),2017-07-12,12:28
84709,Zonotrichia capensis,species,Rufous-collared Sparrow,1,-68.1274,-16.4949,South America,Bolivia,Bolivia - La Paz (La Paz),2017-07-11,10:16
97024,Zonotrichia capensis,species,Rufous-collared Sparrow,1,-68.1632,-16.4997,South America,Bolivia,Bolivia - El Alto (La Paz),2017-07-10,10:45
31164,Vanellus resplendens,species,Andean Lapwing,2,-66.1333,-17.4015,South America,Bolivia,Bolivia - Cochabamba (Cochabamba),2017-07-07,12:38
31165,Vanellus resplendens,species,Andean Lapwing,14,-66.1274,-17.411,South America,Bolivia,Bolivia - Cochabamba - Laguna Alalay,2017-07-07,12:16
31166,Zonotrichia capensis,species,Rufous-collared Sparrow,1,-66.14,-17.4154,South America,Bolivia,Bolivia - Cochabamba - Laguna Alalay,2017-07-07,10:57
60422,Zonotrichia capensis,species,Rufous-collared Sparrow,1,-66.1411,-17.3781,South America,Bolivia,Bolivia - Cochabamba (Cochabamba),2017-07-05,10:25
5295,Zonotrichia capensis,species,Rufous-collared Sparrow,10,-66.153,-17.3752,South America,Bolivia,Bolivia - Cochabamba (Cochabamba),2017-07-01,11:56
82159,Gallinula galeata,species,Common Gallinule,50,-66.14508,-17.40175,South America,Bolivia,Bolivia - Cochabamba - Laguna Alalay,2017-06-17,08:23
82168,Colaptes melanochloros,species,Green-barred Woodpecker,2,-66.1364166666667,-17.4162216666667,South America,Bolivia,Bolivia - Cochabamba - Laguna Alalay,2017-06-17,09:16
82172,Vanellus resplendens,species,Andean Lapwing,41,-66.1269866666667,-17.4115316666667,South America,Bolivia,Bolivia - Cochabamba - Laguna Alalay,2017-06-17,10:35
82176,Vanellus resplendens,species,Andean Lapwing,1,-66.1348683333333,-17.3998466666667,South America,Bolivia,Bolivia - Cochabamba - Laguna Alalay,2017-06-17,11:38
98954,Zonotrichia capensis,species,Rufous-collared Sparrow,9,-68.1763666666667,-16.508325,South America,Bolivia,Bolivia - El Alto (La Paz),2017-06-16,09:25
98955,Phrygilus punensis,species,Peruvian Sierra Finch,2,-68.17638333,-16.50827167,South America,Bolivia,Bolivia - El Alto (La Paz),2017-06-16,09:27
98956,Vanellus resplendens,species,Andean Lapwing,1,-68.1763333333333,-16.5083666666667,South America,Bolivia,Bolivia - El Alto (La Paz),2017-06-16,09:41
115294,Piranga flava,species,Red Tanager,1,-63.20438132,-20.4479826,South America,Bolivia,Bolivia - Boyuibe (Santa Cruz),2017-05-03,09:47
28566,Piranga flava,species,Red Tanager,2,-63.93496692,-21.42345092,South America,Bolivia,Bolivia - Dpto. Tarija,2017-05-05,13:27
28962,Piranga flava,species,Red Tanager,1,-63.73034477,-21.4402946,South America,Bolivia,Bolivia - Dpto. Tarija,2017-05-05,14:46
56772,Guira guira,species,Guira Cuckoo,1,-64.9197073587845,-14.8226281739917,South America,Bolivia,Bolivia - Trinidad (Beni),2017-04-27,14:39
56773,Dendrocygna autumnalis,species,Black-bellied Whistling Duck,3,-66.0981696493622,-13.7623804019243,South America,Bolivia,Bolivia - Santa Ana del Yacuma (Beni),2017-04-28,08:25
56774,Phimosus infuscatus,species,Bare-faced Ibis,51,-66.0984813814055,-13.7623401641313,South America,Bolivia,Bolivia - Santa Ana del Yacuma (Beni),2017-04-28,08:48
56775,Ardea cocoi,species,Cocoi Heron,1,-66.0986687938737,-13.7621728345781,South America,Bolivia,Bolivia - Santa Ana del Yacuma (Beni),2017-04-28,08:56
56776,Ara ararauna,species,Blue-and-yellow Macaw,5,-66.0984157154385,-13.7624177743957,South America,Bolivia,Bolivia - Santa Ana del Yacuma (Beni),2017-04-28,09:10
56777,Phimosus infuscatus,species,Bare-faced Ibis,2,-66.0986182386786,-13.7618634502568,South America,Bolivia,Bolivia - Santa Ana del Yacuma (Beni),2017-04-28,10:44
56778,Donacobius atricapilla,species,Black-capped Donacobius,2,-66.090655914476,-13.7543864769517,South America,Bolivia,Bolivia - Santa Ana del Yacuma (Beni),2017-04-28,12:04
56779,Rhea americana,species,Greater Rhea,1,-66.098345719579,-13.7623599172486,South America,Bolivia,Bolivia - Santa Ana del Yacuma (Beni),2017-04-28,12:42
56780,Rhea americana,species,Greater Rhea,2,-66.0984348131835,-13.7624237122808,South America,Bolivia,Bolivia - Santa Ana del Yacuma (Beni),2017-04-28,14:54
56781,Chauna torquata,species,Southern Screamer,3,-66.1004126969402,-13.7591332495853,South America,Bolivia,Bolivia - Santa Ana del Yacuma (Beni),2017-04-28,16:02
56782,Ara ararauna,species,Blue-and-yellow Macaw,2,-66.0978621722621,-13.7485199205713,South America,Bolivia,Bolivia - Santa Ana del Yacuma (Beni),2017-04-28,16:54
56783,Ara ararauna,species,Blue-and-yellow Macaw,1,-66.0976589538371,-13.7469904759419,South America,Bolivia,Bolivia - Santa Ana del Yacuma (Beni),2017-04-28,17:02
56784,Chauna torquata,species,Southern Screamer,9,-66.0976083970829,-13.7469656271792,South America,Bolivia,Bolivia - Santa Ana del Yacuma (Beni),2017-04-28,17:05
56785,Rhea americana,species,Greater Rhea,2,-66.0975674130228,-13.7469510301925,South America,Bolivia,Bolivia - Santa Ana del Yacuma (Beni),2017-04-28,17:05
56786,Ara ararauna,species,Blue-and-yellow Macaw,15,-66.0981389355484,-13.7465495218541,South America,Bolivia,Bolivia - Santa Ana del Yacuma (Beni),2017-04-28,17:16
56788,Mesembrinibis cayennensis,species,Green Ibis,9,-66.0973471672393,-13.7455014680335,South America,Bolivia,Bolivia - Santa Ana del Yacuma (Beni),2017-04-28,17:33
56789,Mycteria americana,species,Wood Stork,1,-66.0972247526298,-13.745257691165,South America,Bolivia,Bolivia - Santa Ana del Yacuma (Beni),2017-04-28,17:39
56790,Theristicus caerulescens,species,Plumbeous Ibis,1,-66.0972547772339,-13.7452743137779,South America,Bolivia,Bolivia - Santa Ana del Yacuma (Beni),2017-04-28,17:40
56791,Rhea americana,species,Greater Rhea,1,-66.0985710053681,-13.7624439354359,South America,Bolivia,Bolivia - Santa Ana del Yacuma (Beni),2017-04-29,10:31
56792,Chauna torquata,species,Southern Screamer,8,-66.0985256959271,-13.7624558543305,South America,Bolivia,Bolivia - Santa Ana del Yacuma (Beni),2017-04-29,10:32
56793,Neochen jubata,species,Orinoco Goose,10,-66.0984785120574,-13.7624654320818,South America,Bolivia,Bolivia - Santa Ana del Yacuma (Beni),2017-04-29,10:32
56794,Mycteria americana,species,Wood Stork,19,-66.0984785120574,-13.7624654320818,South America,Bolivia,Bolivia - Santa Ana del Yacuma (Beni),2017-04-29,10:33
56795,Anhinga anhinga,species,Anhinga,1,-66.0984785120574,-13.7624654320818,South America,Bolivia,Bolivia - Santa Ana del Yacuma (Beni),2017-04-29,10:33
56796,Ardea cocoi,species,Cocoi Heron,5,-66.0984785120574,-13.7624654320818,South America,Bolivia,Bolivia - Santa Ana del Yacuma (Beni),2017-04-29,10:34
56797,Mesembrinibis cayennensis,species,Green Ibis,12,-66.0984785120574,-13.7624654320818,South America,Bolivia,Bolivia - Santa Ana del Yacuma (Beni),2017-04-29,10:35
56798,Phimosus infuscatus,species,Bare-faced Ibis,55,-66.0984785120574,-13.7624654320818,South America,Bolivia,Bolivia - Santa Ana del Yacuma (Beni),2017-04-29,10:36
56799,Opisthocomus hoazin,species,Hoatzin,11,-66.0984300257644,-13.762449769238,South America,Bolivia,Bolivia - Santa Ana del Yacuma (Beni),2017-04-29,10:42
56800,Ara ararauna,species,Blue-and-yellow Macaw,17,-66.0984175362585,-13.7624353682903,South America,Bolivia,Bolivia - Santa Ana del Yacuma (Beni),2017-04-29,10:56
56802,Donacobius atricapilla,species,Black-capped Donacobius,11,-66.0984669235102,-13.7624765526118,South America,Bolivia,Bolivia - Santa Ana del Yacuma (Beni),2017-04-29,11:03
56803,Dendrocygna autumnalis,species,Black-bellied Whistling Duck,11,-66.0952168139041,-13.7646518002314,South America,Bolivia,Bolivia - Santa Ana del Yacuma (Beni),2017-04-29,12:55
56804,Rhea americana,species,Greater Rhea,1,-66.0980553842297,-13.7638105116356,South America,Bolivia,Bolivia - Santa Ana del Yacuma (Beni),2017-04-29,13:06
56805,Opisthocomus hoazin,species,Hoatzin,3,-66.0984672513912,-13.762375433804,South America,Bolivia,Bolivia - Santa Ana del Yacuma (Beni),2017-04-29,13:46
56806,Mycteria americana,species,Wood Stork,4,-66.102769714256,-13.7427446575938,South America,Bolivia,Bolivia - Santa Ana del Yacuma (Beni),2017-04-29,17:31
56807,Coryphaspiza melanotis,species,Black-masked Finch,2,-66.1029030578483,-13.7414834206263,South America,Bolivia,Bolivia - Santa Ana del Yacuma (Beni),2017-04-29,17:44
56808,Coryphaspiza melanotis,species,Black-masked Finch,1,-66.1005984725895,-13.7410039456991,South America,Bolivia,Bolivia - Santa Ana del Yacuma (Beni),2017-04-29,18:11
56809,Neochen jubata,species,Orinoco Goose,2,-66.0982082375828,-13.7622838821988,South America,Bolivia,Bolivia - Santa Ana del Yacuma (Beni),2017-04-30,06:49
56810,Phimosus infuscatus,species,Bare-faced Ibis,1,-66.0982576419001,-13.7619745174994,South America,Bolivia,Bolivia - Santa Ana del Yacuma (Beni),2017-04-30,06:57
56811,Dendrocygna autumnalis,species,Black-bellied Whistling Duck,1,-66.098642783412,-13.7621840179052,South America,Bolivia,Bolivia - Santa Ana del Yacuma (Beni),2017-04-30,07:00
56812,Chauna torquata,species,Southern Screamer,1,-66.0968907381544,-13.7640153551543,South America,Bolivia,Bolivia - Santa Ana del Yacuma (Beni),2017-04-30,07:17
56813,Rhea americana,species,Greater Rhea,1,-66.0984049343355,-13.7624276927158,South America,Bolivia,Bolivia - Santa Ana del Yacuma (Beni),2017-04-30,09:34
56814,Chauna torquata,species,Southern Screamer,1,-66.1003882307848,-13.75934641348,South America,Bolivia,Bolivia - Santa Ana del Yacuma (Beni),2017-04-30,10:20
56815,Neochen jubata,species,Orinoco Goose,4,-66.0984745653443,-13.7624990029277,South America,Bolivia,Bolivia - Santa Ana del Yacuma (Beni),2017-05-01,09:15
56816,Dendrocygna autumnalis,species,Black-bellied Whistling Duck,15,-66.0984745653443,-13.7624990029277,South America,Bolivia,Bolivia - Santa Ana del Yacuma (Beni),2017-05-01,09:16
56817,Phimosus infuscatus,species,Bare-faced Ibis,1,-66.0984745653443,-13.7624990029277,South America,Bolivia,Bolivia - Santa Ana del Yacuma (Beni),2017-05-01,09:16
56818,Mesembrinibis cayennensis,species,Green Ibis,1,-66.0984745653443,-13.7624990029277,South America,Bolivia,Bolivia - Santa Ana del Yacuma (Beni),2017-05-01,09:17
56819,Ardea cocoi,species,Cocoi Heron,1,-66.0982760887942,-13.7619307612739,South America,Bolivia,Bolivia - Santa Ana del Yacuma (Beni),2017-05-01,10:33
7644,Ara chloropterus,species,Red-and-green Macaw,8,-67.6123,-14.5755,South America,Bolivia,Bolivia - San Buenaventura (La Paz),2017-04-23,11:32
7645,Thraupis episcopus,species,Blue-grey Tanager,1,-67.5273,-14.4368,South America,Bolivia,Bolivia - Dpto. Beni,2017-04-19,17:25
7647,Theristicus branickii,species,Andean Ibis,3,-68.0191,-16.2767,South America,Bolivia,Bolivia - Cotapata NP,2017-04-16,14:40
50727,Bubulcus ibis,species,Western Cattle Egret,21,-63.0700556219385,-17.766041208539,South America,Bolivia,Bolivia - Santa Cruz de la Sierra (Santa Cruz),2017-04-25,09:42
50728,Ardea alba,species,Great Egret,1,-63.0700791906846,-17.7659756073432,South America,Bolivia,Bolivia - Santa Cruz de la Sierra (Santa Cruz),2017-04-25,09:42
50729,Ardea cocoi,species,Cocoi Heron,1,-63.0700620108811,-17.7659748919939,South America,Bolivia,Bolivia - Santa Cruz de la Sierra (Santa Cruz),2017-04-25,09:42
50730,Megaceryle torquata,species,Ringed Kingfisher,2,-63.0700318345102,-17.765963445199,South America,Bolivia,Bolivia - Santa Cruz de la Sierra (Santa Cruz),2017-04-25,09:43
50731,Phimosus infuscatus,species,Bare-faced Ibis,1,-63.07003374,-17.76596324,South America,Bolivia,Bolivia - Santa Cruz de la Sierra (Santa Cruz),2017-04-25,09:43
50732,Nycticorax nycticorax,species,Black-crowned Night Heron,1,-63.0700329986228,-17.7659612165838,South America,Bolivia,Bolivia - Santa Cruz de la Sierra (Santa Cruz),2017-04-25,09:43
50733,Pyrocephalus rubinus,species,Scarlet Flycatcher,1,-63.06888167,-17.77248117,South America,Bolivia,Bolivia - Santa Cruz de la Sierra (Santa Cruz),2017-04-25,10:13
50734,Aramus guarauna,species,Limpkin,1,-63.0626113196667,-17.7782718049962,South America,Bolivia,Bolivia - Santa Cruz de la Sierra (Santa Cruz),2017-04-25,13:25
50735,Pyrocephalus rubinus,species,Scarlet Flycatcher,1,-63.06703949,-17.77357383,South America,Bolivia,Bolivia - Santa Cruz de la Sierra (Santa Cruz),2017-04-25,14:05
50736,Phimosus infuscatus,species,Bare-faced Ibis,1,-63.070041069083,-17.7659191185409,South America,Bolivia,Bolivia - Santa Cruz de la Sierra (Santa Cruz),2017-04-25,15:27
50737,Paroaria gularis,species,Red-capped Cardinal,1,-63.0700485039583,-17.765951962004,South America,Bolivia,Bolivia - Santa Cruz de la Sierra (Santa Cruz),2017-04-25,15:28
62915,Ardea cocoi,species,Cocoi Heron,1,-63.0700586793984,-17.7660705044151,South America,Bolivia,Bolivia - Santa Cruz de la Sierra (Santa Cruz),2017-04-24,11:47
62916,Ardea alba,species,Great Egret,5,-63.0700584683121,-17.76606831372,South America,Bolivia,Bolivia - Santa Cruz de la Sierra (Santa Cruz),2017-04-24,11:47
62917,Chloroceryle amazona,species,Amazon Kingfisher,1,-63.0701074446095,-17.7661202450423,South America,Bolivia,Bolivia - Santa Cruz de la Sierra (Santa Cruz),2017-04-24,11:55
62918,Megaceryle torquata,species,Ringed Kingfisher,1,-63.070089211846,-17.7661232240199,South America,Bolivia,Bolivia - Santa Cruz de la Sierra (Santa Cruz),2017-04-24,12:00
62919,Jacana jacana,species,Wattled Jacana,1,-63.0701191583761,-17.7661221152765,South America,Bolivia,Bolivia - Santa Cruz de la Sierra (Santa Cruz),2017-04-24,12:01
62920,Nycticorax nycticorax,species,Black-crowned Night Heron,2,-63.0700854283296,-17.7660940051403,South America,Bolivia,Bolivia - Santa Cruz de la Sierra (Santa Cruz),2017-04-24,12:05
62921,Phimosus infuscatus,species,Bare-faced Ibis,2,-63.07007234,-17.7660674,South America,Bolivia,Bolivia - Santa Cruz de la Sierra (Santa Cruz),2017-04-24,12:08
62922,Paroaria gularis,species,Red-capped Cardinal,1,-63.0700767793474,-17.7657904732367,South America,Bolivia,Bolivia - Santa Cruz de la Sierra (Santa Cruz),2017-04-24,12:14
78825,Volatinia jacarina,species,Blue-black Grassquit,19,-63.14535136,-17.65675449,South America,Bolivia,Bolivia - Warnes (Santa Cruz),2017-04-23,09:00
78896,Pyrocephalus rubinus,species,Scarlet Flycatcher,1,-63.14535136,-17.65675449,South America,Bolivia,Bolivia - Warnes (Santa Cruz),2017-04-23,09:00
98052,Thraupis bonariensis,species,Blue-and-yellow Tanager,1,-64.828750274522,-18.1356604455397,South America,Bolivia,Bolivia - Omereque (Cochabamba),2017-04-21,09:05
98053,Thraupis bonariensis,species,Blue-and-yellow Tanager,1,-64.8281076091573,-18.1364924653524,South America,Bolivia,Bolivia - Omereque (Cochabamba),2017-04-21,10:03
98054,Thraupis bonariensis,species,Blue-and-yellow Tanager,1,-64.8286676756416,-18.1357440906099,South America,Bolivia,Bolivia - Omereque (Cochabamba),2017-04-21,16:12
98055,Thraupis bonariensis,species,Blue-and-yellow Tanager,1,-64.8286395972904,-18.135728990337,South America,Bolivia,Bolivia - Omereque (Cochabamba),2017-04-21,16:17
98056,Thraupis bonariensis,species,Blue-and-yellow Tanager,1,-64.8268316754353,-18.1361741332337,South America,Bolivia,Bolivia - Omereque (Cochabamba),2017-04-22,08:41
20559,Caracara plancus,species,Southern Crested Caracara,1,-63.1596846927345,-17.9350608314361,South America,Bolivia,Bolivia - La Guardia (Santa Cruz),2017-04-18,09:23
20560,Cyanocorax chrysops,species,Plush-crested Jay,1,-63.164052950733,-17.943491835382,South America,Bolivia,Bolivia - La Guardia (Santa Cruz),2017-04-18,10:21
20561,Cariama cristata,species,Red-legged Seriema,2,-63.163245110384,-17.9443192536517,South America,Bolivia,Bolivia - La Guardia (Santa Cruz),2017-04-18,10:35
20562,Volatinia jacarina,species,Blue-black Grassquit,1,-63.1586746478489,-17.9467613203869,South America,Bolivia,Bolivia - La Guardia (Santa Cruz),2017-04-18,11:10
20563,Cariama cristata,species,Red-legged Seriema,2,-63.1588149511659,-17.9467546570637,South America,Bolivia,Bolivia - La Guardia (Santa Cruz),2017-04-18,11:16
20564,Coragyps atratus,species,Black Vulture,81,-63.1582863725702,-17.9492144158092,South America,Bolivia,Bolivia - La Guardia (Santa Cruz),2017-04-18,11:49
20565,Pyrocephalus rubinus,species,Scarlet Flycatcher,1,-63.16416504,-17.94301006,South America,Bolivia,Bolivia - La Guardia (Santa Cruz),2017-04-18,12:14
20566,Cariama cristata,species,Red-legged Seriema,2,-63.1598802468768,-17.9342013244386,South America,Bolivia,Bolivia - La Guardia (Santa Cruz),2017-04-18,12:56
20567,Colaptes campestris,species,Campo Flicker,2,-63.1648107368436,-17.9128748933638,South America,Bolivia,Bolivia - La Guardia (Santa Cruz),2017-04-18,14:37
20568,Athene cunicularia,species,Burrowing Owl,4,-63.1661924457189,-17.9128809665067,South America,Bolivia,Bolivia - La Guardia (Santa Cruz),2017-04-18,14:54
20569,Falco sparverius,species,American Kestrel,1,-63.1770158339235,-17.8974034357176,South America,Bolivia,Bolivia - La Guardia (Santa Cruz),2017-04-18,15:44
20570,Volatinia jacarina,species,Blue-black Grassquit,6,-63.1780764051116,-17.895950493854,South America,Bolivia,Bolivia - La Guardia (Santa Cruz),2017-04-18,15:56
20571,Pyrocephalus rubinus,species,Scarlet Flycatcher,1,-63.17999236,-17.89177052,South America,Bolivia,Bolivia - La Guardia (Santa Cruz),2017-04-18,16:06
20572,Thraupis sayaca,species,Sayaca Tanager,1,-63.1831695254296,-17.881840811127,South America,Bolivia,Bolivia - Santa Cruz de la Sierra (Santa Cruz),2017-04-18,16:23
50382,Ardea alba,species,Great Egret,1,-63.069399619601,-17.765692043291,South America,Bolivia,Bolivia - Santa Cruz de la Sierra (Santa Cruz),2017-04-17,09:07
50383,Nycticorax nycticorax,species,Black-crowned Night Heron,3,-63.0693951851504,-17.765686019116,South America,Bolivia,Bolivia - Santa Cruz de la Sierra (Santa Cruz),2017-04-17,09:07
50384,Ardea cocoi,species,Cocoi Heron,1,-63.0693727556312,-17.7656850377292,South America,Bolivia,Bolivia - Santa Cruz de la Sierra (Santa Cruz),2017-04-17,09:09
50385,Paroaria gularis,species,Red-capped Cardinal,2,-63.0694102026094,-17.7672748406415,South America,Bolivia,Bolivia - Santa Cruz de la Sierra (Santa Cruz),2017-04-17,09:24
50386,Momotus momota,species,Amazonian Motmot,2,-63.0693794160548,-17.7672218769816,South America,Bolivia,Bolivia - Santa Cruz de la Sierra (Santa Cruz),2017-04-17,09:28
50387,Pionus maximiliani,species,Scaly-headed Parrot,3,-63.0693688266339,-17.7677308286524,South America,Bolivia,Bolivia - Santa Cruz de la Sierra (Santa Cruz),2017-04-17,09:35
50388,Aramus guarauna,species,Limpkin,1,-63.070874976234,-17.7725254379252,South America,Bolivia,Bolivia - Santa Cruz de la Sierra (Santa Cruz),2017-04-17,10:02
50389,Dendrocygna bicolor,species,Fulvous Whistling Duck,6,-63.0947189765369,-17.7777655623976,South America,Bolivia,Bolivia - Santa Cruz de la Sierra (Santa Cruz),2017-04-17,17:17
50390,Dendrocygna viduata,species,White-faced Whistling Duck,16,-63.0946649866089,-17.7789086053903,South America,Bolivia,Bolivia - Santa Cruz de la Sierra (Santa Cruz),2017-04-17,17:39
50391,Aramus guarauna,species,Limpkin,2,-63.0946608623066,-17.7789478473535,South America,Bolivia,Bolivia - Santa Cruz de la Sierra (Santa Cruz),2017-04-17,17:40
69390,Milvago chimachima,species,Yellow-headed Caracara,1,-63.16378723,-17.91734838,South America,Bolivia,Bolivia - La Guardia (Santa Cruz),2017-04-16,17:07
69391,Athene cunicularia,species,Burrowing Owl,1,-63.1615646682534,-17.915995009279,South America,Bolivia,Bolivia - La Guardia (Santa Cruz),2017-04-16,18:37
100917,Phrygilus atriceps,species,Black-hooded Sierra Finch,8,-67.6269,-20.2408,South America,Bolivia,Bolivia - Salar de Uyuni,2017-04-14,07:32
100918,Phoenicoparrus jamesi,species,James's Flamingo,50,-67.9382,-21.7374,South America,Bolivia,"Bolivia - Colcha ""K"" (Potosí)",2017-04-13,10:15
100919,Phoenicoparrus jamesi,species,James's Flamingo,500,-67.7976,-22.2135,South America,Bolivia,Bolivia - Laguna Colorada,2017-04-12,15:36
100920,Phoenicoparrus jamesi,species,James's Flamingo,6,-67.4127,-22.4815,South America,Bolivia,Bolivia - Eduardo Avaroa National Reserve of Andean Fauna,2017-04-12,09:14
54980,Phrygilus atriceps,species,Black-hooded Sierra Finch,10,-67.59426288,-20.16982351,South America,Bolivia,Bolivia - Salar de Uyuni,2017-01-18,
81153,Spatula puna,species,Puna Teal,2,-67.51326608,-22.58400094,South America,Bolivia,Bolivia - Eduardo Avaroa National Reserve of Andean Fauna,2016-12-24,
81626,Lagidium viscacia,species,Southern Viscacha,2,-68.0148185,-21.86884012,South America,Bolivia,"Bolivia - Colcha ""K"" (Potosí)",2016-12-24,
111857,Sicalis flaveola,species,Saffron Finch,1,-63.2043,-17.7529,South America,Bolivia,Bolivia - Santa Cruz de la Sierra (Santa Cruz),2016-11-13,11:51
119038,Veniliornis passerinus,species,Little Woodpecker,1,-63.0683,-17.7803,South America,Bolivia,Bolivia - Santa Cruz de la Sierra (Santa Cruz),2016-11-26,12:24
119040,Falco sparverius,species,American Kestrel,2,-63.1699,-17.9104,South America,Bolivia,Bolivia - La Guardia (Santa Cruz),2016-11-25,08:59
119041,Athene cunicularia,species,Burrowing Owl,1,-63.1663,-17.911,South America,Bolivia,Bolivia - La Guardia (Santa Cruz),2016-11-25,08:28
119042,Coragyps atratus,species,Black Vulture,4,-63.1663,-17.911,South America,Bolivia,Bolivia - La Guardia (Santa Cruz),2016-11-25,08:28
119043,Thraupis sayaca,species,Sayaca Tanager,2,-63.1944,-17.7963,South America,Bolivia,Bolivia - Santa Cruz de la Sierra (Santa Cruz),2016-11-25,06:45
119044,Icterus pyrrhopterus periporphyrus,subspecies,Variable Oriole ssp periporphyrus,1,-63.6273,-18.1347,South America,Bolivia,Bolivia - Samaipata (Santa Cruz),2016-11-24,16:49
119045,Plecturocebus donacophilus,species,Bolivian Grey Titi Monkey,1,-63.0696,-17.7727,South America,Bolivia,Bolivia - Santa Cruz de la Sierra (Santa Cruz),2016-11-15,10:49
119048,Knipolegus aterrimus,species,White-winged Black Tyrant,1,-66.218,-17.4023,South America,Bolivia,Bolivia - Colcapirhua (Cochabamba),2016-11-18,15:29
119049,Zonotrichia capensis,species,Rufous-collared Sparrow,1,-66.2173,-17.4005,South America,Bolivia,Bolivia - Colcapirhua (Cochabamba),2016-11-18,15:21
119050,Knipolegus aterrimus,species,White-winged Black Tyrant,1,-66.1304,-17.4094,South America,Bolivia,Bolivia - Cochabamba - Laguna Alalay,2016-11-17,17:13
119051,Zonotrichia capensis,species,Rufous-collared Sparrow,1,-66.1524,-17.3707,South America,Bolivia,Bolivia - Cochabamba (Cochabamba),2016-11-17,10:41
119052,Zonotrichia capensis,species,Rufous-collared Sparrow,1,-66.2191,-17.3988,South America,Bolivia,Bolivia - Colcapirhua (Cochabamba),2016-11-16,16:28
119053,Colaptes melanochloros,species,Green-barred Woodpecker,1,-66.2178,-17.4061,South America,Bolivia,Bolivia - Colcapirhua (Cochabamba),2016-11-16,18:36
119055,Chloroceryle amazona,species,Amazon Kingfisher,1,-63.0696,-17.7658,South America,Bolivia,Bolivia - Santa Cruz de la Sierra (Santa Cruz),2016-11-15,16:50
119056,Bubulcus ibis,species,Western Cattle Egret,1,-63.0694,-17.7672,South America,Bolivia,Bolivia - Santa Cruz de la Sierra (Santa Cruz),2016-11-15,15:41
119057,Trogon curucui,species,Blue-crowned Trogon,1,-63.0691,-17.768,South America,Bolivia,Bolivia - Santa Cruz de la Sierra (Santa Cruz),2016-11-15,15:35
119058,Momotus momota,species,Amazonian Motmot,1,-63.069,-17.7674,South America,Bolivia,Bolivia - Santa Cruz de la Sierra (Santa Cruz),2016-11-15,10:09
119059,Nycticorax nycticorax,species,Black-crowned Night Heron,2,-63.0707,-17.7664,South America,Bolivia,Bolivia - Santa Cruz de la Sierra (Santa Cruz),2016-11-15,09:48
119060,Ardea alba,species,Great Egret,1,-63.0707,-17.7664,South America,Bolivia,Bolivia - Santa Cruz de la Sierra (Santa Cruz),2016-11-15,09:48
119061,Coragyps atratus,species,Black Vulture,27,-63.1621,-17.9403,South America,Bolivia,Bolivia - La Guardia (Santa Cruz),2016-11-14,09:02
119062,Thraupis sayaca,species,Sayaca Tanager,1,-63.1594,-17.9301,South America,Bolivia,Bolivia - La Guardia (Santa Cruz),2016-11-14,10:28
119063,Athene cunicularia,species,Burrowing Owl,10,-63.1566,-17.9378,South America,Bolivia,Bolivia - La Guardia (Santa Cruz),2016-11-14,09:56
119064,Athene cunicularia,species,Burrowing Owl,2,-63.1593,-17.9337,South America,Bolivia,Bolivia - La Guardia (Santa Cruz),2016-11-14,08:37
119065,Falco sparverius,species,American Kestrel,1,-63.16,-17.931,South America,Bolivia,Bolivia - La Guardia (Santa Cruz),2016-11-14,08:14
119066,Guira guira,species,Guira Cuckoo,2,-63.203,-17.7612,South America,Bolivia,Bolivia - Santa Cruz de la Sierra (Santa Cruz),2016-11-13,17:25
119067,Colaptes campestris,species,Campo Flicker,3,-63.2167,-17.7555,South America,Bolivia,Bolivia - Dpto. Santa Cruz,2016-11-13,14:07
119068,Paroaria coronata,species,Red-crested Cardinal,1,-63.2002,-17.7577,South America,Bolivia,Bolivia - Santa Cruz de la Sierra (Santa Cruz),2016-11-13,11:07
119069,Guira guira,species,Guira Cuckoo,2,-63.2168,-17.7536,South America,Bolivia,Bolivia - Dpto. Santa Cruz,2016-11-13,14:31
119070,Melanerpes cruentatus,species,Yellow-tufted Woodpecker,2,-63.2167,-17.7555,South America,Bolivia,Bolivia - Dpto. Santa Cruz,2016-11-13,14:07
119071,Platalea ajaja,species,Roseate Spoonbill,7,-63.2133,-17.7498,South America,Bolivia,Bolivia - Dpto. Santa Cruz,2016-11-13,13:21
119072,Ardea cocoi,species,Cocoi Heron,1,-63.2059,-17.7533,South America,Bolivia,Bolivia - Santa Cruz de la Sierra (Santa Cruz),2016-11-13,12:55
119073,Furnarius rufus,species,Rufous Hornero,1,-63.2043,-17.7529,South America,Bolivia,Bolivia - Santa Cruz de la Sierra (Santa Cruz),2016-11-13,11:51
119074,Coragyps atratus,species,Black Vulture,1,-63.2025,-17.7649,South America,Bolivia,Bolivia - Santa Cruz de la Sierra (Santa Cruz),2016-11-13,08:55
88000,Phoenicoparrus andinus,species,Andean Flamingo,1,-67.804855853319,-22.170993017563,South America,Bolivia,Bolivia - Laguna Colorada,2014-04-30,
88004,Phoenicopterus chilensis,species,Chilean Flamingo,1,-67.804855853319,-22.170993017563,South America,Bolivia,Bolivia - Laguna Colorada,2014-04-30,
118578,Accipiter ventralis,species,Plain-breasted Hawk,1,-68.648271113634,-15.775239757152,South America,Bolivia,Bolivia - Sorata (La Paz),1992-08-09,
118765,Gallinula galeata,species,Common Gallinule,50,-67.126346826553,-18.009105542951,South America,Bolivia,Bolivia - Oruro (Oruro),1992-08-04,
9767,Cinclodes albiventris,species,Cream-winged Cinclodes,10,-69.07925516367,-16.16010858516,South America,Bolivia,Bolivia - Copacabana (La Paz),1992-07-15,
5541,Busarellus nigricollis,species,Black-collared Hawk,1,-64.996929941699,-15.143134925369,South America,Bolivia,Bolivia - Beni - Marbán,1995-08-10,
5574,Milvago chimachima,species,Yellow-headed Caracara,1,-64.925518808886,-15.354251001758,South America,Bolivia,Bolivia - Beni - Marbán,1995-08-10,
5662,Mycteria americana,species,Wood Stork,1,-64.91447758,-15.32074419,South America,Bolivia,Bolivia - Beni - Marbán,1995-08-09,
5665,Ardea cocoi,species,Cocoi Heron,1,-64.988690195605,-15.079496246083,South America,Bolivia,Bolivia - Beni - Marbán,1995-08-09,
5697,Coragyps atratus,species,Black Vulture,1,-65.027142344043,-14.956593451194,South America,Bolivia,Bolivia - San Ignacio (Beni),1995-08-08,
5706,Mycteria americana,species,Wood Stork,1,-64.69112551,-16.01123197,South America,Bolivia,Bolivia - Yapacani (Santa Cruz),1995-08-08,
5710,Milvago chimachima,species,Yellow-headed Caracara,1,-65.027142344043,-14.956593451194,South America,Bolivia,Bolivia - San Ignacio (Beni),1995-08-08,
5742,Ardea herodias,species,Great Blue Heron,1,-65.027142344043,-14.956593451194,South America,Bolivia,Bolivia - San Ignacio (Beni),1995-08-08,
5767,Coragyps atratus,species,Black Vulture,1,-65.027142344043,-14.956593451194,South America,Bolivia,Bolivia - San Ignacio (Beni),1995-08-07,
5771,Ardea alba,species,Great Egret,1,-65.027142344043,-14.956593451194,South America,Bolivia,Bolivia - San Ignacio (Beni),1995-08-07,
5781,Megaceryle torquata,species,Ringed Kingfisher,1,-65.053564533591,-14.784443316855,South America,Bolivia,Bolivia - Trinidad (Beni),1995-08-07,
41327,Charadrius alticola,species,Puna Plover,1,-67.739403247833,-22.217930098556,South America,Bolivia,Bolivia - Laguna Colorada,2013-12-04,
41869,Theristicus branickii,species,Andean Ibis,1,-68.041476309299,-16.339909087389,South America,Bolivia,Bolivia - La Paz (La Paz),2013-11-24,
42215,Rollandia rolland,species,White-tufted Grebe,1,-69.136018753052,-16.101278102067,South America,Bolivia,Bolivia - Lago Titicaca,2013-11-23,
42218,Rollandia microptera,species,Titicaca Grebe,1,-69.136018753052,-16.101278102067,South America,Bolivia,Bolivia - Lago Titicaca,2013-11-23,
48718,Cinclodes albiventris albiventris,subspecies,Cream-winged Cinclodes ssp albiventris,1,-66.151829,-17.348017,South America,Bolivia,Bolivia - Cochabamba (Cochabamba),1991-12-05,
80785,Cinclodes albiventris,species,Cream-winged Cinclodes,1,-66.1431884766,-17.4069942342,South America,Bolivia,Bolivia - Cochabamba - Laguna Alalay,1997-07-18,
115699,Cochlearius cochlearius,species,Boat-billed Heron,1,-66.7975,-14.1319,South America,Bolivia,Bolivia - Beni - José Ballivián,2015-09-23,14:53
115700,Anhinga anhinga,species,Anhinga,1,-66.7952,-14.1278,South America,Bolivia,Bolivia - Beni - José Ballivián,2015-09-23,14:40
115701,Opisthocomus hoazin,species,Hoatzin,1,-66.7978,-14.1234,South America,Bolivia,Bolivia - Beni - José Ballivián,2015-09-23,14:28
115702,Jabiru mycteria,species,Jabiru,1,-66.9287,-14.0819,South America,Bolivia,Bolivia - Beni - José Ballivián,2015-09-23,10:17
115703,Caracara plancus,species,Southern Crested Caracara,1,-67.3674,-14.3098,South America,Bolivia,Bolivia - Beni - José Ballivián,2015-09-23,07:15
115704,Crotophaga ani,species,Smooth-billed Ani,1,-67.4309,-14.3876,South America,Bolivia,Bolivia - Beni - José Ballivián,2015-09-23,06:48
9889,Neochen jubata,species,Orinoco Goose,1,-67.7027,-14.5532,South America,Bolivia,Bolivia - San Buenaventura (La Paz),2015-09-21,08:34
9891,Trogon ramonianus,species,Amazonian Trogon,1,-67.8851,-14.457,South America,Bolivia,Bolivia - Apolo (La Paz),2015-09-19,14:33
9892,Neochen jubata,species,Orinoco Goose,1,-67.6253,-14.5715,South America,Bolivia,Bolivia - San Buenaventura (La Paz),2015-09-18,11:09
9893,Ara chloropterus,species,Red-and-green Macaw,1,-67.6091,-14.5896,South America,Bolivia,Bolivia - Madidi NP,2015-09-18,10:54
9895,Tachycineta albiventer,species,White-winged Swallow,1,-67.5424,-14.5914,South America,Bolivia,Bolivia - San Buenaventura (La Paz),2015-09-18,10:16
9896,Rynchops niger,species,Black Skimmer,1,-67.5391,-14.592,South America,Bolivia,Bolivia - San Buenaventura (La Paz),2015-09-18,10:14
116427,Zonotrichia capensis,species,Rufous-collared Sparrow,1,-66.1451911961,-17.3933901424,South America,Bolivia,Bolivia - Cochabamba (Cochabamba),2015-09-10,
81620,Icterus pyrrhopterus periporphyrus,subspecies,Variable Oriole ssp periporphyrus,1,-63.0636973679,-17.777581951,South America,Bolivia,Bolivia - Santa Cruz de la Sierra (Santa Cruz),2002-11-26,
77014,Cinclodes albiventris,species,Cream-winged Cinclodes,1,-69.1763162613,-16.0194365512,South America,Bolivia,Bolivia - Copacabana (La Paz),2002-05-12,
77443,Basileuterus punctipectus,species,Yungas Warbler,1,-67.7855855227,-16.2718659256,South America,Bolivia,Bolivia - Dpto. La Paz,2002-05-08,
98470,Basileuterus punctipectus,species,Yungas Warbler,1,-67.7902203798,-16.2273689007,South America,Bolivia,Bolivia - Dpto. La Paz,2002-05-07,
60040,Cinclodes albiventris,species,Cream-winged Cinclodes,1,-67.7617835999,-21.0743290167,South America,Bolivia,"Bolivia - Colcha ""K"" (Potosí)",2002-05-02,
60820,Cinclodes albiventris,species,Cream-winged Cinclodes,1,-67.955789119,-16.3200577244,South America,Bolivia,Bolivia - Cotapata NP,2002-05-01,
60996,Cinclodes albiventris,species,Cream-winged Cinclodes,1,-68.0197316408,-16.3226131799,South America,Bolivia,Bolivia - La Paz (La Paz),2002-05-01,
92040,Cinclodes albiventris,species,Cream-winged Cinclodes,1,-66.4565241337,-17.2844360136,South America,Bolivia,Bolivia - Vinto (Cochabamba),2002-04-26,
92080,Cinclodes albiventris,species,Cream-winged Cinclodes,1,-66.2944757938,-17.2883697975,South America,Bolivia,Bolivia - Quillacollo (Cochabamba),2002-04-25,
72217,Recurvirostra andina,species,Andean Avocet,1,-67.60664979,-22.54835338,South America,Bolivia,Bolivia - Eduardo Avaroa National Reserve of Andean Fauna,2008-12-29,
72286,Recurvirostra andina,species,Andean Avocet,1,-68.0368400272,-21.5751506268,South America,Bolivia,"Bolivia - Colcha ""K"" (Potosí)",2008-12-29,
111276,Phrygilus atriceps,species,Black-hooded Sierra Finch,10,-67.6274978835,-20.2412053742,South America,Bolivia,Bolivia - Salar de Uyuni,2014-07-29,10:00
111284,Coragyps atratus,species,Black Vulture,10,-67.7190754563,-16.1943787942,South America,Bolivia,Bolivia - Dpto. La Paz,2014-07-19,09:00
111357,Rollandia microptera,species,Titicaca Grebe,1,-69.0909075178,-16.1661614225,South America,Bolivia,Bolivia - Lago Titicaca,2014-08-01,12:00
111596,Thraupis sayaca,species,Sayaca Tanager,2,-67.7280109841,-16.1888688383,South America,Bolivia,Bolivia - Dpto. La Paz,2014-07-19,12:00
111688,Phrygilus dorsalis,species,Red-backed Sierra Finch,1,-68.0096456129,-21.5014604254,South America,Bolivia,"Bolivia - Colcha ""K"" (Potosí)",2014-07-28,12:00
111713,Zonotrichia capensis pulacayensis,subspecies,Rufous-collared Sparrow ssp pulacayensis,1,-68.1272819359,-16.5137262669,South America,Bolivia,Bolivia - La Paz (La Paz),2014-07-16,12:00
111744,Spatula puna,species,Puna Teal,4,-69.1819801647,-15.9973053508,South America,Bolivia,Bolivia - Copacabana (La Paz),2014-08-03,12:00
111823,Phrygilus unicolor,species,Plumbeous Sierra Finch,2,-65.4048880655,-18.9892777979,South America,Bolivia,Bolivia - Sucre (Chuquisaca),2014-07-23,16:00
111955,Cathartes aura,species,Turkey Vulture,1,-65.4092251137,-18.9883395046,South America,Bolivia,Bolivia - Sucre (Chuquisaca),2014-07-23,12:00
112053,Phoenicoparrus jamesi,species,James's Flamingo,20,-68.0619298294,-21.6202898757,South America,Bolivia,"Bolivia - Colcha ""K"" (Potosí)",2014-07-28,12:00
112099,Phoenicoparrus jamesi,species,James's Flamingo,50,-68.0109963566,-21.5018799501,South America,Bolivia,"Bolivia - Colcha ""K"" (Potosí)",2014-07-28,12:00
112106,Phoenicoparrus jamesi,species,James's Flamingo,100,-68.0425284058,-21.5727859494,South America,Bolivia,"Bolivia - Colcha ""K"" (Potosí)",2014-07-28,12:00
112268,Geranoaetus melanoleucus,species,Black-chested Buzzard-Eagle,2,-65.414902512,-19.0307757227,South America,Bolivia,Bolivia - Sucre (Chuquisaca),2014-07-23,12:00
112276,Sicalis luteocephala,species,Citron-headed Yellow Finch,10,-65.4180138744,-19.0628480786,South America,Bolivia,Bolivia - Sucre (Chuquisaca),2014-07-24,12:00
112286,Anas flavirostris,species,Yellow-billed Teal,1,-67.8078599274,-22.1746492578,South America,Bolivia,Bolivia - Laguna Colorada,2014-07-28,08:00
112291,Rhea pennata garleppi,subspecies,Lesser Rhea ssp garleppi,1,-66.5837359428,-21.6522928063,South America,Bolivia,Bolivia - San Pablo de Lípez (Potosí),2014-07-26,12:00
113117,Turdus chiguanco,species,Chiguanco Thrush,1,-68.1269359309,-16.5108203682,South America,Bolivia,Bolivia - La Paz (La Paz),2014-07-16,12:00
113153,Oreopholus ruficollis,species,Tawny-throated Dotterel,3,-69.1900473274,-16.0009769128,South America,Bolivia,Bolivia - Copacabana (La Paz),2014-08-02,12:00
113308,Recurvirostra andina,species,Andean Avocet,50,-68.0486150086,-21.572646579,South America,Bolivia,"Bolivia - Colcha ""K"" (Potosí)",2014-07-28,10:00
113317,Recurvirostra andina,species,Andean Avocet,1,-67.8069875389,-22.1734567055,South America,Bolivia,Bolivia - Laguna Colorada,2014-07-28,12:00
113325,Vanellus resplendens,species,Andean Lapwing,1,-68.674939815,-16.5578185949,South America,Bolivia,Bolivia - Tiahuanacu (La Paz),2014-07-31,12:00
113364,Lophonetta specularioides alticola,subspecies,Crested Duck ssp alticola,2,-66.3321625069,-21.3910755339,South America,Bolivia,Bolivia - Dpto. Potosí,2014-07-27,12:00
113444,Phalcoboenus megalopterus,species,Mountain Caracara,2,-69.1893048584,-16.0021738008,South America,Bolivia,Bolivia - Copacabana (La Paz),2014-08-02,11:00
56627,Pyrocephalus rubinus,species,Scarlet Flycatcher,1,-64.4756,-18.23382,South America,Bolivia,Bolivia - Omereque (Cochabamba),2011-08-17,
56845,Caracara plancus,species,Southern Crested Caracara,1,-64.82412,-18.13263,South America,Bolivia,Bolivia - Omereque (Cochabamba),2011-08-16,
58353,Hirundinea ferruginea,species,Cliff Flycatcher,1,-64.64003,-18.28503,South America,Bolivia,Bolivia - Pasorapa (Cochabamba),2011-07-27,
58366,Polioptila dumicola,species,Masked Gnatcatcher,1,-64.65738,-18.37595,South America,Bolivia,Bolivia - Pasorapa (Cochabamba),2011-07-27,
58388,Coragyps atratus,species,Black Vulture,1,-64.65738,-18.37595,South America,Bolivia,Bolivia - Pasorapa (Cochabamba),2011-07-26,
58486,Thraupis sayaca,species,Sayaca Tanager,1,-66.1529638544,-17.3748969306,South America,Bolivia,Bolivia - Cochabamba (Cochabamba),2011-07-24,
58514,Cathartes aura,species,Turkey Vulture,1,-64.91614,-18.40602,South America,Bolivia,Bolivia - Aiquile (Cochabamba),2011-07-21,
58559,Saltator aurantiirostris,species,Golden-billed Saltator,1,-64.91614,-18.40602,South America,Bolivia,Bolivia - Aiquile (Cochabamba),2011-07-21,
