,scientificName,taxonRank,vernacularName,individualCount,longitudeDecimal,latitudeDecimal,continent,country,locality,eventDate,eventTime
38195,Macaca fascicularis,species,Long-tailed Macaque,1,103.865897655,13.4133296615,Asia,Cambodia,Cambodia - Siemréab,2014-02-05,12:22
41421,Copsychus saularis,species,Oriental Magpie-Robin,2,104.93124783,11.5626039993,Asia,Cambodia,Cambodia - Phnom Penh,2014-01-31,17:02
41423,Acridotheres tristis,species,Common Myna,1,104.931494594,11.5620206322,Asia,Cambodia,Cambodia - Phnom Penh,2014-01-31,17:17
41458,Passer montanus malaccensis,subspecies,Eurasian Tree Sparrow ssp malaccensis,1,104.931591153,11.561938295,Asia,Cambodia,Cambodia - Phnom Penh,2014-01-31,17:03
41488,Macaca fascicularis,species,Long-tailed Macaque,1,104.931730628,11.5631400653,Asia,Cambodia,Cambodia - Phnom Penh,2014-01-31,14:31
57803,Kaloula pulchra,species,Banded Bullfrog,1,103.865654524,13.3537285136,Asia,Cambodia,Cambodia - Siemréab,2015-02-26,07:00
62834,Orcaella brevirostris,species,Irrawaddy Dolphin,1,106.003764868,12.6269326561,Asia,Cambodia,Cambodia - Krâchéh,2007-12-25,13:05
64030,Trithemis pallidinervis,species,,1,103.859063499,13.447017192,Asia,Cambodia,Cambodia - Siemréab,2015-02-25,16:00
64048,Cyornis hainanus,species,Hainan Blue Flycatcher,1,103.878536671,13.4465993141,Asia,Cambodia,Cambodia - Siemréab,2015-02-25,10:00
64055,Brachythemis contaminata,species,Asian Amberwing,1,103.864266984,13.4131124259,Asia,Cambodia,Cambodia - Siemréab,2015-02-25,09:00
64056,Crocothemis servilia,species,Oriental Scarlet,1,103.864266984,13.4131124259,Asia,Cambodia,Cambodia - Siemréab,2015-02-25,09:00
71528,Acridotheres tristis,species,Common Myna,1,103.865640275,13.3538276003,Asia,Cambodia,Cambodia - Siemréab,2015-02-24,09:00
71529,Brachythemis contaminata,species,Asian Amberwing,1,103.861008938,13.3633267603,Asia,Cambodia,Cambodia - Siemréab,2015-02-22,10:00
71530,Crocothemis servilia,species,Oriental Scarlet,1,103.861008938,13.3633267603,Asia,Cambodia,Cambodia - Siemréab,2015-02-22,10:00
71531,Hylarana erythraea,species,Common Green Frog,1,103.972778432,13.3360288701,Asia,Cambodia,Cambodia - Siemréab,2015-02-22,11:00
71533,Macaca fascicularis,species,Long-tailed Macaque,1,103.859367594,13.4262928011,Asia,Cambodia,Cambodia - Siemréab,2015-02-23,15:00
71534,Crocothemis servilia,species,Oriental Scarlet,1,103.872392401,13.4622303516,Asia,Cambodia,Cambodia - Siemréab,2015-02-23,15:00
71535,Pycnonotus flaviventris,species,Black-crested Bulbul,1,103.872392401,13.4622303516,Asia,Cambodia,Cambodia - Siemréab,2015-02-23,15:00
71542,Gracula religiosa,species,Common Hill Myna,1,103.856338374,13.4452537197,Asia,Cambodia,Cambodia - Siemréab,2015-02-23,11:00
71590,Pycnonotus flaviventris,species,Black-crested Bulbul,1,103.862185478,13.4486187298,Asia,Cambodia,Cambodia - Siemréab,2014-02-08,17:30
89967,Coracina macei,species,Large Cuckooshrike,1,106.953452937,13.7518386938,Asia,Cambodia,Cambodia - Rôtânôkiri,2015-02-19,10:00
89976,Coracias affinis,species,Indochinese Roller,1,106.165480614,13.4376885436,Asia,Cambodia,Cambodia - Stng Trêng,2015-02-21,10:00
89982,Gekko gecko,species,Tokay Gecko,1,107.027192563,13.7501395292,Asia,Cambodia,Cambodia - Rôtânôkiri,2015-02-20,18:00
94554,Acridotheres tristis,species,Common Myna,1,103.840485513,13.3003428085,Asia,Cambodia,Cambodia - Siemréab,2014-12-14,
94650,Dicrurus macrocercus,species,Black Drongo,1,103.840485513,13.3003428085,Asia,Cambodia,Cambodia - Siemréab,2014-12-14,
94827,Coracias affinis,species,Indochinese Roller,1,103.840485513,13.3003428085,Asia,Cambodia,Cambodia - Siemréab,2014-12-14,
95187,Psittacula alexandri,species,Red-breasted Parakeet,10,103.889279589,13.434578533,Asia,Cambodia,Cambodia - Siemréab,2014-12-13,
95327,Copsychus saularis,species,Oriental Magpie-Robin,1,104.928749911,11.5655760103,Asia,Cambodia,Cambodia - Phnom Penh,2014-12-26,
108888,Libellago lineata,species,,1,106.9768418,13.6674319221,Asia,Cambodia,Cambodia - Rôtânôkiri,2015-02-19,11:00
108944,Coracias affinis,species,Indochinese Roller,2,106.955216154,13.7377589476,Asia,Cambodia,Cambodia - Rôtânôkiri,2015-02-19,09:00
116026,Phaenicophaeus tristis,species,Green-billed Malkoha,1,107.026548833,13.7501812146,Asia,Cambodia,Cambodia - Rôtânôkiri,2015-02-18,15:00
116268,Larvivora cyane,species,Siberian Blue Robin,1,107.027636468,13.7495552807,Asia,Cambodia,Cambodia - Rôtânôkiri,2015-02-18,17:00
117133,Cyornis unicolor,species,Pale Blue Flycatcher,1,107.026977986,13.7504730126,Asia,Cambodia,Cambodia - Rôtânôkiri,2015-02-18,09:00
1464,Coracias affinis,species,Indochinese Roller,1,107.019568384,13.7465539013,Asia,Cambodia,Cambodia - Rôtânôkiri,2015-02-15,16:00
1465,Libellago lineata,species,,1,107.012515515,13.7272530968,Asia,Cambodia,Cambodia - Rôtânôkiri,2015-02-15,15:00
33087,Coracias affinis,species,Indochinese Roller,1,105.111125708,11.6697154646,Asia,Cambodia,Cambodia - Kândal,2015-02-13,12:00
47190,Acridotheres tristis,species,Common Myna,7,104.869995117,11.5284699008,Asia,Cambodia,Cambodia - Phnom Penh,2015-02-12,
47271,Macaca fascicularis,species,Long-tailed Macaque,1,104.768371582,11.8028342335,Asia,Cambodia,Cambodia - Kândal,2015-02-12,
47733,Coracias affinis,species,Indochinese Roller,4,104.595336914,12.3775629111,Asia,Cambodia,Cambodia - Kâmpóng Chhnang,2015-02-12,
54103,Acridotheres tristis,species,Common Myna,1,104.930448756,11.564398612,Asia,Cambodia,Cambodia - Phnom Penh,2015-02-11,09:00
54104,Pycnonotus goiavier,species,Yellow-vented Bulbul,1,104.930448756,11.564398612,Asia,Cambodia,Cambodia - Phnom Penh,2015-02-11,09:00
54106,Copsychus saularis,species,Oriental Magpie-Robin,1,104.930448756,11.564398612,Asia,Cambodia,Cambodia - Phnom Penh,2015-02-11,09:00
54107,Macaca fascicularis,species,Long-tailed Macaque,1,104.926389568,11.5684770303,Asia,Cambodia,Cambodia - Phnom Penh,2015-02-11,09:00
58791,Coracias affinis,species,Indochinese Roller,1,104.737531543,11.8270271461,Asia,Cambodia,Cambodia - Kâmpóng Chhnang,2015-02-10,17:00
58796,Acridotheres tristis,species,Common Myna,1,104.881786108,11.6320555741,Asia,Cambodia,Cambodia - Phnom Penh,2015-02-10,17:00
58826,Macaca fascicularis,species,Long-tailed Macaque,1,104.769909494,11.7957241238,Asia,Cambodia,Cambodia - Kândal,2015-02-10,15:00
58979,Coracias affinis,species,Indochinese Roller,1,104.664747119,12.2014462975,Asia,Cambodia,Cambodia - Kâmpóng Chhnang,2015-02-10,15:00
58995,Brachythemis contaminata,species,Asian Amberwing,1,104.681432471,12.2669809568,Asia,Cambodia,Cambodia - Kâmpóng Chhnang,2015-02-10,14:00
59000,Brachythemis contaminata,species,Asian Amberwing,1,104.681432471,12.2669809568,Asia,Cambodia,Cambodia - Kâmpóng Chhnang,2015-02-10,14:00
59031,Coracias affinis,species,Indochinese Roller,1,104.318050146,12.5012697003,Asia,Cambodia,Cambodia - Pouthisat,2015-02-10,13:00
68075,Ceryle rudis,species,Pied Kingfisher,1,103.3572869,13.2651336457,Asia,Cambodia,Cambodia - Batdâmbâng,2015-02-08,15:00
68085,Chlidonias hybrida,species,Whiskered Tern,10,103.58204864,13.2646327279,Asia,Cambodia,Cambodia - Batdâmbâng,2015-02-08,11:00
74751,Ardea intermedia,species,Intermediate Egret,1,103.577964306,13.2573126827,Asia,Cambodia,Cambodia - Batdâmbâng,2015-02-08,10:00
74780,Phalacrocorax carbo,species,Great Cormorant,1,103.577964306,13.2573126827,Asia,Cambodia,Cambodia - Batdâmbâng,2015-02-08,10:00
74825,Anhinga melanogaster,species,Oriental Darter,1,103.577964306,13.2573126827,Asia,Cambodia,Cambodia - Batdâmbâng,2015-02-08,10:00
74831,Pelecanus philippensis,species,Spot-billed Pelican,3,103.577964306,13.2573126827,Asia,Cambodia,Cambodia - Batdâmbâng,2015-02-08,10:00
87224,Neurothemis fulvia,species,Russet Percher,1,103.875732422,13.4604151468,Asia,Cambodia,Cambodia - Siemréab,2015-02-07,
87237,Psittacula alexandri,species,Red-breasted Parakeet,1,103.875732422,13.4604151468,Asia,Cambodia,Cambodia - Siemréab,2015-02-07,
96424,Trithemis pallidinervis,species,,1,103.861756772,13.4124544562,Asia,Cambodia,Cambodia - Siemréab,2015-02-04,10:00
96425,Rhyothemis variegata,species,Variegated Flutterer,1,103.858838193,13.441058899,Asia,Cambodia,Cambodia - Siemréab,2015-02-03,11:00
100678,Crocothemis servilia,species,Oriental Scarlet,1,103.861405905,13.4125802614,Asia,Cambodia,Cambodia - Siemréab,2015-02-04,09:00
100680,Brachythemis contaminata,species,Asian Amberwing,1,103.861405905,13.4125802614,Asia,Cambodia,Cambodia - Siemréab,2015-02-04,09:00
100722,Acridotheres tristis,species,Common Myna,1,103.867338952,13.4121106317,Asia,Cambodia,Cambodia - Siemréab,2015-02-04,09:00
100741,Neurothemis tullia,species,Pied paddy skimmer,1,103.899608105,13.4290265894,Asia,Cambodia,Cambodia - Siemréab,2015-02-04,12:00
100758,Crocothemis servilia,species,Oriental Scarlet,1,103.899608105,13.4290265894,Asia,Cambodia,Cambodia - Siemréab,2015-02-04,12:00
100767,Neurothemis fulvia,species,Russet Percher,1,103.899608105,13.4290265894,Asia,Cambodia,Cambodia - Siemréab,2015-02-04,12:00
118832,Macaca fascicularis,species,Long-tailed Macaque,1,103.856506348,13.3998060865,Asia,Cambodia,Cambodia - Siemréab,2015-02-03,
2613,Mycteria leucocephala,species,Painted Stork,1,103.821946084,13.244205169,Asia,Cambodia,Cambodia - Siemréab,2015-02-02,13:00
2997,Crocothemis servilia,species,Oriental Scarlet,1,103.857518546,13.3542555888,Asia,Cambodia,Cambodia - Siemréab,2015-02-02,14:00
2998,Brachythemis contaminata,species,Asian Amberwing,1,103.857518546,13.3542555888,Asia,Cambodia,Cambodia - Siemréab,2015-02-02,14:00
3001,Brachythemis contaminata,species,Asian Amberwing,1,103.822310194,13.2677237173,Asia,Cambodia,Cambodia - Siemréab,2015-02-02,09:00
3576,Psittacula alexandri,species,Red-breasted Parakeet,1,103.899007291,13.4301953617,Asia,Cambodia,Cambodia - Siemréab,2015-02-01,17:00
3580,Psittacula eupatria,species,Alexandrine Parakeet,1,103.899093121,13.4301536199,Asia,Cambodia,Cambodia - Siemréab,2015-02-01,17:00
3588,Macaca fascicularis,species,Long-tailed Macaque,1,103.871283978,13.4064848687,Asia,Cambodia,Cambodia - Siemréab,2015-02-01,17:00
3589,Gekko gecko,species,Tokay Gecko,1,102.965755463,13.2345147367,Asia,Cambodia,Cambodia - Batdâmbâng,2015-02-01,17:00
10009,Monticola solitarius,species,Blue Rock Thrush,1,103.898527846,13.4301330751,Asia,Cambodia,Cambodia - Siemréab,2015-02-01,16:00
10202,Brachythemis contaminata,species,Asian Amberwing,1,103.85836646,13.4138737769,Asia,Cambodia,Cambodia - Siemréab,2015-02-01,11:00
10204,Crocothemis servilia,species,Oriental Scarlet,1,103.85836646,13.4138737769,Asia,Cambodia,Cambodia - Siemréab,2015-02-01,11:00
10221,Acridotheres tristis,species,Common Myna,1,103.867893666,13.4120370074,Asia,Cambodia,Cambodia - Siemréab,2015-02-01,09:00
25378,Hirundo rustica,species,Barn Swallow,1,102.552455217,13.6585387117,Asia,Cambodia,Cambodia - Bântéay Méanchey,2015-01-31,15:00
25380,Passer domesticus,species,House Sparrow,1,102.552455217,13.6585387117,Asia,Cambodia,Cambodia - Bântéay Méanchey,2015-01-31,15:00
91544,Orcaella brevirostris,species,Irrawaddy Dolphin,1,105.956297815,13.9254019994,Asia,Cambodia,Cambodia - Stng Trêng,2015-01-21,07:00
25298,Motacilla samveasnae,species,Mekong Wagtail,1,106.003432274,12.5478402218,Asia,Cambodia,Cambodia - Krâchéh,2014-03-02,
25304,Coracias affinis,species,Indochinese Roller,1,103.943538666,13.0472886421,Asia,Cambodia,Cambodia - Siemréab,2014-03-02,
64555,Haliastur indus,species,Brahminy Kite,1,103.558860272,10.4966312189,Asia,Cambodia,Cambodia - Krong Preah Sihanouk,2010-02-09,
64557,Butorides striata,species,Striated Heron,1,106.026507318,12.481330781,Asia,Cambodia,Cambodia - Krâchéh,2010-02-06,
64558,Porphyrio poliocephalus,species,Grey-headed Swamphen,1,106.0,12.45,Asia,Cambodia,Cambodia - Krâchéh,2010-02-06,
111471,Calotes mystaceus,species,Indo-Chinese Forest Lizard,1,106.933507918,12.1330598904,Asia,Cambodia,Cambodia - Môndól Kiri,2014-03-08,
111546,Lacedo pulchella,species,Banded Kingfisher,1,106.933507918,12.1330598904,Asia,Cambodia,Cambodia - Môndól Kiri,2014-03-08,
111558,Aviceda leuphotes syama,subspecies,Black Baza ssp syama,1,106.904334426,12.126322605,Asia,Cambodia,Cambodia - Môndól Kiri,2014-03-09,06:40
111678,Pavo muticus imperator,subspecies,Green Peafowl ssp imperator,2,106.965093612,12.1763137385,Asia,Cambodia,Cambodia - Môndól Kiri,2014-03-07,18:00
111805,Buteo japonicus,species,Eastern Buzzard,1,104.086818693,10.6033125479,Asia,Cambodia,Cambodia - Preah Monivong NP,2014-03-15,
111867,Eutropis multifasciata,species,East Indian Brown Mabuya,2,103.923876286,12.5512118461,Asia,Cambodia,Cambodia - Pouthisat,2014-03-13,
111869,Orthetrum sabina,species,Slender Skimmer,2,103.923876286,12.5512118461,Asia,Cambodia,Cambodia - Pouthisat,2014-03-13,
111871,Trithemis pallidinervis,species,,5,103.923876286,12.5512118461,Asia,Cambodia,Cambodia - Pouthisat,2014-03-13,
111873,Crocothemis servilia,species,Oriental Scarlet,10,103.923876286,12.5512118461,Asia,Cambodia,Cambodia - Pouthisat,2014-03-13,
82451,Haliastur indus,species,Brahminy Kite,5,103.693084717,10.5261256416,Asia,Cambodia,Cambodia - Ream NP,2008-02-21,
28977,Anastomus oscitans,species,Asian Openbill,300,103.673858643,13.2252403852,Asia,Cambodia,Cambodia - Batdâmbâng,2008-02-18,
28980,Pelecanus philippensis,species,Spot-billed Pelican,15,103.673858643,13.2252403852,Asia,Cambodia,Cambodia - Batdâmbâng,2008-02-18,
29158,Haliaeetus ichthyaetus,species,Grey-headed Fish Eagle,3,103.673858643,13.2252403852,Asia,Cambodia,Cambodia - Batdâmbâng,2008-02-18,
38925,Surniculus lugubris,species,Square-tailed Drongo-Cuckoo,1,103.865089417,13.4149597863,Asia,Cambodia,Cambodia - Siemréab,2008-02-16,
38929,Coracias affinis,species,Indochinese Roller,1,103.865089417,13.4149597863,Asia,Cambodia,Cambodia - Siemréab,2008-02-16,
40134,Pericrocotus speciosus semiruber,subspecies,Scarlet Minivet ssp semiruber,1,104.937973022,13.9430639461,Asia,Cambodia,Cambodia - Preah Vihéar,2008-02-15,
40205,Pseudibis davisoni,species,White-shouldered Ibis,5,104.937973022,13.9430639461,Asia,Cambodia,Cambodia - Preah Vihéar,2008-02-15,
44518,Leptoptilos javanicus,species,Lesser Adjutant,2,104.935913086,13.9413979052,Asia,Cambodia,Cambodia - Preah Vihéar,2008-02-14,
44519,Pseudibis davisoni,species,White-shouldered Ibis,2,104.935913086,13.9413979052,Asia,Cambodia,Cambodia - Preah Vihéar,2008-02-14,
44521,Coracias affinis,species,Indochinese Roller,6,104.935913086,13.9413979052,Asia,Cambodia,Cambodia - Preah Vihéar,2008-02-14,
49601,Leptoptilos javanicus,species,Lesser Adjutant,3,104.926300049,13.9360664936,Asia,Cambodia,Cambodia - Preah Vihéar,2008-02-14,
49602,Pseudibis davisoni,species,White-shouldered Ibis,2,104.926300049,13.9360664936,Asia,Cambodia,Cambodia - Preah Vihéar,2008-02-14,
49626,Coracias affinis,species,Indochinese Roller,1,104.926300049,13.9360664936,Asia,Cambodia,Cambodia - Preah Vihéar,2008-02-14,
49652,Coracias affinis,species,Indochinese Roller,2,104.926300049,13.9360664936,Asia,Cambodia,Cambodia - Preah Vihéar,2008-02-13,
84680,Coracias affinis,species,Indochinese Roller,1,104.924583435,14.0140261006,Asia,Cambodia,Cambodia - Preah Vihéar,2008-02-13,
73606,Ploceus hypoxanthus,species,Asian Golden Weaver,10,106.014279127,12.5249775711,Asia,Cambodia,Cambodia - Krâchéh,2014-03-02,
73626,Elanus caeruleus,species,Black-winged Kite,1,104.921514988,11.503869838,Asia,Cambodia,Cambodia - Phnom Penh,2014-02-25,
21956,Ardea cinerea,species,Grey Heron,1,104.205408096,10.6047847152,Asia,Cambodia,Cambodia - Kâmpôt,2014-02-24,
22062,Gallinago gallinago,species,Common Snipe,1,104.206008911,10.5826592736,Asia,Cambodia,Cambodia - Kâmpôt,2014-02-24,
22065,Alauda gulgula,species,Oriental Skylark,1,104.206008911,10.5826592736,Asia,Cambodia,Cambodia - Kâmpôt,2014-02-24,
22074,Gerygone sulphurea,species,Golden-bellied Gerygone,25,104.227981567,10.5727033585,Asia,Cambodia,Cambodia - Kâmpôt,2014-02-22,
22084,Hydroprogne caspia,species,Caspian Tern,10,104.218196869,10.5797906532,Asia,Cambodia,Cambodia - Kâmpôt,2014-02-21,
22094,Trithemis pallidinervis,species,,1,103.847064972,13.2692277539,Asia,Cambodia,Cambodia - Siemréab,2014-02-16,
22106,Corvus macrorhynchos,species,Large-billed Crow,1,103.685874939,13.3155458227,Asia,Cambodia,Cambodia - Siemréab,2014-02-15,
22118,Anastomus oscitans,species,Asian Openbill,1001,103.675231934,13.1757712244,Asia,Cambodia,Cambodia - Batdâmbâng,2014-02-15,
22120,Mycteria leucocephala,species,Painted Stork,101,103.675231934,13.1757712244,Asia,Cambodia,Cambodia - Batdâmbâng,2014-02-15,
22122,Ardeola bacchus,species,Chinese Pond Heron,101,103.675231934,13.1757712244,Asia,Cambodia,Cambodia - Batdâmbâng,2014-02-15,
22314,Phalacrocorax carbo,species,Great Cormorant,1,103.675231934,13.1757712244,Asia,Cambodia,Cambodia - Batdâmbâng,2014-02-15,
324,Neurothemis intermedia,species,,3,104.007668494,11.9899688478,Asia,Cambodia,Cambodia - Pouthisat,2014-03-12,
14336,Orthetrum triangulare,species,Lesser Blue Skimmer,4,104.007668494,11.9899688478,Asia,Cambodia,Cambodia - Pouthisat,2014-03-12,
14412,Brachythemis contaminata,species,Asian Amberwing,10,104.069756269,11.8223301503,Asia,Cambodia,Cambodia - Kâmpóng Sp,2014-03-10,09:30
52270,Orthotomus atrogularis,species,Dark-necked Tailorbird,1,106.015276909,12.5308531414,Asia,Cambodia,Cambodia - Krâchéh,2014-03-02,
52276,Crypsirina temia,species,Racket-tailed Treepie,1,106.015276909,12.5308531414,Asia,Cambodia,Cambodia - Krâchéh,2014-03-02,
52278,Prinia inornata,species,Plain Prinia,1,104.924175739,11.503533412,Asia,Cambodia,Cambodia - Phnom Penh,2014-02-25,
52292,Glareola maldivarum,species,Oriental Pratincole,10,104.2,10.55,Asia,Cambodia,Cambodia - Kâmpôt,2014-02-21,
52301,Anastomus oscitans,species,Asian Openbill,1001,103.686218262,13.1730969305,Asia,Cambodia,Cambodia - Batdâmbâng,2014-02-15,
52302,Anhinga melanogaster,species,Oriental Darter,101,103.686218262,13.1730969305,Asia,Cambodia,Cambodia - Batdâmbâng,2014-02-15,
52303,Phalacrocorax fuscicollis,species,Indian Cormorant,10,103.686218262,13.1730969305,Asia,Cambodia,Cambodia - Batdâmbâng,2014-02-15,
78278,Palpopleura sexmaculata,species,Asian Widow,1,106.892129481,12.1066431623,Asia,Cambodia,Cambodia - Môndól Kiri,2014-03-07,
78280,Orthetrum sabina,species,Slender Skimmer,2,106.892129481,12.1066431623,Asia,Cambodia,Cambodia - Môndól Kiri,2014-03-07,
17017,Orthotomus chaktomuk,species,Cambodian Tailorbird,50,104.924240112,11.4986972434,Asia,Cambodia,Cambodia - Phnom Penh,2014-02-25,
18207,Brachythemis contaminata,species,Asian Amberwing,10,103.828010559,13.2865615204,Asia,Cambodia,Cambodia - Siemréab,2014-02-14,
18252,Merops philippinus,species,Blue-tailed Bee-eater,101,103.647766113,13.1757712244,Asia,Cambodia,Cambodia - Batdâmbâng,2014-02-15,
18254,Haliaeetus ichthyaetus,species,Grey-headed Fish Eagle,1,103.647766113,13.1757712244,Asia,Cambodia,Cambodia - Batdâmbâng,2014-02-15,
23604,Neurothemis tullia,species,Pied paddy skimmer,8,106.023037434,12.4849098089,Asia,Cambodia,Cambodia - Krâchéh,2014-03-06,
23624,Tholymis tillarga,species,Twister,5,106.023037434,12.4849098089,Asia,Cambodia,Cambodia - Krâchéh,2014-03-06,
31420,Francolinus pintadeanus phayrei,subspecies,Chinese Francolin ssp phayrei,1,104.663,13.99,Asia,Cambodia,Cambodia - Preah Vihéar,2014-03-06,
31423,Pseudibis davisoni,species,White-shouldered Ibis,1,104.663,13.99,Asia,Cambodia,Cambodia - Preah Vihéar,2014-03-05,
31511,Neurothemis intermedia,species,,3,104.848,13.99,Asia,Cambodia,Cambodia - Preah Vihéar,2014-03-05,
31603,Pseudibis davisoni,species,White-shouldered Ibis,1,104.66,13.93,Asia,Cambodia,Cambodia - Preah Vihéar,2014-03-05,
31626,Prinia polychroa deignani,subspecies,Deignan's Prinia ssp deignani,1,104.663,13.935,Asia,Cambodia,Cambodia - Preah Vihéar,2014-03-05,
31635,Francolinus pintadeanus phayrei,subspecies,Chinese Francolin ssp phayrei,2,104.663,13.935,Asia,Cambodia,Cambodia - Preah Vihéar,2014-03-05,
96681,Passer flaveolus,species,Plain-backed Sparrow,3,103.254432676,13.8004741168,Asia,Cambodia,Cambodia - Bântéay Méanchey,2014-03-03,
96687,Circus spilonotus,species,Eastern Marsh Harrier,4,103.256177901,13.8023162103,Asia,Cambodia,Cambodia - Bântéay Méanchey,2014-03-03,
96710,Diplacodes nebulosa,species,Charcoal-winged Percher,30,103.255119322,13.8023912269,Asia,Cambodia,Cambodia - Bântéay Méanchey,2014-03-03,
96717,Trithemis pallidinervis,species,,15,103.255119322,13.8023912269,Asia,Cambodia,Cambodia - Bântéay Méanchey,2014-03-03,
96721,Elanus caeruleus,species,Black-winged Kite,1,103.347244262,13.8788238241,Asia,Cambodia,Cambodia - Bântéay Méanchey,2014-03-03,
96725,Glareola maldivarum,species,Oriental Pratincole,8,103.3,13.85,Asia,Cambodia,Cambodia - Bântéay Méanchey,2014-03-03,
96751,Orthetrum sabina,species,Slender Skimmer,1,103.325092792,13.891837415,Asia,Cambodia,Cambodia - Bântéay Méanchey,2014-03-03,
96809,Athene brama,species,Spotted Owlet,1,103.322061897,13.7897091828,Asia,Cambodia,Cambodia - Bântéay Méanchey,2014-03-03,
96826,Strix seloputo,species,Spotted Wood Owl,2,103.327138424,13.8928046215,Asia,Cambodia,Cambodia - Bântéay Méanchey,2014-03-03,
96924,Charadrius veredus,species,Oriental Plover,27,103.32089424,13.6950144167,Asia,Cambodia,Cambodia - Bântéay Méanchey,2014-03-03,
96930,Elanus caeruleus,species,Black-winged Kite,2,103.325529098,13.6824638119,Asia,Cambodia,Cambodia - Bântéay Méanchey,2014-03-03,
104955,Neurothemis tullia,species,Pied paddy skimmer,3,103.82787466,13.3028791903,Asia,Cambodia,Cambodia - Siemréab,2014-03-02,
105215,Ixobrychus cinnamomeus,species,Cinnamon Bittern,1,103.826166988,13.3031757132,Asia,Cambodia,Cambodia - Siemréab,2014-03-02,
105523,Orthetrum sabina,species,Slender Skimmer,1,103.831139803,13.3030974062,Asia,Cambodia,Cambodia - Siemréab,2014-03-02,
105526,Rhyothemis variegata,species,Variegated Flutterer,1,103.83112371,13.3029181697,Asia,Cambodia,Cambodia - Siemréab,2014-03-02,
105533,Tholymis tillarga,species,Twister,5,103.831161261,13.3028628328,Asia,Cambodia,Cambodia - Siemréab,2014-03-02,
105580,Tholymis tillarga,species,Twister,8,103.83148849,13.302551344,Asia,Cambodia,Cambodia - Siemréab,2014-03-02,
106194,Polypedates leucomystax,species,Common Tree Frog,1,104.663,13.935,Asia,Cambodia,Cambodia - Preah Vihéar,2014-03-04,21:00
107489,Serilophus lunatus lunatus,subspecies,Silver-breasted Broadbill ssp lunatus,2,104.007668494,11.9899688478,Asia,Cambodia,Cambodia - Pouthisat,2014-03-11,
107578,Pantala flavescens,species,Wandering Glider,6,103.551601,12.458,Asia,Cambodia,Cambodia - Pouthisat,2014-03-14,
107587,Elanus caeruleus,species,Black-winged Kite,4,103.551601,12.458,Asia,Cambodia,Cambodia - Pouthisat,2014-03-14,
107930,Cyornis hainanus,species,Hainan Blue Flycatcher,1,103.858841658,13.4241823416,Asia,Cambodia,Cambodia - Siemréab,2014-03-01,
107995,Psittacula alexandri fasciata,subspecies,Red-breasted Parakeet ssp fasciata,20,103.88944745,13.4346393836,Asia,Cambodia,Cambodia - Siemréab,2014-03-01,
108075,Trithemis pallidinervis,species,,4,103.906252384,13.4325502379,Asia,Cambodia,Cambodia - Siemréab,2014-03-01,
108116,Halcyon pileata,species,Black-capped Kingfisher,1,103.873858451,13.4486368159,Asia,Cambodia,Cambodia - Siemréab,2014-03-01,
108130,Neurothemis fulvia,species,Russet Percher,3,103.874537944,13.4461784027,Asia,Cambodia,Cambodia - Siemréab,2014-03-01,
108341,Monticola solitarius,species,Blue Rock Thrush,1,103.858827352,13.4411300197,Asia,Cambodia,Cambodia - Siemréab,2014-03-01,
108690,Crocothemis servilia,species,Oriental Scarlet,40,103.871884345,13.4129059525,Asia,Cambodia,Cambodia - Siemréab,2014-03-01,
109907,Pelecanus philippensis,species,Spot-billed Pelican,50,103.68,13.111,Asia,Cambodia,Cambodia - Batdâmbâng,2014-03-02,
110880,Anhinga melanogaster,species,Oriental Darter,80,103.68,13.111,Asia,Cambodia,Cambodia - Batdâmbâng,2014-03-02,
111008,Haliaeetus ichthyaetus,species,Grey-headed Fish Eagle,5,103.68,13.111,Asia,Cambodia,Cambodia - Batdâmbâng,2014-03-02,
111027,Mycteria cinerea,species,Milky Stork,1,103.68,13.111,Asia,Cambodia,Cambodia - Batdâmbâng,2014-03-02,
111926,Monticola solitarius philippensis,subspecies,Blue Rock Thrush ssp philippensis,1,103.867281675,13.4123799678,Asia,Cambodia,Cambodia - Siemréab,2014-03-01,
115764,Neurothemis tullia,species,Pied paddy skimmer,2,103.86849761,13.4131532901,Asia,Cambodia,Cambodia - Siemréab,2014-03-01,
116389,Cochoa viridis,species,Green Cochoa,1,104.007668494,11.9899688478,Asia,Cambodia,Cambodia - Pouthisat,2014-03-10,14:00
116783,Hydrornis cyaneus aurantiacus,subspecies,Blue Pitta ssp aurantiacus,2,104.007668494,11.9899688478,Asia,Cambodia,Cambodia - Pouthisat,2014-03-11,
116851,Lacedo pulchella,species,Banded Kingfisher,1,104.007668494,11.9899688478,Asia,Cambodia,Cambodia - Pouthisat,2014-03-10,14:00
117817,Polihierax insignis harmandi,subspecies,White-rumped Falcon ssp harmandi,2,104.663,13.935,Asia,Cambodia,Cambodia - Preah Vihéar,2014-03-05,
117835,Pseudibis davisoni,species,White-shouldered Ibis,1,104.663,13.935,Asia,Cambodia,Cambodia - Preah Vihéar,2014-03-04,16:15
20034,Cochoa viridis,species,Green Cochoa,1,104.007668494,11.9899688478,Asia,Cambodia,Cambodia - Pouthisat,2014-03-11,
20058,Garrulax ferrarius,species,Cambodian Laughingthrush,10,104.007668494,11.9899688478,Asia,Cambodia,Cambodia - Pouthisat,2014-03-11,
107330,Cyornis hainanus,species,Hainan Blue Flycatcher,1,103.86849761,13.4133411413,Asia,Cambodia,Cambodia - Siemréab,2014-03-01,
107338,Diplacodes trivialis,species,Chalky Percher,3,103.86773586,13.41335158,Asia,Cambodia,Cambodia - Siemréab,2014-03-01,
108310,Ardeola bacchus,species,Chinese Pond Heron,1,103.868976831,13.4165231094,Asia,Cambodia,Cambodia - Siemréab,2014-03-01,
108342,Halcyon pileata,species,Black-capped Kingfisher,1,103.870975971,13.4165418941,Asia,Cambodia,Cambodia - Siemréab,2014-03-01,
119314,Pseudibis gigantea,species,Giant Ibis,3,104.663085993,13.9353111813,Asia,Cambodia,Cambodia - Preah Vihéar,2014-03-04,16:00
119546,Glareola lactea,species,Small Pratincole,2,106.016550064,12.6117526958,Asia,Cambodia,Cambodia - Krâchéh,2014-03-07,
119553,Orcaella brevirostris,species,Irrawaddy Dolphin,5,106.020097732,12.6070369777,Asia,Cambodia,Cambodia - Krâchéh,2014-03-07,
119555,Motacilla samveasnae,species,Mekong Wagtail,4,106.016807554,12.6100021109,Asia,Cambodia,Cambodia - Krâchéh,2014-03-07,
119624,Garrulax ferrarius,species,Cambodian Laughingthrush,8,104.007668494,11.9899688478,Asia,Cambodia,Cambodia - Pouthisat,2014-03-10,16:00
56442,Psittacula alexandri,species,Red-breasted Parakeet,10,103.888806666667,13.4350433333333,Asia,Cambodia,Cambodia - Siemréab,2014-02-22,16:44
56443,Psittacula alexandri,species,Red-breasted Parakeet,65,103.888753333333,13.4344766666667,Asia,Cambodia,Cambodia - Siemréab,2014-02-22,17:17
56444,Monticola solitarius,species,Blue Rock Thrush,1,103.858928333333,13.440835,Asia,Cambodia,Cambodia - Siemréab,2014-02-23,07:57
56445,Psittacula alexandri,species,Red-breasted Parakeet,3,103.868438333333,13.4618366666667,Asia,Cambodia,Cambodia - Siemréab,2014-02-23,08:44
56446,Pycnonotus goiavier,species,Yellow-vented Bulbul,2,103.852565,13.36118,Asia,Cambodia,Cambodia - Siemréab,2014-02-24,11:42
56448,Merops philippinus,species,Blue-tailed Bee-eater,2,103.685321666667,13.233935,Asia,Cambodia,Cambodia - Batdâmbâng,2014-02-26,09:50
56449,Phalacrocorax fuscicollis,species,Indian Cormorant,1,103.679421666667,13.2353166666667,Asia,Cambodia,Cambodia - Batdâmbâng,2014-02-26,09:52
56450,Anastomus oscitans,species,Asian Openbill,50,103.67609,13.2345466666667,Asia,Cambodia,Cambodia - Batdâmbâng,2014-02-26,09:56
56451,Anhinga melanogaster,species,Oriental Darter,1,103.637268333333,13.2481966666667,Asia,Cambodia,Cambodia - Batdâmbâng,2014-02-26,10:29
56452,Mycteria leucocephala,species,Painted Stork,16,103.603021666667,13.25562,Asia,Cambodia,Cambodia - Batdâmbâng,2014-02-26,10:43
56453,Ardea intermedia,species,Intermediate Egret,3,103.51838,13.3042083333333,Asia,Cambodia,Cambodia - Batdâmbâng,2014-02-26,11:22
56454,Anastomus oscitans,species,Asian Openbill,1,103.508283333333,13.35255,Asia,Cambodia,Cambodia - Siemréab,2014-02-26,11:54
56456,Leptocoma brasiliana,species,Van Hasselt's Sunbird,1,102.967411666667,11.7484033333333,Asia,Cambodia,Cambodia - Kaôh Kong,2014-03-04,11:17
84875,Acridotheres tristis,species,Common Myna,2,103.8641,13.4119,Asia,Cambodia,Cambodia - Siemréab,2014-03-04,06:16
44310,Acridotheres tristis,species,Common Myna,4,104.903297424,11.481706915,Asia,Cambodia,Cambodia - Phnom Penh,2014-03-02,13:21
54008,Pycnonotus flaviventris,species,Black-crested Bulbul,1,103.6887,14.3927,Asia,Cambodia,Cambodia - Otdar Mean Chey,2014-03-01,13:20
61694,Ploceus hypoxanthus,species,Asian Golden Weaver,5,106.014389992,12.5264819114,Asia,Cambodia,Cambodia - Krâchéh,2014-02-28,
62544,Aegithina tiphia,species,Common Iora,1,104.902339205,11.4841461835,Asia,Cambodia,Cambodia - Phnom Penh,2013-12-26,
62545,Elanus caeruleus,species,Black-winged Kite,1,104.902339205,11.4841461835,Asia,Cambodia,Cambodia - Phnom Penh,2013-12-26,
62549,Orcaella brevirostris,species,Irrawaddy Dolphin,6,105.977339745,13.8767462465,Asia,Cambodia,Cambodia - Stng Trêng,2013-12-23,
62592,Coracias affinis,species,Indochinese Roller,35,106.099562645,13.8087425843,Asia,Cambodia,Cambodia - Stng Trêng,2013-12-23,
75841,Orcaella brevirostris,species,Irrawaddy Dolphin,10,106.014520526,12.6038205232,Asia,Cambodia,Cambodia - Krâchéh,2013-12-20,
75866,Cyornis sumatrensis indochina,subspecies,Indochinese Blue Flycatcher ssp indochina,1,106.028081775,12.6081761288,Asia,Cambodia,Cambodia - Krâchéh,2013-12-20,
75870,Motacilla samveasnae,species,Mekong Wagtail,4,106.014348865,12.6138718091,Asia,Cambodia,Cambodia - Krâchéh,2013-12-20,
93124,Coracias affinis,species,Indochinese Roller,5,104.890830517,13.9400650638,Asia,Cambodia,Cambodia - Preah Vihéar,2013-12-16,
93146,Pseudibis davisoni,species,White-shouldered Ibis,19,104.90342617,13.9247368352,Asia,Cambodia,Cambodia - Preah Vihéar,2013-12-16,
100246,Gracupica nigricollis,species,Black-collared Starling,20,104.90342617,13.9340671825,Asia,Cambodia,Cambodia - Preah Vihéar,2013-12-15,
100543,Coracias affinis,species,Indochinese Roller,3,104.90342617,13.9340671825,Asia,Cambodia,Cambodia - Preah Vihéar,2013-12-15,
100789,Pseudibis davisoni,species,White-shouldered Ibis,1,104.90342617,13.9340671825,Asia,Cambodia,Cambodia - Preah Vihéar,2013-12-15,
100790,Pseudibis gigantea,species,Giant Ibis,3,104.90342617,13.9340671825,Asia,Cambodia,Cambodia - Preah Vihéar,2013-12-15,
101005,Coracias affinis,species,Indochinese Roller,8,104.888319969,13.9367329268,Asia,Cambodia,Cambodia - Preah Vihéar,2013-12-14,
101048,Pseudibis davisoni,species,White-shouldered Ibis,2,104.886946678,13.9393986403,Asia,Cambodia,Cambodia - Preah Vihéar,2013-12-14,
101223,Coracias affinis,species,Indochinese Roller,3,104.222273827,13.0701144526,Asia,Cambodia,Cambodia - Siemréab,2013-12-14,
101318,Monticola solitarius,species,Blue Rock Thrush,5,103.870984912,13.4355389002,Asia,Cambodia,Cambodia - Siemréab,2013-12-13,
101322,Gracula religiosa,species,Common Hill Myna,10,103.870984912,13.4355389002,Asia,Cambodia,Cambodia - Siemréab,2013-12-13,
101324,Acridotheres tristis,species,Common Myna,1,103.870984912,13.4355389002,Asia,Cambodia,Cambodia - Siemréab,2013-12-13,
101326,Dicrurus macrocercus,species,Black Drongo,10,103.870984912,13.4355389002,Asia,Cambodia,Cambodia - Siemréab,2013-12-13,
101458,Pycnonotus goiavier,species,Yellow-vented Bulbul,1,103.869102001,13.4377094138,Asia,Cambodia,Cambodia - Siemréab,2013-12-12,
101486,Monticola solitarius,species,Blue Rock Thrush,1,103.869102001,13.4377094138,Asia,Cambodia,Cambodia - Siemréab,2013-12-12,
101497,Cyornis hainanus,species,Hainan Blue Flycatcher,1,103.869102001,13.4377094138,Asia,Cambodia,Cambodia - Siemréab,2013-12-12,
101501,Psittacula alexandri,species,Red-breasted Parakeet,20,103.869102001,13.4377094138,Asia,Cambodia,Cambodia - Siemréab,2013-12-12,
1643,Acridotheres tristis,species,Common Myna,1,104.927166666667,11.5620016666667,Asia,Cambodia,Cambodia - Phnom Penh,2014-02-20,09:53
1644,Copsychus saularis,species,Oriental Magpie-Robin,5,104.932016666667,11.5619216666667,Asia,Cambodia,Cambodia - Phnom Penh,2014-02-20,11:14
1645,Acridotheres tristis,species,Common Myna,3,104.929091666667,11.5654983333333,Asia,Cambodia,Cambodia - Phnom Penh,2014-02-20,13:48
1646,Pycnonotus goiavier,species,Yellow-vented Bulbul,4,104.929241666667,11.5655666666667,Asia,Cambodia,Cambodia - Phnom Penh,2014-02-20,13:51
10578,Orthotomus chaktomuk,species,Cambodian Tailorbird,5,104.925659895,11.5001109551,Asia,Cambodia,Cambodia - Phnom Penh,2014-02-19,
10584,Orthotomus chaktomuk,species,Cambodian Tailorbird,5,104.926582575,11.5017300213,Asia,Cambodia,Cambodia - Phnom Penh,2014-02-19,
88356,Pycnonotus flaviventris,species,Black-crested Bulbul,4,106.017495096,12.50948679,Asia,Cambodia,Cambodia - Krâchéh,2004-02-18,
88504,Apus nipalensis nipalensis,subspecies,House Swift ssp nipalensis,50,104.888069853,12.714404781,Asia,Cambodia,Cambodia - Kâmpóng Thum,2004-02-16,
88514,Bubulcus coromandus,species,Eastern Cattle Egret,50,104.889400229,12.7161002279,Asia,Cambodia,Cambodia - Kâmpóng Thum,2004-02-16,
88658,Pycnonotus flaviventris,species,Black-crested Bulbul,10,103.872399777,13.4619176561,Asia,Cambodia,Cambodia - Siemréab,2004-02-14,
88837,Coracias affinis,species,Indochinese Roller,1,103.869324625,13.4100756403,Asia,Cambodia,Cambodia - Siemréab,2004-02-13,
89421,Polihierax insignis,species,White-rumped Falcon,1,104.372413158,11.7907356637,Asia,Cambodia,Cambodia - Kâmpóng Chhnang,2006-01-24,
89498,Parus cinereus,species,Cinereous Tit,1,104.88847822,13.9619726667,Asia,Cambodia,Cambodia - Preah Vihéar,2006-02-15,
89676,Pycnonotus flaviventris,species,Black-crested Bulbul,1,104.893802404,13.9350668402,Asia,Cambodia,Cambodia - Preah Vihéar,2006-02-14,
89715,Pericrocotus speciosus semiruber,subspecies,Scarlet Minivet ssp semiruber,1,104.926844537,13.9618893718,Asia,Cambodia,Cambodia - Preah Vihéar,2006-02-14,
89764,Leptoptilos javanicus,species,Lesser Adjutant,2,104.940148294,13.9620559616,Asia,Cambodia,Cambodia - Preah Vihéar,2006-02-14,
89862,Pseudibis davisoni,species,White-shouldered Ibis,2,104.913969934,13.9342337924,Asia,Cambodia,Cambodia - Preah Vihéar,2006-02-14,
89869,Bubulcus coromandus,species,Eastern Cattle Egret,4,104.918175638,13.937399358,Asia,Cambodia,Cambodia - Preah Vihéar,2006-02-14,
89911,Coracias affinis,species,Indochinese Roller,10,104.911596179,13.9687194559,Asia,Cambodia,Cambodia - Preah Vihéar,2006-02-14,
90522,Pycnonotus flaviventris,species,Black-crested Bulbul,15,103.050843179,12.3781772686,Asia,Cambodia,Cambodia - Pouthisat,2006-02-09,
90532,Cyornis whitei deignani,subspecies,Hill Blue Flycatcher ssp deignani,1,103.050843179,12.3781772686,Asia,Cambodia,Cambodia - Pouthisat,2006-02-09,
90603,Chrysocolaptes guttacristatus,species,Greater Flameback,1,103.054190576,12.3761652096,Asia,Cambodia,Cambodia - Pouthisat,2006-02-09,
90684,Pericrocotus speciosus semiruber,subspecies,Scarlet Minivet ssp semiruber,10,103.086977899,12.3858900177,Asia,Cambodia,Cambodia - Pouthisat,2006-02-04,
91480,Coracias affinis,species,Indochinese Roller,1,103.094388843,12.3841570268,Asia,Cambodia,Cambodia - Pouthisat,2006-02-04,
91757,Cyornis sumatrensis indochina,subspecies,Indochinese Blue Flycatcher ssp indochina,1,104.13050741,12.0089315411,Asia,Cambodia,Cambodia - Kâmpóng Sp,2006-01-26,
92109,Serilophus lunatus,species,Silver-breasted Broadbill,5,104.15170759,12.0233709493,Asia,Cambodia,Cambodia - Kâmpóng Sp,2006-01-28,
92131,Phodilus badius,species,Oriental Bay Owl,1,104.161663949,12.0274843599,Asia,Cambodia,Cambodia - Kâmpóng Sp,2006-01-28,
92137,Phylloscopus intensior intensior,subspecies,Davison's Leaf Warbler ssp intensior,10,104.146386087,12.0216080399,Asia,Cambodia,Cambodia - Kâmpóng Sp,2006-01-27,
92140,Ixos mcclellandii,species,Mountain Bulbul,1,104.146386087,12.0216080399,Asia,Cambodia,Cambodia - Kâmpóng Sp,2006-01-27,
92141,Pericrocotus speciosus semiruber,subspecies,Scarlet Minivet ssp semiruber,2,104.146386087,12.0216080399,Asia,Cambodia,Cambodia - Kâmpóng Sp,2006-01-27,
92143,Serilophus lunatus,species,Silver-breasted Broadbill,3,104.146386087,12.0216080399,Asia,Cambodia,Cambodia - Kâmpóng Sp,2006-01-27,
92151,Phodilus badius,species,Oriental Bay Owl,1,104.146386087,12.0216080399,Asia,Cambodia,Cambodia - Kâmpóng Sp,2006-01-27,
95621,Aethopyga saturata,species,Black-throated Sunbird,1,104.131709039,12.0102747745,Asia,Cambodia,Cambodia - Kâmpóng Sp,2006-01-27,
95677,Pycnonotus flaviventris,species,Black-crested Bulbul,10,104.12946051,12.0076460184,Asia,Cambodia,Cambodia - Kâmpóng Sp,2006-01-27,
95679,Ixos mcclellandii,species,Mountain Bulbul,5,104.12946051,12.0076460184,Asia,Cambodia,Cambodia - Kâmpóng Sp,2006-01-27,
95736,Serilophus lunatus,species,Silver-breasted Broadbill,2,104.126073718,12.0013757282,Asia,Cambodia,Cambodia - Kâmpóng Sp,2006-01-27,
95742,Spilornis cheela,species,Crested Serpent Eagle,1,104.126073718,12.0013757282,Asia,Cambodia,Cambodia - Kâmpóng Sp,2006-01-27,
95772,Chrysocolaptes guttacristatus,species,Greater Flameback,1,104.126073718,12.0013757282,Asia,Cambodia,Cambodia - Kâmpóng Sp,2006-01-27,
95796,Pycnonotus flaviventris,species,Black-crested Bulbul,10,104.121095538,11.9639293543,Asia,Cambodia,Cambodia - Kâmpóng Sp,2006-01-26,
95999,Pericrocotus speciosus semiruber,subspecies,Scarlet Minivet ssp semiruber,2,104.12006557,11.9640972869,Asia,Cambodia,Cambodia - Kâmpóng Sp,2006-01-26,
96018,Spilornis cheela,species,Crested Serpent Eagle,3,104.123670459,11.965944538,Asia,Cambodia,Cambodia - Kâmpóng Sp,2006-01-26,
96128,Chrysocolaptes guttacristatus,species,Greater Flameback,1,104.125102758,11.96510488,Asia,Cambodia,Cambodia - Kâmpóng Sp,2006-01-26,
72673,Orcaella brevirostris,species,Irrawaddy Dolphin,1,106.013174057,12.5069729854,Asia,Cambodia,Cambodia - Krâchéh,2009-11-26,
85096,Porphyrio poliocephalus,species,Grey-headed Swamphen,1,103.7,10.5,Asia,Cambodia,Cambodia,2010-02-10,
85107,Monticola gularis,species,White-throated Rock Thrush,1,103.733146191,10.5013150707,Asia,Cambodia,Cambodia,2010-02-10,
85111,Leptoptilos javanicus,species,Lesser Adjutant,10,103.733146191,10.5013150707,Asia,Cambodia,Cambodia,2010-02-10,
85113,Haliastur indus,species,Brahminy Kite,1,103.733146191,10.5013150707,Asia,Cambodia,Cambodia,2010-02-10,
85114,Ducula aenea,species,Green Imperial Pigeon,1,103.733146191,10.5013150707,Asia,Cambodia,Cambodia,2010-02-10,
85186,Upupa epops,species,Eurasian Hoopoe,1,103.53607893,10.6032450555,Asia,Cambodia,Cambodia - Krong Preah Sihanouk,2010-02-10,
85190,Butorides striata,species,Striated Heron,1,103.53607893,10.6032450555,Asia,Cambodia,Cambodia - Krong Preah Sihanouk,2010-02-10,
85206,Haliastur indus,species,Brahminy Kite,1,103.558860272,10.4966312189,Asia,Cambodia,Cambodia - Krong Preah Sihanouk,2010-02-09,
85224,Upupa epops,species,Eurasian Hoopoe,1,103.56631279,10.5985205722,Asia,Cambodia,Cambodia - Ream NP,2010-02-08,
85459,Butorides striata,species,Striated Heron,1,106.026507318,12.481330781,Asia,Cambodia,Cambodia - Krâchéh,2010-02-06,
85460,Porphyrio poliocephalus,species,Grey-headed Swamphen,1,106.0,12.45,Asia,Cambodia,Cambodia - Krâchéh,2010-02-06,
85520,Motacilla samveasnae,species,Mekong Wagtail,1,105.99793911,12.5264124375,Asia,Cambodia,Cambodia - Krâchéh,2010-02-06,
85819,Pelecanus philippensis,species,Spot-billed Pelican,1,103.857450485,13.0527235501,Asia,Cambodia,Cambodia - Batdâmbâng,2010-02-03,
85825,Butorides striata,species,Striated Heron,1,103.857450485,13.0527235501,Asia,Cambodia,Cambodia - Batdâmbâng,2010-02-03,
85828,Porphyrio poliocephalus,species,Grey-headed Swamphen,1,103.85,13.05,Asia,Cambodia,Cambodia - Batdâmbâng,2010-02-03,
85855,Psittacula alexandri,species,Red-breasted Parakeet,1,103.864982128,13.427691495,Asia,Cambodia,Cambodia - Siemréab,2010-02-02,
85860,Dicrurus paradiseus,species,Greater Racket-tailed Drongo,1,103.864982128,13.427691495,Asia,Cambodia,Cambodia - Siemréab,2010-02-02,
85861,Coracias affinis,species,Indochinese Roller,1,103.864982128,13.427691495,Asia,Cambodia,Cambodia - Siemréab,2010-02-02,
85887,Bubulcus coromandus,species,Eastern Cattle Egret,1,104.77300644,12.79037479,Asia,Cambodia,Cambodia - Kâmpóng Thum,2010-02-01,
45682,Coracias affinis,species,Indochinese Roller,1,104.545,13.864,Asia,Cambodia,Cambodia - Preah Vihéar,2013-03-15,
60069,Monticola gularis,species,White-throated Rock Thrush,1,104.848,13.99,Asia,Cambodia,Cambodia - Preah Vihéar,2013-03-16,
60070,Monticola gularis,species,White-throated Rock Thrush,1,104.848,13.99,Asia,Cambodia,Cambodia - Preah Vihéar,2013-03-17,
60072,Muscicapa dauurica dauurica,subspecies,Asian Brown Flycatcher ssp dauurica,2,104.848,13.99,Asia,Cambodia,Cambodia - Preah Vihéar,2013-03-17,
60074,Gracupica nigricollis,species,Black-collared Starling,10,104.848,13.99,Asia,Cambodia,Cambodia - Preah Vihéar,2013-03-17,
60078,Garrulax leucolophus diardi,subspecies,White-crested Laughingthrush ssp diardi,2,104.848,13.99,Asia,Cambodia,Cambodia - Preah Vihéar,2013-03-17,
60084,Prinia rufescens beavani,subspecies,Rufescent Prinia ssp beavani,5,104.848,13.99,Asia,Cambodia,Cambodia - Preah Vihéar,2013-03-17,
60095,Pycnonotus flaviventris johnsoni,subspecies,Black-crested Bulbul ssp johnsoni,1,104.848,13.99,Asia,Cambodia,Cambodia - Preah Vihéar,2013-03-17,
60098,Pycnonotus finlaysoni eous,subspecies,Stripe-throated Bulbul ssp eous,1,104.848,13.99,Asia,Cambodia,Cambodia - Preah Vihéar,2013-03-16,
60099,Pycnonotus finlaysoni eous,subspecies,Stripe-throated Bulbul ssp eous,2,104.848,13.99,Asia,Cambodia,Cambodia - Preah Vihéar,2013-03-17,
60101,Corvus levaillantii,species,Eastern Jungle Crow,4,104.848,13.99,Asia,Cambodia,Cambodia - Preah Vihéar,2013-03-16,
60102,Corvus levaillantii,species,Eastern Jungle Crow,2,104.848,13.99,Asia,Cambodia,Cambodia - Preah Vihéar,2013-03-17,
60105,Dendrocitta vagabunda sakeratensis,subspecies,Rufous Treepie ssp sakeratensis,3,104.848,13.99,Asia,Cambodia,Cambodia - Preah Vihéar,2013-03-17,
60107,Hypothymis azurea styani,subspecies,Black-naped Monarch ssp styani,1,104.848,13.99,Asia,Cambodia,Cambodia - Preah Vihéar,2013-03-17,
60109,Lanius collurioides collurioides,subspecies,Burmese Shrike ssp collurioides,1,104.848,13.99,Asia,Cambodia,Cambodia - Preah Vihéar,2013-03-17,
60110,Dicrurus paradiseus paradiseus,subspecies,Greater Racket-tailed Drongo ssp paradiseus,2,104.848,13.99,Asia,Cambodia,Cambodia - Preah Vihéar,2013-03-17,
66934,Clanga hastata,species,Indian Spotted Eagle,1,104.55383777618,13.93198454837,Asia,Cambodia,Cambodia - Preah Vihéar,2013-03-15,
67269,Phylloscopus schwarzi,species,Radde's Warbler,1,104.556,13.93,Asia,Cambodia,Cambodia - Preah Vihéar,2013-03-16,
67740,Coracias affinis,species,Indochinese Roller,1,104.556,13.93,Asia,Cambodia,Cambodia - Preah Vihéar,2013-03-16,
67951,Treron phoenicopterus annamensis,subspecies,Yellow-footed Green Pigeon ssp annamensis,2,104.556,13.93,Asia,Cambodia,Cambodia - Preah Vihéar,2013-03-16,
67992,Pseudibis gigantea,species,Giant Ibis,1,104.556,13.93,Asia,Cambodia,Cambodia - Preah Vihéar,2013-03-16,
94894,Pelargopsis capensis burmanica,subspecies,Stork-billed Kingfisher ssp burmanica,1,103.33117961884,13.833662901076,Asia,Cambodia,Cambodia - Bântéay Méanchey,2013-03-13,
94898,Coracias affinis,species,Indochinese Roller,2,103.33117961884,13.833662901076,Asia,Cambodia,Cambodia - Bântéay Méanchey,2013-03-13,
94901,Athene brama mayri,subspecies,Spotted Owlet ssp mayri,1,103.33117961884,13.833662901076,Asia,Cambodia,Cambodia - Bântéay Méanchey,2013-03-13,
94914,Glareola maldivarum,species,Oriental Pratincole,25,103.3,13.8,Asia,Cambodia,Cambodia - Bântéay Méanchey,2013-03-13,
94931,Gallicrex cinerea,species,Watercock,1,103.33117961884,13.833662901076,Asia,Cambodia,Cambodia - Bântéay Méanchey,2013-03-13,
95005,Circus spilonotus,species,Eastern Marsh Harrier,2,103.33117961884,13.833662901076,Asia,Cambodia,Cambodia - Bântéay Méanchey,2013-03-13,
104521,Copsychus saularis,species,Oriental Magpie-Robin,1,103.822,13.303,Asia,Cambodia,Cambodia - Siemréab,2013-03-12,
104527,Acridotheres tristis,species,Common Myna,1,103.822,13.303,Asia,Cambodia,Cambodia - Siemréab,2013-03-12,
104588,Coracias affinis,species,Indochinese Roller,4,103.822,13.303,Asia,Cambodia,Cambodia - Siemréab,2013-03-12,
104660,Ixobrychus cinnamomeus,species,Cinnamon Bittern,2,103.822,13.303,Asia,Cambodia,Cambodia - Siemréab,2013-03-12,
104990,Leptoptilos dubius,species,Greater Adjutant,2,103.68,13.111,Asia,Cambodia,Cambodia - Batdâmbâng,2013-03-12,
104994,Leptoptilos javanicus,species,Lesser Adjutant,3,103.68,13.111,Asia,Cambodia,Cambodia - Batdâmbâng,2013-03-12,
104996,Mycteria leucocephala,species,Painted Stork,200,103.68,13.111,Asia,Cambodia,Cambodia - Batdâmbâng,2013-03-12,
105005,Dendrocygna javanica,species,Lesser Whistling Duck,4,103.68,13.111,Asia,Cambodia,Cambodia - Batdâmbâng,2013-03-12,
5471,Glareola maldivarum,species,Oriental Pratincole,10,104.45,12.95,Asia,Cambodia,Cambodia - Kâmpóng Thum,2013-03-14,
5841,Alauda gulgula herberti,subspecies,Oriental Skylark ssp herberti,10,104.464,12.998,Asia,Cambodia,Cambodia - Kâmpóng Thum,2013-03-14,
5844,Mirafra javanica williamsoni,subspecies,Horsfield's Bush Lark ssp williamsoni,1,104.464,12.998,Asia,Cambodia,Cambodia - Kâmpóng Thum,2013-03-14,
5857,Coracias affinis,species,Indochinese Roller,1,104.464,12.998,Asia,Cambodia,Cambodia - Kâmpóng Thum,2013-03-14,
6413,Prinia polychroa deignani,subspecies,Deignan's Prinia ssp deignani,1,104.57091808319,13.913948151605,Asia,Cambodia,Cambodia - Preah Vihéar,2013-03-14,
24144,Cyornis hainanus,species,Hainan Blue Flycatcher,1,103.86577606201,13.441382545891,Asia,Cambodia,Cambodia - Siemréab,2013-03-11,
24656,Psittacula alexandri fasciata,subspecies,Red-breasted Parakeet ssp fasciata,25,103.88942241669,13.434928439746,Asia,Cambodia,Cambodia - Siemréab,2013-03-11,
24664,Psittacula eupatria siamensis,subspecies,Alexandrine Parakeet ssp siamensis,1,103.88874650002,13.43502757446,Asia,Cambodia,Cambodia - Siemréab,2013-03-11,
79139,Surniculus lugubris,species,Square-tailed Drongo-Cuckoo,1,104.546,13.864,Asia,Cambodia,Cambodia - Preah Vihéar,2013-03-15,
79140,Chrysococcyx xanthorhynchus xanthorhynchus,subspecies,Violet Cuckoo ssp xanthorhynchus,1,104.546,13.864,Asia,Cambodia,Cambodia - Preah Vihéar,2013-03-15,
79142,Treron bicinctus bicinctus,subspecies,Orange-breasted Green Pigeon ssp bicinctus,1,104.546,13.864,Asia,Cambodia,Cambodia - Preah Vihéar,2013-03-15,
79149,Antigone antigone sharpii,subspecies,Sarus Crane ssp sharpii,3,104.555,13.930968760212,Asia,Cambodia,Cambodia - Preah Vihéar,2013-03-15,
79160,Antigone antigone sharpii,subspecies,Sarus Crane ssp sharpii,1,104.555,13.931,Asia,Cambodia,Cambodia - Preah Vihéar,2013-03-15,
86009,Cyornis sumatrensis indochina,subspecies,Indochinese Blue Flycatcher ssp indochina,1,104.545,13.864,Asia,Cambodia,Cambodia - Preah Vihéar,2013-03-15,
101419,Charadrius veredus,species,Oriental Plover,11,104.464,12.998,Asia,Cambodia,Cambodia - Kâmpóng Thum,2013-03-14,
101425,Antigone antigone sharpii,subspecies,Sarus Crane ssp sharpii,45,104.464,12.998,Asia,Cambodia,Cambodia - Kâmpóng Thum,2013-03-14,
101433,Turnix tanki blanfordii,subspecies,Yellow-legged Buttonquail ssp blanfordii,1,104.464,12.998,Asia,Cambodia,Cambodia - Kâmpóng Thum,2013-03-14,
107600,Pericrocotus speciosus semiruber,subspecies,Scarlet Minivet ssp semiruber,2,104.848,13.99,Asia,Cambodia,Cambodia - Preah Vihéar,2013-03-17,
107602,Coracina macei siamensis,subspecies,Large Cuckooshrike ssp siamensis,5,104.848,13.99,Asia,Cambodia,Cambodia - Preah Vihéar,2013-03-17,
107633,Coracias affinis,species,Indochinese Roller,1,104.848,13.99,Asia,Cambodia,Cambodia - Preah Vihéar,2013-03-17,
107640,Glaucidium cuculoides deignani,subspecies,Asian Barred Owlet ssp deignani,1,104.848,13.99,Asia,Cambodia,Cambodia - Preah Vihéar,2013-03-17,
107647,Strix leptogrammica laotiana,subspecies,Brown Wood Owl ssp laotiana,1,104.848,13.99,Asia,Cambodia,Cambodia - Preah Vihéar,2013-03-17,
107673,Cacomantis sonneratii sonneratii,subspecies,Banded Bay Cuckoo ssp sonneratii,1,104.848,13.99,Asia,Cambodia,Cambodia - Preah Vihéar,2013-03-17,
107690,Columba punicea,species,Pale-capped Pigeon,2,104.848,13.99,Asia,Cambodia,Cambodia - Preah Vihéar,2013-03-17,
107712,Nisaetus cirrhatus limnaeetus,subspecies,Changeable Hawk-Eagle ssp limnaeetus,1,104.848,13.99,Asia,Cambodia,Cambodia - Preah Vihéar,2013-03-17,
107735,Pseudibis davisoni,species,White-shouldered Ibis,1,104.848,13.99,Asia,Cambodia,Cambodia - Preah Vihéar,2013-03-17,
107813,Cyornis sumatrensis indochina,subspecies,Indochinese Blue Flycatcher ssp indochina,2,104.928,13.937,Asia,Cambodia,Cambodia - Preah Vihéar,2013-03-18,
107822,Muscicapa dauurica dauurica,subspecies,Asian Brown Flycatcher ssp dauurica,1,104.928,13.937,Asia,Cambodia,Cambodia - Preah Vihéar,2013-03-18,
109899,Coracias affinis,species,Indochinese Roller,3,104.928,13.937,Asia,Cambodia,Cambodia - Preah Vihéar,2013-03-18,
115298,Charadrius veredus,species,Oriental Plover,29,103.30052733421,13.659842538094,Asia,Cambodia,Cambodia - Bântéay Méanchey,2013-03-13,
115336,Haliaeetus ichthyaetus,species,Grey-headed Fish Eagle,3,103.68,13.111,Asia,Cambodia,Cambodia - Batdâmbâng,2013-03-12,
115341,Anhinga melanogaster,species,Oriental Darter,100,103.68,13.111,Asia,Cambodia,Cambodia - Batdâmbâng,2013-03-12,
115343,Phalacrocorax fuscicollis,species,Indian Cormorant,50,103.68,13.111,Asia,Cambodia,Cambodia - Batdâmbâng,2013-03-12,
115345,Pelecanus philippensis,species,Spot-billed Pelican,100,103.68,13.111,Asia,Cambodia,Cambodia - Batdâmbâng,2013-03-12,
115891,Bubulcus coromandus,species,Eastern Cattle Egret,100,103.68,13.111,Asia,Cambodia,Cambodia - Batdâmbâng,2013-03-12,
115895,Ardeola bacchus,species,Chinese Pond Heron,100,103.68,13.111,Asia,Cambodia,Cambodia - Batdâmbâng,2013-03-12,
115910,Nycticorax nycticorax,species,Black-crowned Night Heron,25,103.68,13.111,Asia,Cambodia,Cambodia - Batdâmbâng,2013-03-12,
57809,Francolinus pintadeanus phayrei,subspecies,Chinese Francolin ssp phayrei,4,104.546,13.864,Asia,Cambodia,Cambodia - Preah Vihéar,2013-03-16,
57815,Francolinus pintadeanus phayrei,subspecies,Chinese Francolin ssp phayrei,3,104.546,13.864,Asia,Cambodia,Cambodia - Preah Vihéar,2013-03-15,
57818,Francolinus pintadeanus phayrei,subspecies,Chinese Francolin ssp phayrei,1,104.546,13.864,Asia,Cambodia,Cambodia - Preah Vihéar,2013-03-15,12:31
85287,Pteropus vampyrus,species,Large Flying Fox,300,103.8733291626,13.437709413814,Asia,Cambodia,Cambodia - Siemréab,2013-04-09,
85383,Macaca fascicularis,species,Long-tailed Macaque,6,104.8274230957,11.843158941607,Asia,Cambodia,Cambodia - Kândal,2013-04-08,
26119,Pycnonotus goiavier,species,Yellow-vented Bulbul,1,104.856262207,11.8754144247,Asia,Cambodia,Cambodia - Kâmpóng Cham,2013-04-07,
56644,Dicrurus paradiseus,species,Greater Racket-tailed Drongo,1,103.86483192444,13.387782636973,Asia,Cambodia,Cambodia - Siemréab,2013-04-09,
56751,Cinnyris jugularis,species,Olive-backed Sunbird,2,103.85832488537,13.363405129373,Asia,Cambodia,Cambodia - Siemréab,2013-04-09,
56911,Pycnonotus goiavier,species,Yellow-vented Bulbul,2,103.85895252228,13.358848751433,Asia,Cambodia,Cambodia - Siemréab,2013-04-10,
56915,Dicrurus macrocercus,species,Black Drongo,6,103.85946750641,13.359892602776,Asia,Cambodia,Cambodia - Siemréab,2013-04-10,
57814,Passer montanus malaccensis,subspecies,Eurasian Tree Sparrow ssp malaccensis,30,104.92012023926,11.566480118767,Asia,Cambodia,Cambodia - Phnom Penh,2013-04-07,
95940,Microhierax caerulescens burmanicus,subspecies,Collared Falconet ssp burmanicus,1,104.494905,13.656985,Asia,Cambodia,Cambodia - Preah Vihéar,2013-03-18,16:05
95965,Pseudibis gigantea,species,Giant Ibis,2,104.927769,13.937386,Asia,Cambodia,Cambodia - Preah Vihéar,2013-03-18,10:25
95996,Pseudibis gigantea,species,Giant Ibis,8,104.84767,13.989613,Asia,Cambodia,Cambodia - Preah Vihéar,2013-03-17,08:22
96068,Pseudibis gigantea,species,Giant Ibis,2,104.844187,13.985503,Asia,Cambodia,Cambodia - Preah Vihéar,2013-03-17,05:29
96298,Pseudibis davisoni,species,White-shouldered Ibis,9,104.87208,13.990333,Asia,Cambodia,Cambodia - Preah Vihéar,2013-03-16,18:18
96615,Antigone antigone sharpii,subspecies,Sarus Crane ssp sharpii,3,104.553352,13.933223,Asia,Cambodia,Cambodia - Preah Vihéar,2013-03-14,17:15
96632,Butastur liventer,species,Rufous-winged Buzzard,2,104.660076,13.846244,Asia,Cambodia,Cambodia - Preah Vihéar,2013-03-14,14:37
96644,Polihierax insignis harmandi,subspecies,White-rumped Falcon ssp harmandi,1,104.54474687402,13.714663173707,Asia,Cambodia,Cambodia - Preah Vihéar,2013-03-14,13:40
96866,Acrocephalus tangorum,species,Manchurian Reed Warbler,1,104.46404,12.997591,Asia,Cambodia,Cambodia - Kâmpóng Thum,2013-03-14,08:24
99215,Prinia polychroa deignani,subspecies,Deignan's Prinia ssp deignani,1,105.73608376086,13.526382972084,Asia,Cambodia,Cambodia - Stng Trêng,2013-03-17,
99236,Coracias affinis,species,Indochinese Roller,1,105.73608376086,13.526382972084,Asia,Cambodia,Cambodia - Stng Trêng,2013-03-17,
17212,Surniculus lugubris,species,Square-tailed Drongo-Cuckoo,1,105.19409179688,13.976715394602,Asia,Cambodia,Cambodia - Preah Vihéar,2013-03-14,
17279,Prinia polychroa deignani,subspecies,Deignan's Prinia ssp deignani,1,105.21057128906,13.560561745081,Asia,Cambodia,Cambodia - Preah Vihéar,2013-03-14,
17485,Coracias affinis,species,Indochinese Roller,1,104.58435058594,13.512496627038,Asia,Cambodia,Cambodia - Siemréab,2013-03-12,
40654,Pelargopsis capensis burmanica,subspecies,Stork-billed Kingfisher ssp burmanica,2,103.32229614258,13.774066408055,Asia,Cambodia,Cambodia - Bântéay Méanchey,2013-03-13,
40668,Gallicrex cinerea,species,Watercock,1,103.32229614258,13.774066408055,Asia,Cambodia,Cambodia - Bântéay Méanchey,2013-03-13,
40723,Hirundo rustica gutturalis,subspecies,Barn Swallow ssp gutturalis,100,103.32229614258,13.774066408055,Asia,Cambodia,Cambodia - Bântéay Méanchey,2013-03-13,
40731,Athene brama mayri,subspecies,Spotted Owlet ssp mayri,1,103.32229614258,13.774066408055,Asia,Cambodia,Cambodia - Bântéay Méanchey,2013-03-13,
40734,Calliope calliope,species,Siberian Rubythroat,1,103.84346008301,13.323480401571,Asia,Cambodia,Cambodia - Siemréab,2013-03-12,
40740,Anhinga melanogaster,species,Oriental Darter,100,103.19046020508,13.304102866767,Asia,Cambodia,Cambodia - Batdâmbâng,2013-03-12,
40743,Halcyon pileata,species,Black-capped Kingfisher,2,103.19046020508,13.304102866767,Asia,Cambodia,Cambodia - Batdâmbâng,2013-03-12,
40746,Ardeola bacchus,species,Chinese Pond Heron,5,103.19046020508,13.304102866767,Asia,Cambodia,Cambodia - Batdâmbâng,2013-03-12,
40748,Leptoptilos javanicus,species,Lesser Adjutant,6,103.19046020508,13.304102866767,Asia,Cambodia,Cambodia - Batdâmbâng,2013-03-12,
40749,Haliaeetus ichthyaetus,species,Grey-headed Fish Eagle,3,103.19046020508,13.304102866767,Asia,Cambodia,Cambodia - Batdâmbâng,2013-03-12,
40754,Mycteria leucocephala,species,Painted Stork,500,103.19046020508,13.304102866767,Asia,Cambodia,Cambodia - Batdâmbâng,2013-03-12,
40756,Anastomus oscitans,species,Asian Openbill,100,103.19046020508,13.304102866767,Asia,Cambodia,Cambodia - Batdâmbâng,2013-03-12,
40759,Pelecanus philippensis,species,Spot-billed Pelican,100,103.19046020508,13.304102866767,Asia,Cambodia,Cambodia - Batdâmbâng,2013-03-12,
40771,Psittacula alexandri fasciata,subspecies,Red-breasted Parakeet ssp fasciata,25,103.88929367065,13.435705863511,Asia,Cambodia,Cambodia - Siemréab,2013-03-11,
40776,Psittacula eupatria siamensis,subspecies,Alexandrine Parakeet ssp siamensis,1,103.88929367065,13.435705863511,Asia,Cambodia,Cambodia - Siemréab,2013-03-11,
40976,Pseudibis davisoni,species,White-shouldered Ibis,12,104.88235473633,13.970052131638,Asia,Cambodia,Cambodia - Preah Vihéar,2013-03-16,
40986,Gracupica nigricollis,species,Black-collared Starling,3,104.88235473633,13.970052131638,Asia,Cambodia,Cambodia - Preah Vihéar,2013-03-17,
40990,Cacomantis sonneratii sonneratii,subspecies,Banded Bay Cuckoo ssp sonneratii,1,104.88235473633,13.970052131638,Asia,Cambodia,Cambodia - Preah Vihéar,2013-03-17,
40992,Glaucidium cuculoides deignani,subspecies,Asian Barred Owlet ssp deignani,1,104.88235473633,13.970052131638,Asia,Cambodia,Cambodia - Preah Vihéar,2013-03-17,
41104,Microhierax caerulescens burmanicus,subspecies,Collared Falconet ssp burmanicus,1,104.6337890625,13.756726389632,Asia,Cambodia,Cambodia - Preah Vihéar,2013-03-18,
43200,Pseudibis gigantea,species,Giant Ibis,2,104.90267354661,13.96079586056,Asia,Cambodia,Cambodia - Preah Vihéar,2013-03-18,10:22
43201,Ephippiorhynchus asiaticus asiaticus,subspecies,Black-necked Stork ssp asiaticus,2,104.5536743478,13.932543295628,Asia,Cambodia,Cambodia - Preah Vihéar,2013-03-15,16:40
43202,Pseudibis gigantea,species,Giant Ibis,1,104.55344887443,13.93224705555,Asia,Cambodia,Cambodia - Preah Vihéar,2013-03-16,09:39
43203,Chrysococcyx xanthorhynchus xanthorhynchus,subspecies,Violet Cuckoo ssp xanthorhynchus,1,104.54639792702,13.863755823004,Asia,Cambodia,Cambodia - Preah Vihéar,2013-03-15,08:31
43204,Francolinus pintadeanus phayrei,subspecies,Chinese Francolin ssp phayrei,1,104.54639792702,13.863755823004,Asia,Cambodia,Cambodia - Preah Vihéar,2013-03-15,12:31
43206,Butastur liventer,species,Rufous-winged Buzzard,1,104.65997008759,13.846112324944,Asia,Cambodia,Cambodia - Preah Vihéar,2013-03-14,14:46
43208,Polihierax insignis harmandi,subspecies,White-rumped Falcon ssp harmandi,1,104.54085233789,13.700634960636,Asia,Cambodia,Cambodia - Preah Vihéar,2013-03-14,13:56
43209,Antigone antigone sharpii,subspecies,Sarus Crane ssp sharpii,42,104.46486409474,12.998267750392,Asia,Cambodia,Cambodia - Kâmpóng Thum,2013-03-14,07:39
4120,Cyornis sumatrensis indochina,subspecies,Indochinese Blue Flycatcher ssp indochina,1,104.78210449219,14.21646375616,Asia,Cambodia,Cambodia - Preah Vihéar,2009-04-13,
4140,Pericrocotus speciosus semiruber,subspecies,Scarlet Minivet ssp semiruber,1,104.78210449219,14.21646375616,Asia,Cambodia,Cambodia - Preah Vihéar,2009-04-13,
4207,Elanus caeruleus,species,Black-winged Kite,1,104.62280273438,12.720726019421,Asia,Cambodia,Cambodia - Kâmpóng Thum,2009-04-11,
4217,Porphyrio poliocephalus,species,Grey-headed Swamphen,1,103.65,14.2,Asia,Cambodia,Cambodia - Otdar Mean Chey,2009-04-10,
4224,Tyto javanica stertens,subspecies,Eastern Barn Owl ssp stertens,1,103.68896484375,14.243086862717,Asia,Cambodia,Cambodia - Otdar Mean Chey,2009-04-10,
4235,Bubulcus coromandus,species,Eastern Cattle Egret,1,103.73291015625,12.999205411301,Asia,Cambodia,Cambodia - Batdâmbâng,2009-01-08,
4263,Rhyticeros undulatus,species,Wreathed Hornbill,12,104.04876708984,10.836003604375,Asia,Cambodia,Cambodia - Preah Monivong NP,2009-02-12,
16292,Pericrocotus speciosus semiruber,subspecies,Scarlet Minivet ssp semiruber,2,107.01438903809,12.195744213892,Asia,Cambodia,Cambodia - Môndól Kiri,2009-02-15,
16336,Cyornis sumatrensis indochina,subspecies,Indochinese Blue Flycatcher ssp indochina,2,107.01438903809,12.195744213892,Asia,Cambodia,Cambodia - Môndól Kiri,2009-02-14,
16337,Pericrocotus speciosus semiruber,subspecies,Scarlet Minivet ssp semiruber,2,107.01438903809,12.195744213892,Asia,Cambodia,Cambodia - Môndól Kiri,2009-02-14,
16350,Coracias affinis,species,Indochinese Roller,2,107.01438903809,12.195744213892,Asia,Cambodia,Cambodia - Môndól Kiri,2009-02-14,
16393,Pericrocotus speciosus semiruber,subspecies,Scarlet Minivet ssp semiruber,4,107.0112991333,12.196415362052,Asia,Cambodia,Cambodia - Môndól Kiri,2009-02-13,
16496,Orcaella brevirostris,species,Irrawaddy Dolphin,11,106.0117149353,12.604993193512,Asia,Cambodia,Cambodia - Krâchéh,2009-02-12,
16498,Motacilla samveasnae,species,Mekong Wagtail,8,106.0117149353,12.604993193512,Asia,Cambodia,Cambodia - Krâchéh,2009-02-12,
16512,Coracias affinis,species,Indochinese Roller,1,106.0117149353,12.604993193512,Asia,Cambodia,Cambodia - Krâchéh,2009-02-12,
20780,Coracias affinis,species,Indochinese Roller,3,104.9242401123,12.466078330147,Asia,Cambodia,Cambodia - Kâmpóng Thum,2009-02-11,
20830,Pericrocotus speciosus semiruber,subspecies,Scarlet Minivet ssp semiruber,2,104.92904663086,13.990041341845,Asia,Cambodia,Cambodia - Preah Vihéar,2009-02-10,
20871,Coracias affinis,species,Indochinese Roller,5,104.92904663086,13.990041341845,Asia,Cambodia,Cambodia - Preah Vihéar,2009-02-10,
20896,Parus cinereus templorum,subspecies,Cinereous Tit ssp templorum,1,104.92904663086,13.990041341845,Asia,Cambodia,Cambodia - Preah Vihéar,2009-02-09,
20947,Pericrocotus speciosus semiruber,subspecies,Scarlet Minivet ssp semiruber,2,104.92904663086,13.990041341845,Asia,Cambodia,Cambodia - Preah Vihéar,2009-02-09,
20966,Coracias affinis,species,Indochinese Roller,5,104.92904663086,13.990041341845,Asia,Cambodia,Cambodia - Preah Vihéar,2009-02-09,
21684,Cyornis sumatrensis indochina,subspecies,Indochinese Blue Flycatcher ssp indochina,1,104.92904663086,13.990041341845,Asia,Cambodia,Cambodia - Preah Vihéar,2009-02-08,
21685,Pericrocotus speciosus semiruber,subspecies,Scarlet Minivet ssp semiruber,3,104.92904663086,13.990041341845,Asia,Cambodia,Cambodia - Preah Vihéar,2009-02-08,
21711,Coracias affinis,species,Indochinese Roller,5,104.92904663086,13.990041341845,Asia,Cambodia,Cambodia - Preah Vihéar,2009-02-08,
21787,Coracias affinis,species,Indochinese Roller,8,104.92904663086,13.990041341845,Asia,Cambodia,Cambodia - Preah Vihéar,2009-02-07,
21883,Coracias affinis,species,Indochinese Roller,3,104.74502563477,12.629618030175,Asia,Cambodia,Cambodia - Kâmpóng Thum,2009-02-07,
21993,Bubulcus coromandus,species,Eastern Cattle Egret,10,103.25878143311,13.802741307151,Asia,Cambodia,Cambodia - Bântéay Méanchey,2009-02-06,
21995,Ardea alba,species,Great Egret,10,103.25878143311,13.802741307151,Asia,Cambodia,Cambodia - Bântéay Méanchey,2009-02-06,
22025,Coracias affinis,species,Indochinese Roller,1,103.2580947876,13.813743530591,Asia,Cambodia,Cambodia - Bântéay Méanchey,2009-02-06,
22056,Riparia riparia,species,Sand Martin,5,103.70544433594,13.066101276125,Asia,Cambodia,Cambodia - Batdâmbâng,2009-02-05,
22062,Anastomus oscitans,species,Asian Openbill,500,103.66836547852,13.106230102045,Asia,Cambodia,Cambodia - Batdâmbâng,2009-02-05,
22068,Ixobrychus sinensis,species,Yellow Bittern,20,103.66836547852,13.106230102045,Asia,Cambodia,Cambodia - Batdâmbâng,2009-02-05,
22070,Pelecanus philippensis,species,Spot-billed Pelican,50,103.66836547852,13.106230102045,Asia,Cambodia,Cambodia - Batdâmbâng,2009-02-05,
22073,Ardea cinerea,species,Grey Heron,20,103.66836547852,13.106230102045,Asia,Cambodia,Cambodia - Batdâmbâng,2009-02-05,
22079,Anhinga melanogaster,species,Oriental Darter,200,103.66836547852,13.106230102045,Asia,Cambodia,Cambodia - Batdâmbâng,2009-02-05,
22082,Haliaeetus ichthyaetus,species,Grey-headed Fish Eagle,4,103.66836547852,13.106230102045,Asia,Cambodia,Cambodia - Batdâmbâng,2009-02-05,
22088,Merops philippinus,species,Blue-tailed Bee-eater,4,103.66836547852,13.106230102045,Asia,Cambodia,Cambodia - Batdâmbâng,2009-02-05,
22172,Coracias affinis,species,Indochinese Roller,1,103.87264251709,13.442050382041,Asia,Cambodia,Cambodia - Siemréab,2009-02-03,
89451,Haliastur indus,species,Brahminy Kite,1,103.62702325078,10.49956568786,Asia,Cambodia,Cambodia - Ream NP,2012-09-27,
81539,Ratufa bicolor,species,Black Giant Squirrel,1,104.469619763,13.8948622176,Asia,Cambodia,Cambodia - Preah Vihéar,2012-05-31,
81575,Cyornis sumatrensis indochina,subspecies,Indochinese Blue Flycatcher ssp indochina,1,104.469619763,13.8948622176,Asia,Cambodia,Cambodia - Preah Vihéar,2012-05-03,
81592,Coracias affinis,species,Indochinese Roller,1,104.469619763,13.8948622176,Asia,Cambodia,Cambodia - Preah Vihéar,2012-05-03,
81615,Corydon sumatranus,species,Dusky Broadbill,1,104.469619763,13.8948622176,Asia,Cambodia,Cambodia - Preah Vihéar,2012-05-03,
81619,Pitta moluccensis,species,Blue-winged Pitta,1,104.469619763,13.8948622176,Asia,Cambodia,Cambodia - Preah Vihéar,2012-05-03,
34386,Prinia inornata,species,Plain Prinia,1,104.925830128,11.5767075957,Asia,Cambodia,Cambodia - Phnom Penh,2012-04-06,
34440,Lonchura punctulata,species,Scaly-breasted Munia,2,104.925830128,11.5767075957,Asia,Cambodia,Cambodia - Phnom Penh,2012-04-06,
37369,Pycnonotus goiavier,species,Yellow-vented Bulbul,1,103.85583859,13.424059572,Asia,Cambodia,Cambodia - Siemréab,2012-03-22,
37376,Dicrurus paradiseus,species,Greater Racket-tailed Drongo,2,103.85583859,13.424059572,Asia,Cambodia,Cambodia - Siemréab,2012-03-22,
37386,Geopelia striata,species,Zebra Dove,1,103.85583859,13.424059572,Asia,Cambodia,Cambodia - Siemréab,2012-03-22,
37389,Psittacula alexandri,species,Red-breasted Parakeet,10,103.85583859,13.424059572,Asia,Cambodia,Cambodia - Siemréab,2012-03-22,
37391,Halcyon pileata,species,Black-capped Kingfisher,2,103.85583859,13.424059572,Asia,Cambodia,Cambodia - Siemréab,2012-03-22,
37483,Hirundapus cochinchinensis,species,Silver-backed Needletail,1,103.821506315,13.2536886407,Asia,Cambodia,Cambodia - Siemréab,2012-03-21,
37673,Chlidonias hybrida,species,Whiskered Tern,10,103.821506315,13.2536886407,Asia,Cambodia,Cambodia - Siemréab,2012-03-21,
39947,Megalurus palustris,species,Striated Grassbird,1,103.821198037,13.252427214,Asia,Cambodia,Cambodia - Siemréab,2012-03-21,
39952,Copsychus saularis,species,Oriental Magpie-Robin,1,103.821198037,13.252427214,Asia,Cambodia,Cambodia - Siemréab,2012-03-21,
40026,Prinia flaviventris,species,Yellow-bellied Prinia,1,103.821198037,13.252427214,Asia,Cambodia,Cambodia - Siemréab,2012-03-21,
40030,Bubulcus coromandus,species,Eastern Cattle Egret,1,103.82119804,13.25242721,Asia,Cambodia,Cambodia - Siemréab,2012-03-21,
40036,Motacilla samveasnae,species,Mekong Wagtail,1,106.008163979,12.6622294985,Asia,Cambodia,Cambodia - Krâchéh,2012-03-20,
40666,Glareola lactea,species,Small Pratincole,2,106.008163979,12.6622294985,Asia,Cambodia,Cambodia - Krâchéh,2012-03-20,
27595,Cyanoptila cyanomelana,species,Blue-and-white Flycatcher,1,104.90151195,11.4819179154,Asia,Cambodia,Cambodia - Phnom Penh,2012-04-04,
69683,Halcyon pileata,species,Black-capped Kingfisher,1,103.74637541744346,10.719735829137818,Asia,Cambodia,Cambodia - Krong Preah Sihanouk,2011-02-04,
91994,Rhyticeros undulatus,species,Wreathed Hornbill,1,104.032405854,10.8211129399,Asia,Cambodia,Cambodia - Krong Preah Sihanouk,2011-02-08,
109894,Monticola gularis,species,White-throated Rock Thrush,1,103.736598306,10.483718284,Asia,Cambodia,Cambodia - Krong Preah Sihanouk,2011-02-04,
109895,Charadrius peronii,species,Malaysian Plover,1,103.534831815,10.5945128132,Asia,Cambodia,Cambodia,2011-02-03,
67468,Kaloula pulchra,species,Banded Bullfrog,1,103.859958463,13.3609361254,Asia,Cambodia,Cambodia - Siemréab,2004-02-27,
61989,Milvus migrans,species,Black Kite,1,103.08149899581096,13.801726653080555,Asia,Cambodia,Cambodia - Bântéay Méanchey,2010-05-09,
61992,Glareola maldivarum,species,Oriental Pratincole,20,103.05,13.8,Asia,Cambodia,Cambodia - Bântéay Méanchey,2010-05-09,
62007,Anastomus oscitans,species,Asian Openbill,20,103.015157596,13.7046475518,Asia,Cambodia,Cambodia - Bântéay Méanchey,2010-05-09,
63159,Orcaella brevirostris,species,Irrawaddy Dolphin,10,106.013657143,12.5711006331,Asia,Cambodia,Cambodia - Krâchéh,2010-05-27,
23504,Trithemis pallidinervis,species,,1,103.873672485,13.4327005067,Asia,Cambodia,Cambodia - Siemréab,2009-02-10,
23506,Libellago lineata,species,,1,105.99609375,12.4848504498,Asia,Cambodia,Cambodia - Krâchéh,2009-02-10,
29234,Trithemis pallidinervis,species,,1,103.861312866,13.4146675753,Asia,Cambodia,Cambodia - Siemréab,2009-01-30,
29272,Orthetrum sabina,species,Slender Skimmer,1,103.861312866,13.4146675753,Asia,Cambodia,Cambodia - Siemréab,2009-01-30,
29379,Libellago lineata,species,,1,103.861312866,13.4146675753,Asia,Cambodia,Cambodia - Siemréab,2009-01-30,
29418,Diplacodes trivialis,species,Chalky Percher,1,103.861312866,13.4146675753,Asia,Cambodia,Cambodia - Siemréab,2009-01-30,
29429,Diplacodes nebulosa,species,Charcoal-winged Percher,1,103.861312866,13.4146675753,Asia,Cambodia,Cambodia - Siemréab,2010-09-17,
29444,Crocothemis servilia,species,Oriental Scarlet,2,103.861312866,13.4146675753,Asia,Cambodia,Cambodia - Siemréab,2010-09-17,
29458,Brachythemis contaminata,species,Asian Amberwing,1,103.861312866,13.4146675753,Asia,Cambodia,Cambodia - Siemréab,2010-09-17,
29505,Orcaella brevirostris,species,Irrawaddy Dolphin,14,106.007080078,12.4794871259,Asia,Cambodia,Cambodia - Krâchéh,2009-02-09,
113836,Orcaella brevirostris,species,Irrawaddy Dolphin,15,106.007080078,12.6174678209,Asia,Cambodia,Cambodia - Krâchéh,2010-05-27,
113840,Motacilla samveasnae,species,Mekong Wagtail,3,106.007080078,12.6174678209,Asia,Cambodia,Cambodia - Krâchéh,2010-05-27,
46626,Crypsirina temia,species,Racket-tailed Treepie,1,106.031069756,12.4692657755,Asia,Cambodia,Cambodia - Krâchéh,2010-05-21,
46628,Lonchura punctulata,species,Scaly-breasted Munia,5,106.031069756,12.4692657755,Asia,Cambodia,Cambodia - Krâchéh,2010-05-21,
117982,Glareola maldivarum,species,Oriental Pratincole,50,104.4,13.0,Asia,Cambodia,Cambodia - Siemréab,2010-05-10,
3190,Antigone antigone sharpii,subspecies,Sarus Crane ssp sharpii,250,103.31251,13.83511,Asia,Cambodia,Cambodia - Bântéay Méanchey,2010-05-09,
3192,Gallicrex cinerea,species,Watercock,2,103.31251,13.83511,Asia,Cambodia,Cambodia - Bântéay Méanchey,2010-05-09,
3194,Mirafra erythrocephala,species,Indochinese Bush Lark,2,103.27751,13.61838,Asia,Cambodia,Cambodia - Bântéay Méanchey,2010-05-09,
3199,Ephippiorhynchus asiaticus,species,Black-necked Stork,2,103.27751,13.61838,Asia,Cambodia,Cambodia - Bântéay Méanchey,2010-05-09,
3200,Dendrocygna javanica,species,Lesser Whistling Duck,20,103.27751,13.61838,Asia,Cambodia,Cambodia - Bântéay Méanchey,2010-05-09,
107906,Houbaropsis bengalensis,species,Bengal Florican,1,104.846134186,12.6519793478,Asia,Cambodia,Cambodia - Kâmpóng Thum,2010-02-01,
57962,Chroicocephalus brunnicephalus,species,Brown-headed Gull,1,103.826293945,13.191816374,Asia,Cambodia,Cambodia - Siemréab,2002-11-21,
33944,Pseudibis gigantea,species,Giant Ibis,7,104.663085993,13.9353111813,Asia,Cambodia,Cambodia - Preah Vihéar,2009-04-12,
33951,Houbaropsis bengalensis,species,Bengal Florican,10,104.53674322,12.7434086005,Asia,Cambodia,Cambodia - Kâmpóng Thum,2009-04-10,
33960,Antigone antigone,species,Sarus Crane,70,103.429870661,13.9361997885,Asia,Cambodia,Cambodia - Otdar Mean Chey,2009-04-10,
82932,Haliastur indus,species,Brahminy Kite,30,103.72467041,10.5175181185,Asia,Cambodia,Cambodia - Krong Preah Sihanouk,2009-03-30,
82936,Leptoptilos javanicus,species,Lesser Adjutant,26,103.72467041,10.5175181185,Asia,Cambodia,Cambodia - Krong Preah Sihanouk,2009-03-30,
9314,Leptoptilos javanicus,species,Lesser Adjutant,1,103.67055130075,13.261021280427,Asia,Cambodia,Cambodia,2008-12-24,
9315,Haliastur indus,species,Brahminy Kite,1,103.670551301,13.2610212804,Asia,Cambodia,Cambodia,2008-12-24,
9316,Haliaeetus ichthyaetus,species,Grey-headed Fish Eagle,1,103.670551301,13.2610212804,Asia,Cambodia,Cambodia,2008-12-24,
9317,Merops philippinus,species,Blue-tailed Bee-eater,1,103.670551301,13.2610212804,Asia,Cambodia,Cambodia,2008-12-24,
9321,Pelecanus philippensis,species,Spot-billed Pelican,1,103.670551301,13.2610212804,Asia,Cambodia,Cambodia,2008-12-24,
9324,Anastomus oscitans,species,Asian Openbill,1,103.670551301,13.2610212804,Asia,Cambodia,Cambodia,2008-12-24,
9330,Microcarbo niger,species,Little Cormorant,1,103.670551301,13.2610212804,Asia,Cambodia,Cambodia,2008-12-24,
9341,Glareola lactea,species,Small Pratincole,1,105.439819337,11.960783398,Asia,Cambodia,Cambodia,2008-12-22,
9344,Coracias affinis,species,Indochinese Roller,1,106.0467224149,13.88705616991,Asia,Cambodia,Cambodia,2008-12-21,
9347,Microhierax caerulescens,species,Collared Falconet,1,106.095428481,13.8203890617,Asia,Cambodia,Cambodia - Stng Trêng,2008-12-21,
96393,Pseudibis davisoni,species,White-shouldered Ibis,7,104.91748809,13.93588878,Asia,Cambodia,Cambodia - Preah Vihéar,2004-03-13,
96511,Leptoptilos javanicus,species,Lesser Adjutant,4,104.90341186,13.96187826,Asia,Cambodia,Cambodia - Preah Vihéar,2004-03-13,
106720,Houbaropsis bengalensis blandini,subspecies,Bengal Florican ssp blandini,6,104.74685666,12.61416216,Asia,Cambodia,Cambodia - Kâmpóng Thum,2004-03-11,
80077,Rhyticeros undulatus,species,Wreathed Hornbill,3,104.04076338,10.63990653,Asia,Cambodia,Cambodia - Preah Monivong NP,2020-02-27,
88827,Tringa stagnatilis,species,Marsh Sandpiper,2,104.33311343,10.49740659,Asia,Cambodia,Cambodia - Kep,2020-02-27,09:44
88855,Tringa glareola,species,Wood Sandpiper,1,104.33311343,10.49740659,Asia,Cambodia,Cambodia - Kep,2020-02-27,09:33
89059,Tringa stagnatilis,species,Marsh Sandpiper,1,104.33311343,10.49740659,Asia,Cambodia,Cambodia - Kep,2020-02-27,09:33
89100,Tringa totanus,species,Common Redshank,1,104.33311343,10.49740659,Asia,Cambodia,Cambodia - Kep,2020-02-27,09:38
89219,Himantopus himantopus,species,Black-winged Stilt,3,104.33311343,10.49740659,Asia,Cambodia,Cambodia - Kep,2020-02-27,09:38
89237,Hydroprogne caspia,species,Caspian Tern,10,104.33311343,10.49740659,Asia,Cambodia,Cambodia - Kep,2020-02-27,09:38
90062,Psilopogon lineatus hodgsoni,subspecies,Lineated Barbet ssp hodgsoni,1,104.29427153,10.49487281,Asia,Cambodia,Cambodia - Kep NP,2020-02-26,17:15
90689,Rhyticeros undulatus,species,Wreathed Hornbill,2,104.08320665,10.62486285,Asia,Cambodia,Cambodia - Preah Monivong NP,2020-02-26,14:03
90737,Motacilla cinerea,species,Grey Wagtail,1,104.05133489,10.65865903,Asia,Cambodia,Cambodia - Preah Monivong NP,2020-02-26,12:32
91032,Pandion haliaetus haliaetus,subspecies,Western Osprey ssp haliaetus,1,104.02252805,10.62654422,Asia,Cambodia,Cambodia - Preah Monivong NP,2020-02-26,08:46
91585,Rhyticeros undulatus,species,Wreathed Hornbill,1,104.08982299,10.60542692,Asia,Cambodia,Cambodia - Preah Monivong NP,2020-02-26,07:11
91598,Gracula religiosa intermedia,subspecies,Common Hill Myna ssp intermedia,1,104.08575308,10.60349234,Asia,Cambodia,Cambodia - Preah Monivong NP,2020-02-26,06:47
91608,Garrulax leucolophus diardi,subspecies,White-crested Laughingthrush ssp diardi,5,104.08610713,10.60354219,Asia,Cambodia,Cambodia - Preah Monivong NP,2020-02-26,06:44
91654,Passer montanus malaccensis,subspecies,Eurasian Tree Sparrow ssp malaccensis,12,104.91772327,11.5491145,Asia,Cambodia,Cambodia - Phnom Penh,2020-02-25,08:32
91871,Psilopogon haemacephalus indicus,subspecies,Coppersmith Barbet ssp indicus,1,104.92419007,11.54053928,Asia,Cambodia,Cambodia - Phnom Penh,2020-02-25,07:31
92077,Merops philippinus,species,Blue-tailed Bee-eater,1,104.92420617,11.54030252,Asia,Cambodia,Cambodia - Phnom Penh,2020-02-23,07:10
92296,Artamus fuscus,species,Ashy Woodswallow,2,105.99147331,12.50572649,Asia,Cambodia,Cambodia - Krâchéh,2020-02-23,09:09
92321,Halcyon smyrnensis perpulchra,subspecies,White-throated Kingfisher ssp perpulchra,1,105.99073302,12.50601501,Asia,Cambodia,Cambodia - Krâchéh,2020-02-23,09:04
92356,Acridotheres tristis tristis,subspecies,Common Myna ssp tristis,1,105.99263906,12.50571607,Asia,Cambodia,Cambodia - Krâchéh,2020-02-23,08:20
92400,Merops philippinus,species,Blue-tailed Bee-eater,1,105.99263906,12.50571607,Asia,Cambodia,Cambodia - Krâchéh,2020-02-23,08:16
92969,Cecropis daurica,species,Red-rumped Swallow,15,105.99391311,12.50818799,Asia,Cambodia,Cambodia - Krâchéh,2020-02-23,06:40
99084,Charadrius dubius,species,Little Ringed Plover,6,105.9882617,12.50489908,Asia,Cambodia,Cambodia - Krâchéh,2020-02-22,16:46
99702,Sturnia malabarica nemoricola,subspecies,Chestnut-tailed Starling ssp nemoricola,5,107.20437711,12.45482457,Asia,Cambodia,Cambodia - Môndól Kiri,2020-02-22,06:50
102115,Lophotriorchis kienerii formosus,subspecies,Rufous-bellied Eagle ssp formosus,1,107.2546868,12.43790212,Asia,Cambodia,Cambodia - Môndól Kiri,2020-02-21,08:35
102940,Aviceda leuphotes syama,subspecies,Black Baza ssp syama,1,107.2546868,12.43790212,Asia,Cambodia,Cambodia - Môndól Kiri,2020-02-21,07:37
103034,Acridotheres burmannicus leucocephalus,subspecies,Vinous-breasted Starling ssp leucocephalus,1,107.2546868,12.43790212,Asia,Cambodia,Cambodia - Môndól Kiri,2020-02-21,06:59
104316,Ampeliceps coronatus,species,Golden-crested Myna,2,107.06731103,12.2830172,Asia,Cambodia,Cambodia - Môndól Kiri,2020-02-20,16:57
107258,Buceros bicornis,species,Great Hornbill,1,107.06731103,12.2830172,Asia,Cambodia,Cambodia - Môndól Kiri,2020-02-20,15:22
110492,Motacilla cinerea,species,Grey Wagtail,1,107.18326989,12.41152532,Asia,Cambodia,Cambodia - Môndól Kiri,2020-02-19,17:05
114236,Acridotheres burmannicus leucocephalus,subspecies,Vinous-breasted Starling ssp leucocephalus,1,107.18245994,12.40954705,Asia,Cambodia,Cambodia - Môndól Kiri,2020-02-19,16:54
116526,Spilornis cheela burmanicus,subspecies,Crested Serpent Eagle ssp burmanicus,1,107.1839422,12.41172371,Asia,Cambodia,Cambodia - Môndól Kiri,2020-02-19,15:01
2887,Sturnia malabarica nemoricola,subspecies,Chestnut-tailed Starling ssp nemoricola,2,107.20436638,12.4548879,Asia,Cambodia,Cambodia - Môndól Kiri,2020-02-19,06:19
3149,Hypsipetes leucocephalus concolor,subspecies,Black Bulbul ssp concolor,1,107.20578795,12.45337406,Asia,Cambodia,Cambodia - Môndól Kiri,2020-02-18,17:40
6829,Ardea cinerea jouyi,subspecies,Grey Heron ssp jouyi,1,105.9934563,13.57694865,Asia,Cambodia,Cambodia - Stng Trêng,2020-02-18,08:02
7481,Falco peregrinus,species,Peregrine Falcon,1,106.02446817,13.6088142,Asia,Cambodia,Cambodia - Stng Trêng,2020-02-17,17:30
7502,Haliastur indus indus,subspecies,Brahminy Kite ssp indus,1,106.02227211,13.60849201,Asia,Cambodia,Cambodia - Stng Trêng,2020-02-17,17:12
7529,Phalacrocorax fuscicollis,species,Indian Cormorant,4,106.01820957,13.60493515,Asia,Cambodia,Cambodia - Stng Trêng,2020-02-17,17:12
7612,Butorides striata javanica,subspecies,Striated Heron ssp javanica,1,106.01560682,13.60047918,Asia,Cambodia,Cambodia - Stng Trêng,2020-02-17,16:29
7670,Charadrius dubius,species,Little Ringed Plover,1,106.01757472,13.60754022,Asia,Cambodia,Cambodia - Stng Trêng,2020-02-17,16:29
8309,Acridotheres grandis,species,Great Myna,7,106.01939678,13.60985802,Asia,Cambodia,Cambodia - Stng Trêng,2020-02-17,16:21
21650,Actitis hypoleucos,species,Common Sandpiper,1,106.01970457,13.60480237,Asia,Cambodia,Cambodia - Stng Trêng,2020-02-17,15:36
21667,Charadrius dubius,species,Little Ringed Plover,1,106.02077745,13.60442697,Asia,Cambodia,Cambodia - Stng Trêng,2020-02-17,14:28
21896,Orcaella brevirostris,species,Irrawaddy Dolphin,2,105.96628368,13.91363289,Asia,Cambodia,Cambodia - Stng Trêng,2020-02-17,10:13
22075,Pandion haliaetus haliaetus,subspecies,Western Osprey ssp haliaetus,1,105.99339008,13.57686288,Asia,Cambodia,Cambodia - Stng Trêng,2020-02-01,09:40
22503,Eumyias thalassinus thalassinus,subspecies,Verditer Flycatcher ssp thalassinus,1,104.93218683,13.93479409,Asia,Cambodia,Cambodia - Preah Vihéar,2020-02-16,07:48
22519,Merops leschenaulti leschenaulti,subspecies,Chestnut-headed Bee-eater ssp leschenaulti,2,104.93218683,13.93479409,Asia,Cambodia,Cambodia - Preah Vihéar,2020-02-16,07:45
55524,Hemiprocne coronata,species,Crested Treeswift,1,104.88584698,13.94816707,Asia,Cambodia,Cambodia - Preah Vihéar,2020-02-15,17:10
55621,Dendrocitta vagabunda sakeratensis,subspecies,Rufous Treepie ssp sakeratensis,1,104.88739193,13.97391287,Asia,Cambodia,Cambodia - Preah Vihéar,2020-02-15,15:49
55925,Hemiprocne coronata,species,Crested Treeswift,1,104.88739193,13.97391287,Asia,Cambodia,Cambodia - Preah Vihéar,2020-02-15,15:22
56403,Upupa epops longirostris,subspecies,Eurasian Hoopoe ssp longirostris,1,104.88590599,13.9973381,Asia,Cambodia,Cambodia - Preah Vihéar,2020-02-15,09:53
56811,Spilornis cheela burmanicus,subspecies,Crested Serpent Eagle ssp burmanicus,1,104.88590599,13.9973381,Asia,Cambodia,Cambodia - Preah Vihéar,2020-02-15,09:19
71916,Pseudibis davisoni,species,White-shouldered Ibis,2,104.8831004,13.98149976,Asia,Cambodia,Cambodia - Preah Vihéar,2020-02-15,06:47
72044,Hemiprocne coronata,species,Crested Treeswift,1,104.88807689,13.97366389,Asia,Cambodia,Cambodia - Preah Vihéar,2020-02-14,17:45
72119,Pseudibis davisoni,species,White-shouldered Ibis,1,104.88807689,13.97366389,Asia,Cambodia,Cambodia - Preah Vihéar,2020-02-14,17:28
72365,Pernis ptilorhynchus,species,Crested Honey Buzzard,1,104.88807689,13.97366389,Asia,Cambodia,Cambodia - Preah Vihéar,2020-02-14,16:26
72410,Butastur liventer,species,Rufous-winged Buzzard,1,104.88807689,13.97366389,Asia,Cambodia,Cambodia - Preah Vihéar,2020-02-14,13:27
85320,Spilornis cheela burmanicus,subspecies,Crested Serpent Eagle ssp burmanicus,1,104.67466777,14.37899287,Asia,Cambodia,Cambodia - Preah Vihéar,2020-02-14,08:23
94503,Butastur liventer,species,Rufous-winged Buzzard,1,104.53848146,13.78341785,Asia,Cambodia,Cambodia - Preah Vihéar,2020-02-13,13:22
96077,Accipiter badius poliopsis,subspecies,Shikra ssp poliopsis,1,104.54619884,13.74992133,Asia,Cambodia,Cambodia - Preah Vihéar,2020-02-13,09:22
96127,Accipiter badius poliopsis,subspecies,Shikra ssp poliopsis,1,103.85659587,13.44727816,Asia,Cambodia,Cambodia - Siemréab,2020-02-12,10:41
98035,Sturnia malabarica nemoricola,subspecies,Chestnut-tailed Starling ssp nemoricola,2,104.55150694,13.73116827,Asia,Cambodia,Cambodia - Preah Vihéar,2020-02-13,09:02
98528,Macaca fascicularis,species,Long-tailed Macaque,10,103.86483192,13.44150777,Asia,Cambodia,Cambodia - Siemréab,2020-02-12,12:20
98703,Gracula religiosa intermedia,subspecies,Common Hill Myna ssp intermedia,1,103.85674238,13.44716344,Asia,Cambodia,Cambodia - Siemréab,2020-02-12,09:35
99780,Chlidonias leucopterus,species,White-winged Tern,1,103.81859433,13.26991594,Asia,Cambodia,Cambodia - Siemréab,2020-02-11,14:19
100510,Anastomus oscitans,species,Asian Openbill,1,103.6805179,13.22422622,Asia,Cambodia,Cambodia - Batdâmbâng,2020-02-11,11:25
112614,Chlidonias hybrida hybrida,subspecies,Whiskered Tern ssp hybrida,1,103.60653184,13.20752421,Asia,Cambodia,Cambodia - Batdâmbâng,2020-02-11,09:43
114205,Haliaeetus ichthyaetus,species,Grey-headed Fish Eagle,1,103.60653184,13.20752421,Asia,Cambodia,Cambodia - Batdâmbâng,2020-02-11,09:36
114243,Pelecanus philippensis,species,Spot-billed Pelican,8,103.60656923,13.20906874,Asia,Cambodia,Cambodia - Batdâmbâng,2020-02-11,09:33
3014,Haliaeetus ichthyaetus,species,Grey-headed Fish Eagle,1,103.60701129,13.20725252,Asia,Cambodia,Cambodia - Batdâmbâng,2020-02-11,09:11
5025,Ardea alba modesta,subspecies,Great Egret ssp modesta,1,103.60596657,13.20979279,Asia,Cambodia,Cambodia - Batdâmbâng,2020-02-11,08:48
5273,Haliaeetus ichthyaetus,species,Grey-headed Fish Eagle,1,103.60637795,13.21060364,Asia,Cambodia,Cambodia - Batdâmbâng,2020-02-11,08:45
9275,Pelecanus philippensis,species,Spot-billed Pelican,1,103.60997211,13.21882365,Asia,Cambodia,Cambodia - Batdâmbâng,2020-02-11,08:38
9596,Chlidonias hybrida,species,Whiskered Tern,1,103.82280439,13.25594798,Asia,Cambodia,Cambodia - Siemréab,2020-02-11,06:54
9622,Chroicocephalus brunnicephalus,species,Brown-headed Gull,1,103.81485703,13.22657345,Asia,Cambodia,Cambodia - Siemréab,2020-02-11,07:06
14056,Sturnia malabarica nemoricola,subspecies,Chestnut-tailed Starling ssp nemoricola,5,103.86502152,13.41118138,Asia,Cambodia,Cambodia - Siemréab,2020-02-10,08:37
101478,Glareola maldivarum,species,Oriental Pratincole,25,104.45,13.0,Asia,Cambodia,Cambodia - Kâmpóng Thum,2008-03-05,
102074,Pseudibis davisoni,species,White-shouldered Ibis,4,104.90718931,13.94922689,Asia,Cambodia,Cambodia - Preah Vihéar,2008-03-04,
102311,Leptoptilos javanicus,species,Lesser Adjutant,8,104.90718931,13.94922689,Asia,Cambodia,Cambodia - Preah Vihéar,2008-03-03,
102399,Gyps tenuirostris,species,Slender-billed Vulture,7,105.4946427,13.92740204,Asia,Cambodia,Cambodia - Preah Vihéar,2008-03-01,
109088,Glareola maldivarum,species,Oriental Pratincole,40,104.5,13.0,Asia,Cambodia,Cambodia - Kâmpóng Thum,2008-02-27,
110255,Pelecanus philippensis,species,Spot-billed Pelican,50,103.63698095,13.22924965,Asia,Cambodia,Cambodia - Batdâmbâng,2008-02-25,
110259,Haliaeetus ichthyaetus,species,Grey-headed Fish Eagle,2,103.63698095,13.22924965,Asia,Cambodia,Cambodia - Batdâmbâng,2008-02-25,
110267,Merops philippinus,species,Blue-tailed Bee-eater,10,103.63698095,13.22924965,Asia,Cambodia,Cambodia - Batdâmbâng,2008-02-25,
36495,Acridotheres tristis,species,Common Myna,10,103.855311758816,13.3530990068158,Asia,Cambodia,Cambodia - Siemréab,2020-02-12,16:18
25044,Motacilla samveasnae,species,Mekong Wagtail,8,106.0117149353,12.604993193512,Asia,Cambodia,Cambodia - Krâchéh,2009-02-12,
25055,Orcaella brevirostris,species,Irrawaddy Dolphin,11,106.0117149353,12.604993193512,Asia,Cambodia,Cambodia - Krâchéh,2009-02-12,
25340,Bubulcus coromandus,species,Eastern Cattle Egret,10,103.25878143311,13.802741307151,Asia,Cambodia,Cambodia - Bântéay Méanchey,2009-02-06,
25341,Ardea alba,species,Great Egret,10,103.25878143311,13.802741307151,Asia,Cambodia,Cambodia - Bântéay Méanchey,2009-02-06,
25342,Antigone antigone sharpii,subspecies,Sarus Crane ssp sharpii,47,103.2580947876,13.813743530591,Asia,Cambodia,Cambodia - Bântéay Méanchey,2009-02-06,
25346,Haliaeetus ichthyaetus,species,Grey-headed Fish Eagle,4,103.66836547852,13.106230102045,Asia,Cambodia,Cambodia - Batdâmbâng,2009-02-05,
25347,Merops philippinus,species,Blue-tailed Bee-eater,4,103.66836547852,13.106230102045,Asia,Cambodia,Cambodia - Batdâmbâng,2009-02-05,
25349,Riparia riparia,species,Sand Martin,5,103.70544433594,13.066101276125,Asia,Cambodia,Cambodia - Batdâmbâng,2009-02-05,
25350,Ixobrychus sinensis,species,Yellow Bittern,20,103.66836547852,13.106230102045,Asia,Cambodia,Cambodia - Batdâmbâng,2009-02-05,
25351,Pelecanus philippensis,species,Spot-billed Pelican,50,103.66836547852,13.106230102045,Asia,Cambodia,Cambodia - Batdâmbâng,2009-02-05,
25352,Ardea cinerea,species,Grey Heron,20,103.66836547852,13.106230102045,Asia,Cambodia,Cambodia - Batdâmbâng,2009-02-05,
80305,Acridotheres tristis,species,Common Myna,2,106.09497,13.597939,Asia,Cambodia,Cambodia - Stng Trêng,2019-11-22,10:38
95434,Pernis ptilorhynchus,species,Crested Honey Buzzard,1,103.44450890096223,11.347575997944311,Asia,Cambodia,Cambodia - Kaôh Kong,2019-12-09,08:17
95435,Accipiter badius,species,Shikra,1,103.44604169959524,11.344903847213224,Asia,Cambodia,Cambodia - Kaôh Kong,2019-12-09,08:11
95436,Aviceda leuphotes,species,Black Baza,3,103.453052574865,11.336068105894451,Asia,Cambodia,Cambodia - Kaôh Kong,2019-12-09,07:34
95437,Halcyon smyrnensis,species,White-throated Kingfisher,1,103.46202666,11.324955,Asia,Cambodia,Cambodia - Kaôh Kong,2019-12-09,07:20
95438,Macaca fascicularis,species,Long-tailed Macaque,2,103.47879155548613,11.316623892645646,Asia,Cambodia,Cambodia - Kaôh Kong,2019-12-09,06:55
95439,Haliastur indus,species,Brahminy Kite,2,103.46344597,11.20100518,Asia,Cambodia,Cambodia - Kaôh Kong,2019-12-08,13:52
18892,Acridotheres tristis,species,Common Myna,2,103.91476962725064,13.3645123103758,Asia,Cambodia,Cambodia - Siemréab,2019-12-05,08:04
36085,Acridotheres burmannicus,species,Vinous-breasted Starling,3,105.50936350608757,13.930004867738049,Asia,Cambodia,Cambodia - Preah Vihéar,2019-12-03,09:17
36086,Gyps bengalensis,species,White-rumped Vulture,13,105.5098398496448,13.930045980973103,Asia,Cambodia,Cambodia - Preah Vihéar,2019-12-03,07:30
36087,Sarcogyps calvus,species,Red-headed Vulture,2,105.5098398496448,13.930045980973103,Asia,Cambodia,Cambodia - Preah Vihéar,2019-12-03,07:30
36088,Gyps tenuirostris,species,Slender-billed Vulture,2,105.5098398496448,13.930045980973103,Asia,Cambodia,Cambodia - Preah Vihéar,2019-12-03,07:30
36089,Sarcogyps calvus,species,Red-headed Vulture,1,105.5097204075246,13.930058009004156,Asia,Cambodia,Cambodia - Preah Vihéar,2019-12-02,16:24
36090,Gyps tenuirostris,species,Slender-billed Vulture,1,105.5097832717984,13.930096440030196,Asia,Cambodia,Cambodia - Preah Vihéar,2019-12-02,16:24
36091,Gyps bengalensis,species,White-rumped Vulture,8,105.50982509749522,13.930009142508665,Asia,Cambodia,Cambodia - Preah Vihéar,2019-12-02,16:24
36092,Butastur liventer,species,Rufous-winged Buzzard,1,104.86691476786962,13.964332868358088,Asia,Cambodia,Cambodia - Preah Vihéar,2019-12-02,09:52
36093,Butastur liventer,species,Rufous-winged Buzzard,3,104.82949803593088,13.961472879176924,Asia,Cambodia,Cambodia - Preah Vihéar,2019-12-02,09:33
36094,Butastur liventer,species,Rufous-winged Buzzard,3,104.86141766431264,13.96165380255688,Asia,Cambodia,Cambodia - Preah Vihéar,2019-12-02,06:16
36095,Pseudibis gigantea,species,Giant Ibis,2,104.8301918898754,13.955927244400565,Asia,Cambodia,Cambodia - Preah Vihéar,2019-12-01,10:40
36096,Pseudibis gigantea,species,Giant Ibis,1,104.7996509169273,13.997849584570153,Asia,Cambodia,Cambodia - Preah Vihéar,2019-12-01,09:39
36097,Merops orientalis,species,Green Bee-eater,1,104.8294997123115,13.956813337294344,Asia,Cambodia,Cambodia - Preah Vihéar,2019-12-01,07:42
36099,Butastur liventer,species,Rufous-winged Buzzard,1,104.87172606410913,13.994066622121254,Asia,Cambodia,Cambodia - Preah Vihéar,2019-11-30,16:25
36100,Pseudibis davisoni,species,White-shouldered Ibis,1,104.87183712432616,13.99417835289053,Asia,Cambodia,Cambodia - Preah Vihéar,2019-11-30,16:09
36101,Upupa epops,species,Eurasian Hoopoe,1,104.87870198684269,13.96665733774562,Asia,Cambodia,Cambodia - Preah Vihéar,2019-11-30,15:02
36102,Nisaetus cirrhatus,species,Changeable Hawk-Eagle,1,104.71636472279644,13.497296827857843,Asia,Cambodia,Cambodia - Preah Vihéar,2019-11-30,11:23
36103,Macaca fascicularis,species,Long-tailed Macaque,10,104.71605098816072,13.497417527263517,Asia,Cambodia,Cambodia - Preah Vihéar,2019-11-30,07:21
36104,Gracula religiosa,species,Common Hill Myna,1,104.72390080811896,13.49762376399105,Asia,Cambodia,Cambodia - Preah Vihéar,2019-11-29,16:55
36105,Gracupica nigricollis,species,Black-collared Starling,2,104.49182996536092,13.021252001647856,Asia,Cambodia,Cambodia - Kâmpóng Thum,2019-11-29,08:20
36106,Houbaropsis bengalensis,species,Bengal Florican,4,104.49194923984304,13.021257910889592,Asia,Cambodia,Cambodia - Kâmpóng Thum,2019-11-29,07:56
36107,Houbaropsis bengalensis,species,Bengal Florican,1,104.49200028563337,13.02111851983985,Asia,Cambodia,Cambodia - Kâmpóng Thum,2019-11-29,07:30
36108,Circus spilonotus,species,Eastern Marsh Harrier,2,104.49174681688146,13.021394787368385,Asia,Cambodia,Cambodia - Kâmpóng Thum,2019-11-29,06:59
81194,Threskiornis melanocephalus,species,Black-headed Ibis,2,103.60716090547255,13.203736636799947,Asia,Cambodia,Cambodia - Batdâmbâng,2019-11-28,10:06
81195,Mycteria leucocephala,species,Painted Stork,40,103.60693065459245,13.2036381913472,Asia,Cambodia,Cambodia - Batdâmbâng,2019-11-28,10:02
81196,Pelecanus philippensis,species,Spot-billed Pelican,6,103.60693065459245,13.2036381913472,Asia,Cambodia,Cambodia - Batdâmbâng,2019-11-28,10:02
81197,Acridotheres javanicus,species,Javan Myna,6,103.73597843582158,13.392042377976134,Asia,Cambodia,Cambodia - Siemréab,2019-11-28,14:52
81198,Leptoptilos dubius,species,Greater Adjutant,2,103.60716090547255,13.203736636799947,Asia,Cambodia,Cambodia - Batdâmbâng,2019-11-28,10:06
81199,Leptoptilos javanicus,species,Lesser Adjutant,1,103.60693065459245,13.2036381913472,Asia,Cambodia,Cambodia - Batdâmbâng,2019-11-28,10:02
81200,Leptoptilos javanicus,species,Lesser Adjutant,1,103.60698832208628,13.203718489979584,Asia,Cambodia,Cambodia - Batdâmbâng,2019-11-28,09:40
81201,Pelecanus philippensis,species,Spot-billed Pelican,1,103.60703693712466,13.204312892642994,Asia,Cambodia,Cambodia - Batdâmbâng,2019-11-28,09:19
81202,Halcyon smyrnensis,species,White-throated Kingfisher,1,103.6259688065421,13.22215612047652,Asia,Cambodia,Cambodia - Batdâmbâng,2019-11-28,09:01
81203,Halcyon smyrnensis,species,White-throated Kingfisher,1,103.62607140103692,13.222268270340956,Asia,Cambodia,Cambodia - Batdâmbâng,2019-11-28,09:01
81204,Anastomus oscitans,species,Asian Openbill,4,103.6646962166798,13.264534394269123,Asia,Cambodia,Cambodia - Batdâmbâng,2019-11-28,07:46
102178,Acridotheres tristis,species,Common Myna,1,103.86405945,13.41767316,Asia,Cambodia,Cambodia - Siemréab,2019-11-07,12:00
99006,Passer montanus malaccensis,subspecies,Eurasian Tree Sparrow ssp malaccensis,1,104.93148923,11.56668753,Asia,Cambodia,Cambodia - Phnom Penh,2007-12-28,
103811,Motacilla cinerea,species,Grey Wagtail,1,104.0857305,10.62376667,Asia,Cambodia,Cambodia - Preah Monivong NP,2019-10-29,16:32
46257,Macaca fascicularis,species,Long-tailed Macaque,1,104.87176515517282,11.55015030225291,Asia,Cambodia,Cambodia - Phnom Penh,2007-01-05,
74804,Pluvialis fulva,species,Pacific Golden Plover,30,103.81137474449706,13.430641293538203,Asia,Cambodia,Cambodia - Siemréab,2019-09-14,16:26
74806,Vanellus duvaucelii,species,River Lapwing,2,103.811350772254,13.430622727622678,Asia,Cambodia,Cambodia - Siemréab,2019-09-14,16:21
74813,Acridotheres tristis,species,Common Myna,3,103.83024307908846,13.440623511572776,Asia,Cambodia,Cambodia - Siemréab,2019-09-14,14:49
4947,Glaucidium cuculoides,species,Asian Barred Owlet,1,104.309655,13.569655,Asia,Cambodia,Cambodia - Siemréab,2019-07-17,08:01
4948,Dendrocopos hyperythrus,species,Rufous-bellied Woodpecker,1,104.44724166666668,13.634411666666669,Asia,Cambodia,Cambodia - Preah Vihéar,2019-07-17,09:35
37749,Pelecanus philippensis,species,Spot-billed Pelican,1,103.73909,13.225821,Asia,Cambodia,Cambodia - Siemréab,2009-02-06,
37875,Microcarbo niger,species,Little Cormorant,1,103.73909,13.225821,Asia,Cambodia,Cambodia - Siemréab,2009-02-06,
37880,Merops philippinus,species,Blue-tailed Bee-eater,1,103.73909,13.225821,Asia,Cambodia,Cambodia - Siemréab,2009-02-06,
38032,Haliastur indus,species,Brahminy Kite,1,103.73909,13.225821,Asia,Cambodia,Cambodia - Siemréab,2009-02-06,
38034,Haliaeetus ichthyaetus,species,Grey-headed Fish Eagle,1,103.73909,13.225821,Asia,Cambodia,Cambodia - Siemréab,2009-02-06,
38246,Coracias affinis,species,Indochinese Roller,1,104.748502,13.407988,Asia,Cambodia,Cambodia - Preah Vihéar,2009-02-08,
38493,Anastomus oscitans,species,Asian Openbill,1,103.73909,13.225821,Asia,Cambodia,Cambodia - Siemréab,2009-02-06,
98322,Ketupa zeylonensis,species,Brown Fish Owl,1,104.882675,13.967866666666668,Asia,Cambodia,Cambodia - Preah Vihéar,2019-04-05,11:42
98323,Athene brama,species,Spotted Owlet,3,104.490105,13.0242055,Asia,Cambodia,Cambodia - Kâmpóng Thum,2019-04-07,10:12
98324,Antigone antigone,species,Sarus Crane,4,104.47377,12.982096666666669,Asia,Cambodia,Cambodia - Kâmpóng Thum,2019-04-07,08:00
98325,Houbaropsis bengalensis,species,Bengal Florican,4,104.488945,13.009836116666667,Asia,Cambodia,Cambodia - Kâmpóng Thum,2019-04-07,07:15
98326,Microhierax caerulescens,species,Collared Falconet,1,104.49300333333332,13.65633,Asia,Cambodia,Cambodia - Preah Vihéar,2019-04-06,10:20
60683,Motacilla cinerea,species,Grey Wagtail,1,104.05101287,10.65916141,Asia,Cambodia,Cambodia - Preah Monivong NP,2019-03-27,12:00
32604,Ciconia episcopus,species,Woolly-necked Stork,1,105.99771166666666,12.614008333333333,Asia,Cambodia,Cambodia - Krâchéh,2019-03-21,09:38
32605,Buceros bicornis,species,Great Hornbill,1,107.069825,12.3254,Asia,Cambodia,Cambodia - Môndól Kiri,2019-03-18,17:53
32606,Buceros bicornis,species,Great Hornbill,1,107.06903883333334,12.325113333333332,Asia,Cambodia,Cambodia - Môndól Kiri,2019-03-18,17:45
32607,Psilopogon faiostrictus,species,Green-eared Barbet,1,107.06250833333333,12.319683333333334,Asia,Cambodia,Cambodia - Môndól Kiri,2019-03-20,08:16
32608,Pseudibis davisoni,species,White-shouldered Ibis,1,106.01228333333331,12.611955,Asia,Cambodia,Cambodia - Krâchéh,2019-03-21,08:27
104813,Treron bicinctus,species,Orange-breasted Green Pigeon,2,107.20389103,12.45387027,Asia,Cambodia,Cambodia - Môndól Kiri,2019-03-17,07:00
2146,Coracias affinis,species,Indochinese Roller,1,107.24586941,12.49039793,Asia,Cambodia,Cambodia - Môndól Kiri,2019-03-15,10:00
7702,Copsychus malabaricus,species,White-rumped Shama,1,107.20432531,12.45408299,Asia,Cambodia,Cambodia - Môndól Kiri,2019-03-14,08:00
33985,Acridotheres tristis,species,Common Myna,1,103.87420222,13.41191177,Asia,Cambodia,Cambodia - Siemréab,2019-03-09,11:00
18048,Strix seloputo,species,Spotted Wood Owl,1,103.32506666666669,13.892088333333334,Asia,Cambodia,Cambodia - Bântéay Méanchey,2019-02-18,11:23
18049,Hemiprocne coronata,species,Crested Treeswift,1,104.44758666666668,13.634541666666667,Asia,Cambodia,Cambodia - Preah Vihéar,2019-02-19,13:49
18050,Lonchura striata,species,White-rumped Munia,1,104.84247,13.986191666666668,Asia,Cambodia,Cambodia - Preah Vihéar,2019-02-19,16:28
18051,Houbaropsis bengalensis,species,Bengal Florican,1,104.48152166666668,13.005325,Asia,Cambodia,Cambodia - Kâmpóng Thum,2019-02-19,07:30
18052,Pseudibis davisoni,species,White-shouldered Ibis,1,104.84736666666667,13.953555,Asia,Cambodia,Cambodia - Preah Vihéar,2019-02-20,06:02
95208,Mycteria cinerea,species,Milky Stork,4,103.60698,13.204153333333334,Asia,Cambodia,Cambodia - Batdâmbâng,2019-01-22,09:43
95209,Leptoptilos dubius,species,Greater Adjutant,2,103.60752166666668,13.21347,Asia,Cambodia,Cambodia - Batdâmbâng,2019-01-22,09:15
108061,Tyto javanica,species,Eastern Barn Owl,1,103.32673666666666,13.893736666666667,Asia,Cambodia,Cambodia - Bântéay Méanchey,2019-01-16,12:00
108062,Athene brama,species,Spotted Owlet,1,103.32978833333334,13.89662,Asia,Cambodia,Cambodia - Bântéay Méanchey,2019-01-16,10:35
108063,Strix seloputo,species,Spotted Wood Owl,1,103.32461666666669,13.892038333333334,Asia,Cambodia,Cambodia - Bântéay Méanchey,2019-01-16,11:10
43626,Antigone antigone,species,Sarus Crane,7,103.40792833333332,13.704328333333333,Asia,Cambodia,Cambodia - Bântéay Méanchey,2019-01-16,07:31
66726,Coracias affinis,species,Indochinese Roller,1,104.81440544,13.21987614,Asia,Cambodia,Cambodia - Kâmpóng Thum,2010-01-22,12:00
107475,Pelecanus onocrotalus,species,Great White Pelican,1,103.60696333333334,13.204241666666666,Asia,Cambodia,Cambodia - Batdâmbâng,2018-12-28,10:11
92552,Amandava amandava,species,Red Avadavat,1,103.86962570259708,12.718131076556368,Asia,Cambodia,Cambodia - Pouthisat,2018-12-21,07:26
92553,Centropus bengalensis,species,Lesser Coucal,1,103.87098583402472,12.718078228656871,Asia,Cambodia,Cambodia - Pouthisat,2018-12-21,07:03
100694,Lonchura atricapilla,species,Chestnut Munia,2,103.87028745385248,12.715971604932768,Asia,Cambodia,Cambodia - Pouthisat,2018-12-20,15:32
100695,Lonchura punctulata,species,Scaly-breasted Munia,4,103.87060110466916,12.71607809701256,Asia,Cambodia,Cambodia - Pouthisat,2018-12-20,15:12
100696,Graminicola striatus,species,Chinese Grassbird,1,103.91508428389572,12.75546780322935,Asia,Cambodia,Cambodia - Pouthisat,2018-12-20,09:31
100697,Amandava amandava,species,Red Avadavat,3,103.92353039244554,12.757529290404875,Asia,Cambodia,Cambodia - Pouthisat,2018-12-20,08:28
100698,Centropus bengalensis,species,Lesser Coucal,4,103.92423899853968,12.757966364745757,Asia,Cambodia,Cambodia - Pouthisat,2018-12-20,07:31
109356,Graminicola striatus,species,Chinese Grassbird,1,103.92275364147864,12.75556746405806,Asia,Cambodia,Cambodia - Pouthisat,2018-12-19,09:10
109357,Amandava amandava,species,Red Avadavat,2,103.92273671003424,12.755533894535857,Asia,Cambodia,Cambodia - Pouthisat,2018-12-19,09:04
109358,Amandava amandava,species,Red Avadavat,2,103.92216254966698,12.75407158770855,Asia,Cambodia,Cambodia - Pouthisat,2018-12-19,08:49
109359,Graminicola striatus,species,Chinese Grassbird,1,103.92216254966698,12.75407158770855,Asia,Cambodia,Cambodia - Pouthisat,2018-12-19,08:48
109360,Amandava amandava,species,Red Avadavat,2,103.92186155552407,12.752478062187093,Asia,Cambodia,Cambodia - Pouthisat,2018-12-19,08:25
109361,Gracupica contra,species,Pied Myna,1,103.92171856025598,12.750848410662964,Asia,Cambodia,Cambodia - Pouthisat,2018-12-19,08:16
109362,Amandava amandava,species,Red Avadavat,1,103.9216847811862,12.750791497540428,Asia,Cambodia,Cambodia - Pouthisat,2018-12-19,08:11
109363,Amandava amandava,species,Red Avadavat,3,103.92166826883695,12.750816391792847,Asia,Cambodia,Cambodia - Pouthisat,2018-12-19,08:08
109364,Amandava amandava,species,Red Avadavat,4,103.92109033661328,12.747472892527233,Asia,Cambodia,Cambodia - Pouthisat,2018-12-19,07:39
109365,Graminicola striatus,species,Chinese Grassbird,3,103.92123408625268,12.747445483703862,Asia,Cambodia,Cambodia - Pouthisat,2018-12-19,07:24
113601,Graminicola striatus,species,Chinese Grassbird,1,103.9063026477619,12.760104713973366,Asia,Cambodia,Cambodia - Pouthisat,2018-12-18,16:40
113602,Graminicola striatus,species,Chinese Grassbird,1,103.9090662450566,12.76185359807011,Asia,Cambodia,Cambodia - Pouthisat,2018-12-18,15:54
113603,Amandava amandava,species,Red Avadavat,1,103.90907303439818,12.761842533957925,Asia,Cambodia,Cambodia - Pouthisat,2018-12-18,15:48
113604,Centropus bengalensis,species,Lesser Coucal,1,103.907367987655,12.761241216224397,Asia,Cambodia,Cambodia - Pouthisat,2018-12-18,15:33
113605,Graminicola striatus,species,Chinese Grassbird,1,103.9073859249278,12.761218040262126,Asia,Cambodia,Cambodia - Pouthisat,2018-12-18,15:32
113606,Amandava amandava,species,Red Avadavat,1,103.90738743367037,12.761228433822058,Asia,Cambodia,Cambodia - Pouthisat,2018-12-18,15:31
113607,Centropus bengalensis,species,Lesser Coucal,1,103.90492960820336,12.75753633120354,Asia,Cambodia,Cambodia - Pouthisat,2018-12-18,14:39
113608,Amandava amandava,species,Red Avadavat,1,103.90460497709354,12.755796373833672,Asia,Cambodia,Cambodia - Pouthisat,2018-12-18,14:12
113609,Amandava amandava,species,Red Avadavat,1,103.90076195830842,12.753270906408089,Asia,Cambodia,Cambodia - Pouthisat,2018-12-18,09:47
113610,Amandava amandava,species,Red Avadavat,1,103.90074318284532,12.753288969409422,Asia,Cambodia,Cambodia - Pouthisat,2018-12-18,09:34
113611,Porphyrio poliocephalus,species,Grey-headed Swamphen,2,103.85,12.75,Asia,Cambodia,Cambodia - Pouthisat,2018-12-18,09:08
113612,Charadrius dubius,species,Little Ringed Plover,2,103.89695833333332,12.756216666666669,Asia,Cambodia,Cambodia - Pouthisat,2018-12-18,08:58
113613,Porphyrio poliocephalus,species,Grey-headed Swamphen,1,103.85,12.75,Asia,Cambodia,Cambodia - Pouthisat,2018-12-18,08:52
113614,Charadrius dubius,species,Little Ringed Plover,1,103.89751791032394,12.755345511262076,Asia,Cambodia,Cambodia - Pouthisat,2018-12-18,08:49
113615,Amandava amandava,species,Red Avadavat,2,103.89753534468254,12.755350708042045,Asia,Cambodia,Cambodia - Pouthisat,2018-12-18,08:45
113616,Amandava amandava,species,Red Avadavat,2,103.8985321206077,12.754256953497189,Asia,Cambodia,Cambodia - Pouthisat,2018-12-18,08:15
113617,Amandava amandava,species,Red Avadavat,1,103.89999241577824,12.75343276095833,Asia,Cambodia,Cambodia - Pouthisat,2018-12-18,07:58
113618,Amandava amandava,species,Red Avadavat,1,103.90132488692542,12.752690291975394,Asia,Cambodia,Cambodia - Pouthisat,2018-12-18,07:48
113619,Centropus bengalensis,species,Lesser Coucal,1,103.90133125717183,12.75267243852164,Asia,Cambodia,Cambodia - Pouthisat,2018-12-18,07:43
113621,Amandava amandava,species,Red Avadavat,1,103.90129982503494,12.75267880876805,Asia,Cambodia,Cambodia - Pouthisat,2018-12-18,07:40
113622,Graminicola striatus,species,Chinese Grassbird,1,103.90292884791631,12.752575124625816,Asia,Cambodia,Cambodia - Pouthisat,2018-12-18,07:27
113623,Centropus bengalensis,species,Lesser Coucal,1,103.90296539301416,12.75257965085353,Asia,Cambodia,Cambodia - Pouthisat,2018-12-18,07:20
113624,Amandava amandava,species,Red Avadavat,1,103.90320662418743,12.752512302261549,Asia,Cambodia,Cambodia - Pouthisat,2018-12-18,07:20
1101,Coracias affinis,species,Indochinese Roller,1,105.05950919362256,12.50914764126065,Asia,Cambodia,Cambodia - Kâmpóng Thum,2018-12-16,07:19
1102,Coracias affinis,species,Indochinese Roller,1,104.60200362848546,12.897031819459883,Asia,Cambodia,Cambodia - Kâmpóng Thum,2018-12-14,11:51
74598,Coracias affinis,species,Indochinese Roller,1,103.66336626010356,13.23180176318924,Asia,Cambodia,Cambodia - Batdâmbâng,2018-12-07,12:23
74599,Leptoptilos dubius,species,Greater Adjutant,1,103.66336449990388,13.231796440680728,Asia,Cambodia,Cambodia - Batdâmbâng,2018-12-07,12:20
74600,Haliaeetus ichthyaetus,species,Grey-headed Fish Eagle,2,103.66336148241876,13.23179509957622,Asia,Cambodia,Cambodia - Batdâmbâng,2018-12-07,12:20
74601,Mycteria leucocephala,species,Painted Stork,100,103.66336332643743,13.231793339376551,Asia,Cambodia,Cambodia - Batdâmbâng,2018-12-07,12:18
74602,Pelecanus philippensis,species,Spot-billed Pelican,100,103.6633637455326,13.231791579176887,Asia,Cambodia,Cambodia - Batdâmbâng,2018-12-07,12:18
74603,Mycteria cinerea,species,Milky Stork,2,103.60703333333332,13.203641666666666,Asia,Cambodia,Cambodia - Batdâmbâng,2018-12-07,10:31
74604,Leptoptilos javanicus,species,Lesser Adjutant,4,103.607055,13.203561666666667,Asia,Cambodia,Cambodia - Batdâmbâng,2018-12-07,11:13
74605,Merops philippinus,species,Blue-tailed Bee-eater,5,103.65896450365302,13.24020851870369,Asia,Cambodia,Cambodia - Batdâmbâng,2018-12-07,09:02
74606,Anastomus oscitans,species,Asian Openbill,100,103.67406860934912,13.233937849302992,Asia,Cambodia,Cambodia - Batdâmbâng,2018-12-07,08:36
74607,Egretta garzetta,species,Little Egret,20,103.82321015941336,13.247475083929716,Asia,Cambodia,Cambodia - Siemréab,2018-12-07,07:34
82740,Pelecanus philippensis,species,Spot-billed Pelican,100,103.60698666666669,13.204233333333333,Asia,Cambodia,Cambodia - Batdâmbâng,2018-12-05,09:18
82741,Mycteria cinerea,species,Milky Stork,1,103.606995,13.20422,Asia,Cambodia,Cambodia - Batdâmbâng,2018-12-06,09:20
82742,Anastomus oscitans,species,Asian Openbill,100,103.60694473618976,13.204229911801596,Asia,Cambodia,Cambodia - Batdâmbâng,2018-12-06,09:32
82743,Mycteria leucocephala,species,Painted Stork,22,103.60705244364551,13.20422400255986,Asia,Cambodia,Cambodia - Batdâmbâng,2018-12-06,09:32
82744,Leptoptilos dubius,species,Greater Adjutant,1,103.6070486717891,13.204330285092077,Asia,Cambodia,Cambodia - Batdâmbâng,2018-12-06,09:28
82745,Leptoptilos javanicus,species,Lesser Adjutant,7,103.6070486717891,13.204330285092077,Asia,Cambodia,Cambodia - Batdâmbâng,2018-12-06,09:28
82746,Threskiornis melanocephalus,species,Black-headed Ibis,3,103.6300963909399,13.23245404289405,Asia,Cambodia,Cambodia - Batdâmbâng,2018-12-06,08:32
82747,Anastomus oscitans,species,Asian Openbill,100,103.64901434639808,13.236331092206049,Asia,Cambodia,Cambodia - Batdâmbâng,2018-12-06,08:18
88884,Phaenicophaeus tristis,species,Green-billed Malkoha,1,103.65518476823684,13.2453906303395,Asia,Cambodia,Cambodia - Batdâmbâng,2018-12-05,10:46
88885,Haliaeetus ichthyaetus,species,Grey-headed Fish Eagle,1,103.62979942011052,13.22853319813798,Asia,Cambodia,Cambodia - Batdâmbâng,2018-12-05,10:14
88886,Halcyon smyrnensis,species,White-throated Kingfisher,1,103.6066958774846,13.207526681957027,Asia,Cambodia,Cambodia - Batdâmbâng,2018-12-05,09:58
88887,Leptoptilos javanicus,species,Lesser Adjutant,20,103.60702201733702,13.204173585412285,Asia,Cambodia,Cambodia - Batdâmbâng,2018-12-05,09:09
88888,Anastomus oscitans,species,Asian Openbill,100,103.60703953551464,13.204186032538493,Asia,Cambodia,Cambodia - Batdâmbâng,2018-12-05,09:09
88889,Mycteria leucocephala,species,Painted Stork,100,103.6070097797584,13.204175010335822,Asia,Cambodia,Cambodia - Batdâmbâng,2018-12-05,09:09
88890,Pelecanus philippensis,species,Spot-billed Pelican,100,103.60701304870062,13.204174172145503,Asia,Cambodia,Cambodia - Batdâmbâng,2018-12-05,09:08
88891,Leptoptilos dubius,species,Greater Adjutant,2,103.60697398903184,13.204216291208942,Asia,Cambodia,Cambodia - Batdâmbâng,2018-12-05,09:08
88892,Mycteria cinerea,species,Milky Stork,2,103.60705814333969,13.204146218498426,Asia,Cambodia,Cambodia - Batdâmbâng,2018-12-05,08:49
88893,Threskiornis melanocephalus,species,Black-headed Ibis,5,103.62629628749902,13.22602151894311,Asia,Cambodia,Cambodia - Batdâmbâng,2018-12-05,08:14
88894,Coracias affinis,species,Indochinese Roller,1,103.69772510612728,13.33443468903502,Asia,Cambodia,Cambodia - Siemréab,2018-12-05,06:33
104516,Hemiprocne coronata,species,Crested Treeswift,5,104.8827572354161,13.967903601018682,Asia,Cambodia,Cambodia - Preah Vihéar,2018-12-01,18:01
104517,Pseudibis davisoni,species,White-shouldered Ibis,2,104.99302460841658,13.127696934130409,Asia,Cambodia,Cambodia - Preah Vihéar,2018-12-01,17:37
104518,Microhierax caerulescens,species,Collared Falconet,1,104.45958084436548,13.64098058549095,Asia,Cambodia,Cambodia - Preah Vihéar,2018-12-01,11:10
108634,Kaloula pulchra,species,Banded Bullfrog,1,103.86109829,13.43502411,Asia,Cambodia,Cambodia - Siemréab,2010-02-04,
21044,Haliaeetus ichthyaetus,species,Grey-headed Fish Eagle,1,103.64833407113667,13.226352101204196,Asia,Cambodia,Cambodia - Batdâmbâng,2018-11-14,10:21
21045,Pelecanus philippensis,species,Spot-billed Pelican,100,103.62806666666668,13.199283333333334,Asia,Cambodia,Cambodia - Batdâmbâng,2018-11-14,09:23
21046,Pelecanus philippensis,species,Spot-billed Pelican,50,103.62812689515168,13.199271094066276,Asia,Cambodia,Cambodia - Batdâmbâng,2018-11-14,09:24
21047,Leptoptilos dubius,species,Greater Adjutant,3,103.62808833333334,13.199245,Asia,Cambodia,Cambodia - Batdâmbâng,2018-11-14,09:15
21048,Leptoptilos javanicus,species,Lesser Adjutant,42,103.628075,13.199261666666668,Asia,Cambodia,Cambodia - Batdâmbâng,2018-11-14,09:06
21049,Mycteria leucocephala,species,Painted Stork,1,103.628105,13.199253333333331,Asia,Cambodia,Cambodia - Batdâmbâng,2018-11-14,08:57
21050,Halcyon smyrnensis,species,White-throated Kingfisher,1,103.67204077551484,13.281337050733418,Asia,Cambodia,Cambodia - Siemréab,2018-11-14,07:05
26008,Ninox scutulata,species,Brown Hawk-Owl,2,103.87058333333331,13.410063333333332,Asia,Cambodia,Cambodia - Siemréab,2018-11-13,15:09
26009,Strix leptogrammica,species,Brown Wood Owl,1,103.870545,13.409653333333331,Asia,Cambodia,Cambodia - Siemréab,2018-11-13,16:16
28420,Egretta garzetta,species,Little Egret,1,103.87796666666668,13.309216666666666,Asia,Cambodia,Cambodia - Siemréab,2018-11-13,09:06
49514,Hypothymis azurea,species,Black-naped Monarch,2,103.87853833333334,13.762013333333334,Asia,Cambodia,Cambodia - Siemréab,2018-11-10,13:10
49515,Hypothymis azurea,species,Black-naped Monarch,2,103.8784351666494,13.762051309471728,Asia,Cambodia,Cambodia - Siemréab,2018-11-10,12:54
78155,Merops philippinus,species,Blue-tailed Bee-eater,1,104.92692768583532,11.554491450089548,Asia,Cambodia,Cambodia - Phnom Penh,2018-10-24,16:07
61022,Acridotheres tristis,species,Common Myna,2,103.85990378456547,13.348034494568918,Asia,Cambodia,Cambodia - Siemréab,2018-10-27,14:20
61029,Egretta garzetta,species,Little Egret,50,103.85989573793844,13.348063663591956,Asia,Cambodia,Cambodia - Siemréab,2018-10-27,14:20
23367,Pseudibis gigantea,species,Giant Ibis,3,104.88779069,13.97344623,Asia,Cambodia,Cambodia - Preah Vihéar,2018-10-11,
86661,Xenus cinereus,species,Terek Sandpiper,1,102.93244243,11.61806316,Asia,Cambodia,Cambodia - Kaôh Kong,2018-03-12,
86663,Charadrius leschenaultii,species,Greater Sand Plover,1,102.93244243,11.61806316,Asia,Cambodia,Cambodia - Kaôh Kong,2018-03-12,
86766,Haliastur indus,species,Brahminy Kite,1,102.9530663,11.56578632,Asia,Cambodia,Cambodia - Kaôh Kong,2018-03-12,
86802,Thalasseus bengalensis,species,Lesser Crested Tern,1,102.94404981,11.47058508,Asia,Cambodia,Cambodia - Kaôh Kong,2018-03-11,
86832,Sterna hirundo,species,Common Tern,1,102.95121192,11.48136112,Asia,Cambodia,Cambodia - Pouthisat,2018-03-11,
86836,Sterna hirundo,species,Common Tern,1,102.95121192,11.48136112,Asia,Cambodia,Cambodia - Pouthisat,2018-03-11,
86998,Trithemis aurora,species,Crimson Dropwing,1,103.1853655,12.07814101,Asia,Cambodia,Cambodia - Pouthisat,2018-03-09,
87006,Diplacodes trivialis,species,Chalky Percher,1,103.17176595,12.09083537,Asia,Cambodia,Cambodia - Pouthisat,2018-03-09,
87340,Anthracoceros albirostris,species,Oriental Pied Hornbill,10,103.16,12.08,Asia,Cambodia,Cambodia - Pouthisat,2018-03-09,
87348,Orthetrum sabina,species,Slender Skimmer,1,103.18529502,12.0776061,Asia,Cambodia,Cambodia - Pouthisat,2018-03-08,
87370,Trithemis pallidinervis,species,,1,103.18529502,12.0776061,Asia,Cambodia,Cambodia - Pouthisat,2018-03-08,
87456,Phimenes spec.,multispecies,,1,103.16984236,12.0868274,Asia,Cambodia,Cambodia - Pouthisat,2018-03-08,
87464,Callosciurus finlaysonii,species,Finlayson's Squirrel,1,103.18304807,12.0813933,Asia,Cambodia,Cambodia - Pouthisat,2018-03-08,
87572,Phylloscopus inornatus,species,Yellow-browed Warbler,1,103.20157412,12.08248989,Asia,Cambodia,Cambodia - Pouthisat,2018-03-07,
87843,Pelecanus philippensis,species,Spot-billed Pelican,1,103.41337442,13.3304937,Asia,Cambodia,Cambodia - Batdâmbâng,2018-02-28,
87878,Anastomus oscitans,species,Asian Openbill,2,103.45481873,13.3441926,Asia,Cambodia,Cambodia - Batdâmbâng,2018-02-28,
87935,Butorides striata javanica,subspecies,Striated Heron ssp javanica,1,103.49216699,13.3436892,Asia,Cambodia,Cambodia,2018-02-28,
87975,Hierococcyx sparverioides,species,Large Hawk-Cuckoo,1,103.52662085,13.33750216,Asia,Cambodia,Cambodia - Batdâmbâng,2018-02-28,
87978,Ardea purpurea,species,Purple Heron,1,103.51700782,13.3047618,Asia,Cambodia,Cambodia - Batdâmbâng,2018-02-28,
88063,Anhinga melanogaster,species,Oriental Darter,3,103.54476929,13.29073815,Asia,Cambodia,Cambodia - Batdâmbâng,2018-02-28,
88082,Corvus levaillantii,species,Eastern Jungle Crow,1,103.5575199,13.27669512,Asia,Cambodia,Cambodia - Batdâmbâng,2018-02-28,
88085,Threskiornis melanocephalus,species,Black-headed Ibis,1,103.57537268,13.26800715,Asia,Cambodia,Cambodia - Batdâmbâng,2018-02-28,
88119,Chlidonias hybrida,species,Whiskered Tern,1,103.63099097,13.24394655,Asia,Cambodia,Cambodia - Batdâmbâng,2018-02-28,
88218,Chrysococcyx xanthorhynchus,species,Violet Cuckoo,1,105.87846875,13.59910579,Asia,Cambodia,Cambodia - Stng Trêng,2018-02-24,
88479,Butastur liventer,species,Rufous-winged Buzzard,1,105.89906812,13.57975054,Asia,Cambodia,Cambodia - Stng Trêng,2018-02-24,
88481,Nisaetus cirrhatus,species,Changeable Hawk-Eagle,1,105.89906812,13.57975054,Asia,Cambodia,Cambodia - Stng Trêng,2018-02-24,
88508,Elanus caeruleus,species,Black-winged Kite,1,106.98694237,13.74718563,Asia,Cambodia,Cambodia - Rôtânôkiri,2018-02-23,
88533,Porphyrio poliocephalus viridis,subspecies,Grey-headed Swamphen ssp viridis,5,106.98694237,13.74718563,Asia,Cambodia,Cambodia - Rôtânôkiri,2018-02-23,
88842,Ixobrychus flavicollis,species,Black Bittern,1,106.98691938,13.7472482,Asia,Cambodia,Cambodia - Rôtânôkiri,2018-02-21,
89045,Diplacodes trivialis,species,Chalky Percher,1,106.02244988,12.48373994,Asia,Cambodia,Cambodia - Krâchéh,2018-02-17,
89065,Ploceus hypoxanthus,species,Asian Golden Weaver,1,106.02244988,12.48373994,Asia,Cambodia,Cambodia - Krâchéh,2018-02-17,
89137,Hydrophasianus chirurgus,species,Pheasant-tailed Jacana,1,106.02728859,12.48510985,Asia,Cambodia,Cambodia - Krâchéh,2018-02-17,
89337,Pantala flavescens,species,Wandering Glider,1,107.41931975,12.56681292,Asia,Cambodia,Cambodia - Môndól Kiri,2018-02-12,
89652,Pericrocotus cantonensis,species,Swinhoe's Minivet,5,107.42267027,12.56568938,Asia,Cambodia,Cambodia - Môndól Kiri,2018-02-12,
90067,Upupa epops,species,Eurasian Hoopoe,1,107.33379871,12.36814025,Asia,Cambodia,Cambodia - Môndól Kiri,2018-02-11,
90164,Treron apicauda,species,Pin-tailed Green Pigeon,1,107.30797887,12.37595955,Asia,Cambodia,Cambodia - Môndól Kiri,2018-02-11,
90189,Pernis ptilorhynchus,species,Crested Honey Buzzard,2,107.26308346,12.50307654,Asia,Cambodia,Cambodia - Môndól Kiri,2018-02-10,
90352,Copsychus malabaricus,species,White-rumped Shama,1,107.16645956,12.44143786,Asia,Cambodia,Cambodia - Môndól Kiri,2018-02-09,
90360,Hypothymis azurea,species,Black-naped Monarch,1,107.16595679,12.44162382,Asia,Cambodia,Cambodia - Môndól Kiri,2018-02-09,
90375,Prinia polychroa,species,Deignan's Prinia,5,107.17494756,12.44223148,Asia,Cambodia,Cambodia - Môndól Kiri,2018-02-09,
90424,Psilopogon faiostrictus,species,Green-eared Barbet,1,107.17838772,12.44951476,Asia,Cambodia,Cambodia - Môndól Kiri,2018-02-09,
90431,Psilopogon lineatus,species,Lineated Barbet,1,107.17838772,12.44951476,Asia,Cambodia,Cambodia - Môndól Kiri,2018-02-09,
90473,Treron bicinctus,species,Orange-breasted Green Pigeon,2,107.16816068,12.43207717,Asia,Cambodia,Cambodia - Môndól Kiri,2018-02-07,
90645,Treron bicinctus,species,Orange-breasted Green Pigeon,2,107.17842832,12.44959792,Asia,Cambodia,Cambodia - Môndól Kiri,2018-02-06,
90669,Aviceda leuphotes,species,Black Baza,1,104.96609099,11.57731605,Asia,Cambodia,Cambodia - Kândal,2018-02-05,
90710,Chlidonias hybrida,species,Whiskered Tern,1,104.94924128,11.5641204,Asia,Cambodia,Cambodia - Kândal,2018-02-04,
90733,Butastur indicus,species,Grey-faced Buzzard,1,104.96465102,11.57896555,Asia,Cambodia,Cambodia - Kândal,2018-02-04,
90784,Cacomantis merulinus,species,Plaintive Cuckoo,1,104.96751562,11.57789348,Asia,Cambodia,Cambodia - Kândal,2018-02-04,
90792,Dendrocopos analis longipennis,subspecies,Freckle-breasted Woodpecker ssp longipennis,1,104.96751562,11.57789348,Asia,Cambodia,Cambodia - Kândal,2018-02-04,
90991,Diplacodes trivialis,species,Chalky Percher,1,103.13284933,11.57849915,Asia,Cambodia,Cambodia - Kaôh Kong,2018-01-30,
91047,Ischnura senegalensis,species,Marsh Bluetail,1,103.13032657,11.57265787,Asia,Cambodia,Cambodia - Kaôh Kong,2018-01-30,
91060,Orthetrum sabina,species,Slender Skimmer,1,103.13032657,11.57265787,Asia,Cambodia,Cambodia - Kaôh Kong,2018-01-30,
104465,Coracias affinis,species,Indochinese Roller,1,106.42112732,14.20581364,Asia,Cambodia,Cambodia - Virachey NP,2015-10-01,
5408,Milvus migrans,species,Black Kite,1,107.02011824,20.91333155,Asia,Cambodia,Cambodia - Siemréab,2015-10-25,
20863,Ceriagrion cerinorubellum,species,,1,103.54365533,10.58691989,Asia,Cambodia,Cambodia - Krong Preah Sihanouk,2012-06-29,13:00
21044,Orthetrum sabina,species,Slender Skimmer,1,103.54363924,10.58696207,Asia,Cambodia,Cambodia - Krong Preah Sihanouk,2012-06-29,13:00
92362,Takydromus sexlineatus,species,Asian Grass Lizard,1,106.05680555,13.00422192,Asia,Cambodia,Cambodia - Krâchéh,2018-05-07,
121393,Tyto javanica stertens,subspecies,Eastern Barn Owl ssp stertens,1,105.94867636,12.55484769,Asia,Cambodia,Cambodia - Krâchéh,2018-05-02,17:31
65410,Cyornis sumatrensis indochina,subspecies,Indochinese Blue Flycatcher ssp indochina,1,106.06528472,13.01022244,Asia,Cambodia,Cambodia - Krâchéh,2018-05-09,10:02
23521,Coracias affinis,species,Indochinese Roller,1,105.31483656,11.67039418,Asia,Cambodia,Cambodia - Prey Vêng,2018-04-25,10:05
121549,Treron vernans,species,Pink-necked Green Pigeon,10,103.08271885,11.59253617,Asia,Cambodia,Cambodia - Kaôh Kong,2018-01-30,
118,Pelargopsis capensis,species,Stork-billed Kingfisher,1,102.98977137,11.32012975,Asia,Cambodia,Cambodia - Kaôh Kong,2018-03-11,
524,Haliaeetus leucogaster,species,White-bellied Sea Eagle,1,102.99987792,11.53234777,Asia,Cambodia,Cambodia - Kaôh Kong,2018-03-11,
32800,Takydromus sexlineatus,species,Asian Grass Lizard,1,103.18231583,12.0826266,Asia,Cambodia,Cambodia - Pouthisat,2018-03-08,
43443,Stercorarius parasiticus,species,Parasitic Jaeger,1,102.96829222,11.50341659,Asia,Cambodia,Cambodia - Kaôh Kong,2018-03-11,
47465,Pernis ptilorhynchus,species,Crested Honey Buzzard,1,107.31912613,12.35366749,Asia,Cambodia,Cambodia - Môndól Kiri,2018-02-11,
47534,Amandava amandava,species,Red Avadavat,5,103.92135918,12.75321923,Asia,Cambodia,Cambodia - Pouthisat,2018-01-27,
47650,Passer flaveolus,species,Plain-backed Sparrow,10,103.2822752,13.20694073,Asia,Cambodia,Cambodia - Batdâmbâng,2018-01-24,
47680,Hemiprocne coronata,species,Crested Treeswift,10,107.16320753,12.44252716,Asia,Cambodia,Cambodia - Môndól Kiri,2018-02-09,
47820,Pluvialis fulva,species,Pacific Golden Plover,6,103.31073046,13.237627,Asia,Cambodia,Cambodia - Batdâmbâng,2018-01-24,
47907,Phylloscopus plumbeitarsus,species,Two-barred Warbler,1,107.26505279,12.50318245,Asia,Cambodia,Cambodia - Môndól Kiri,2018-02-10,
48088,Rostratula benghalensis,species,Greater Painted-snipe,1,106.02679819,12.48465866,Asia,Cambodia,Cambodia - Krâchéh,2018-02-17,
48102,Porzana cinerea,species,White-browed Crake,2,106.02679819,12.48465866,Asia,Cambodia,Cambodia - Krâchéh,2018-02-17,
48123,Malacocincla abbotti,species,Abbott's Babbler,4,104.96659994,11.57781998,Asia,Cambodia,Cambodia - Kândal,2018-02-05,
39104,Tringa brevipes,species,Grey-tailed Tattler,1,102.93296814,11.61812589,Asia,Cambodia,Cambodia - Kaôh Kong,2018-03-12,
52023,Phalaropus lobatus,species,Red-necked Phalarope,1,102.94395447,11.54545478,Asia,Cambodia,Cambodia - Kaôh Kong,2018-03-11,
12079,Glareola maldivarum,species,Oriental Pratincole,100,103.8,12.7,Asia,Cambodia,Cambodia - Pouthisat,2018-03-05,
25556,Circus melanoleucos,species,Pied Harrier,2,104.10301969,12.60469699,Asia,Cambodia,Cambodia - Pouthisat,2018-03-04,
25564,Burhinus indicus,species,Indian Stone-curlew,2,104.10301969,12.60469699,Asia,Cambodia,Cambodia - Pouthisat,2018-03-04,
93192,Porzana cinerea,species,White-browed Crake,2,106.02495432,12.48376087,Asia,Cambodia,Cambodia - Krâchéh,2018-02-15,
243,Ictinaetus malaiensis,species,Black Eagle,1,107.31333733,12.34654056,Asia,Cambodia,Cambodia - Môndól Kiri,2018-02-11,
24924,Delichon dasypus,species,Asian House Martin,5,107.25595902,12.5023602,Asia,Cambodia,Cambodia - Môndól Kiri,2018-02-10,
33368,Picumnus innominatus,species,Speckled Piculet,1,107.16645632,12.44138565,Asia,Cambodia,Cambodia - Môndól Kiri,2018-02-09,
33370,Psilopogon annamensis,species,Indochinese Barbet,2,107.2795919,12.4228405,Asia,Cambodia,Cambodia - Môndól Kiri,2018-02-08,
50296,Locustella lanceolata,species,Lanceolated Warbler,1,107.16020626,12.43609343,Asia,Cambodia,Cambodia - Môndól Kiri,2018-02-07,
50298,Prinia polychroa,species,Deignan's Prinia,2,107.16020626,12.43609343,Asia,Cambodia,Cambodia - Môndól Kiri,2018-02-07,
52650,Ampeliceps coronatus,species,Golden-crested Myna,10,107.25,12.54,Asia,Cambodia,Cambodia - Môndól Kiri,2018-02-07,
61900,Dendronanthus indicus,species,Forest Wagtail,3,104.9658337,11.57788901,Asia,Cambodia,Cambodia - Kândal,2018-02-05,
81463,Pericrocotus divaricatus,species,Ashy Minivet,20,104.96596323,11.57725319,Asia,Cambodia,Cambodia - Kândal,2018-02-04,
81467,Malacocincla abbotti,species,Abbott's Babbler,1,104.96662841,11.57811505,Asia,Cambodia,Cambodia - Kândal,2018-02-04,
84398,Aviceda jerdoni,species,Jerdon's Baza,1,104.96624979,11.57880139,Asia,Cambodia,Cambodia - Kândal,2018-02-04,
84410,Orthotomus chaktomuk,species,Cambodian Tailorbird,20,104.9666512,11.5779682,Asia,Cambodia,Cambodia - Kândal,2018-02-04,
109411,Tringa brevipes,species,Grey-tailed Tattler,1,102.93283568,11.61852229,Asia,Cambodia,Cambodia - Kaôh Kong,2018-01-31,
25739,Graminicola striatus,species,Chinese Grassbird,5,103.92137641,12.75183634,Asia,Cambodia,Cambodia - Pouthisat,2018-01-27,
59308,Copsychus saularis,species,Oriental Magpie-Robin,1,103.822,13.303,Asia,Cambodia,Cambodia - Siemréab,2013-03-12,
107110,Antigone antigone,species,Sarus Crane,4,103.4184,13.6969,Asia,Cambodia,Cambodia - Bântéay Méanchey,2018-01-20,18:29
107111,Athene brama,species,Spotted Owlet,1,103.3268,13.8924,Asia,Cambodia,Cambodia - Bântéay Méanchey,2018-01-20,18:13
107112,Tyto javanica stertens,subspecies,Eastern Barn Owl ssp stertens,2,103.3268,13.8923,Asia,Cambodia,Cambodia - Bântéay Méanchey,2018-01-20,18:13
107113,Strix seloputo,species,Spotted Wood Owl,1,103.3267,13.8927,Asia,Cambodia,Cambodia - Bântéay Méanchey,2018-01-20,18:12
107114,Leptoptilos javanicus,species,Lesser Adjutant,18,103.6106,13.206,Asia,Cambodia,Cambodia - Batdâmbâng,2018-01-19,22:33
107115,Leptoptilos dubius,species,Greater Adjutant,4,103.6106,13.206,Asia,Cambodia,Cambodia - Batdâmbâng,2018-01-19,22:33
107116,Mycteria cinerea,species,Milky Stork,1,103.6106,13.206,Asia,Cambodia,Cambodia - Batdâmbâng,2018-01-19,22:32
73478,Leptocoma brasiliana,species,Van Hasselt's Sunbird,1,103.1272,11.5777,Asia,Cambodia,Cambodia - Kaôh Kong,2017-11-17,06:22
118924,Tachybaptus ruficollis,species,Little Grebe,1,104.03023451,12.99994807,Asia,Cambodia,Cambodia - Siemréab,2007-01-04,
118925,Anhinga melanogaster,species,Oriental Darter,2,104.03023451,12.99994807,Asia,Cambodia,Cambodia - Siemréab,2007-01-04,
121802,Egretta garzetta,species,Little Egret,1,103.8419,13.2991,Asia,Cambodia,Cambodia - Siemréab,2017-10-13,18:30
121803,Coracias affinis,species,Indochinese Roller,1,103.8419,13.2991,Asia,Cambodia,Cambodia - Siemréab,2017-10-13,18:22
100589,Spilornis cheela,species,Crested Serpent Eagle,1,103.30219399,10.61623684,Asia,Cambodia,Cambodia - Kaôh Kong,2017-01-20,
102818,Macaca fascicularis,species,Long-tailed Macaque,1,103.87245023,13.48000379,Asia,Cambodia,Cambodia - Siemréab,2013-01-14,
20141,Parus cinereus templorum,subspecies,Cinereous Tit ssp templorum,1,104.304165044,10.490208559,Asia,Cambodia,Cambodia - Kep NP,2017-01-12,09:14
20142,Muscicapa dauurica,species,Asian Brown Flycatcher,1,104.304489792,10.490902475,Asia,Cambodia,Cambodia - Kep NP,2017-01-12,09:39
20143,Pandion haliaetus,species,Western Osprey,1,103.599923488,10.573303565,Asia,Cambodia,Cambodia - Ream NP,2017-01-15,14:43
20144,Elanus caeruleus,species,Black-winged Kite,1,103.59990257,10.57330537,Asia,Cambodia,Cambodia - Ream NP,2017-01-15,14:43
20146,Phylloscopus fuscatus,species,Dusky Warbler,10,103.82977223,13.31040458,Asia,Cambodia,Cambodia - Siemréab,2017-01-31,07:35
20147,Pandion haliaetus,species,Western Osprey,1,103.826563065,13.311355593,Asia,Cambodia,Cambodia - Siemréab,2017-01-31,09:24
20148,Psittacula eupatria,species,Alexandrine Parakeet,1,103.89075213,13.435055226,Asia,Cambodia,Cambodia - Siemréab,2017-02-01,11:04
20149,Leptoptilos dubius,species,Greater Adjutant,1,103.604869025,13.206632214,Asia,Cambodia,Cambodia - Batdâmbâng,2017-02-02,10:39
69792,Orcaella brevirostris,species,Irrawaddy Dolphin,1,105.99838972,12.52707226,Asia,Cambodia,Cambodia - Krâchéh,2010-02-06,
43354,Pycnonotus goiavier,species,Yellow-vented Bulbul,1,104.9278165,11.57536158,Asia,Cambodia,Cambodia - Phnom Penh,2015-03-31,
103499,Anhinga melanogaster,species,Oriental Darter,1,103.87664789,13.13244408,Asia,Cambodia,Cambodia - Siemréab,2007-01-04,
103529,Phalacrocorax carbo sinensis,subspecies,Great Cormorant ssp sinensis,30,103.87664789,13.13244408,Asia,Cambodia,Cambodia - Siemréab,2007-01-04,
103548,Halcyon pileata,species,Black-capped Kingfisher,1,103.87664789,13.13244408,Asia,Cambodia,Cambodia - Siemréab,2007-01-04,
103555,Ardea intermedia,species,Intermediate Egret,1,103.87664789,13.13244408,Asia,Cambodia,Cambodia - Siemréab,2007-01-04,
103562,Ardea cinerea,species,Grey Heron,2,103.87664789,13.13244408,Asia,Cambodia,Cambodia - Siemréab,2007-01-04,
103568,Ardea goliath,species,Goliath Heron,1,103.87664789,13.13244408,Asia,Cambodia,Cambodia - Siemréab,2007-01-04,
103711,Haliaeetus ichthyaetus,species,Grey-headed Fish Eagle,1,103.87664789,13.13244408,Asia,Cambodia,Cambodia - Siemréab,2007-01-04,
103734,Tachybaptus ruficollis,species,Little Grebe,1,103.87664789,13.13244408,Asia,Cambodia,Cambodia - Siemréab,2007-01-04,
103909,Haliastur indus,species,Brahminy Kite,1,103.87664789,13.13244408,Asia,Cambodia,Cambodia - Siemréab,2007-01-04,
103932,Anastomus oscitans,species,Asian Openbill,1,103.87664789,13.13244408,Asia,Cambodia,Cambodia - Siemréab,2007-01-04,
103963,Pelecanus philippensis,species,Spot-billed Pelican,1,103.87664789,13.13244408,Asia,Cambodia,Cambodia - Siemréab,2007-01-04,
104039,Merops philippinus,species,Blue-tailed Bee-eater,3,103.87664789,13.13244408,Asia,Cambodia,Cambodia - Siemréab,2007-01-04,
53675,Junonia atlites,species,Gray pansy,1,103.86165618896,13.453069409841,Asia,Cambodia,Cambodia - Siemréab,2013-04-10,
78916,Egretta garzetta,species,Little Egret,1,103.82866824,13.29771144,Asia,Cambodia,Cambodia - Siemréab,2016-07-24,12:23
78917,Macaca fascicularis,species,Long-tailed Macaque,10,103.85933743,13.43532128,Asia,Cambodia,Cambodia - Siemréab,2016-07-25,06:42
15985,Pycnonotus goiavier,species,Yellow-vented Bulbul,2,103.87620449066,10.275713938492,Asia,Cambodia,Cambodia - Kaôh Kong,2016-02-28,
16115,Thalasseus bergii velox,subspecies,Greater Crested Tern ssp velox,6,103.87620449066,10.275713938492,Asia,Cambodia,Cambodia - Kaôh Kong,2016-02-28,
16119,Haliastur indus,species,Brahminy Kite,4,103.87620449066,10.275713938492,Asia,Cambodia,Cambodia - Kaôh Kong,2016-02-28,
16121,Haliaeetus leucogaster,species,White-bellied Sea Eagle,1,103.87620449066,10.275713938492,Asia,Cambodia,Cambodia - Kaôh Kong,2016-02-28,
16134,Hirundo tahitica,species,Pacific Swallow,1,103.95927786827,10.185520041667,Asia,Cambodia,Cambodia - Kaôh Kong,2016-02-28,
17771,Houbaropsis bengalensis blandini,subspecies,Bengal Florican ssp blandini,8,104.74525911268,12.614729499693,Asia,Cambodia,Cambodia - Kâmpóng Thum,2005-03-28,
66485,Pycnonotus finlaysoni,species,Stripe-throated Bulbul,1,103.4525299,11.3369281504,Asia,Cambodia,Cambodia - Kaôh Kong,2014-02-20,
66490,Halcyon pileata,species,Black-capped Kingfisher,1,103.4525299,11.3369281504,Asia,Cambodia,Cambodia - Kaôh Kong,2014-02-20,
66492,Halcyon pileata,species,Black-capped Kingfisher,1,103.4525299,11.3369281504,Asia,Cambodia,Cambodia - Kaôh Kong,2014-02-20,
74597,Cymbirhynchus macrorhynchos,species,Black-and-red Broadbill,1,103.461112969,11.3273903159,Asia,Cambodia,Cambodia - Kaôh Kong,2014-02-20,
74603,Callosciurus finlaysonii,species,Finlayson's Squirrel,1,103.461112969,11.3273903159,Asia,Cambodia,Cambodia - Kaôh Kong,2014-02-20,
74698,Trithemis aurora,species,Crimson Dropwing,1,103.51272582,11.39755889,Asia,Cambodia,Cambodia - Kaôh Kong,2014-02-19,
108508,Gracula religiosa intermedia,subspecies,Common Hill Myna ssp intermedia,1,103.508090969,11.4203762252,Asia,Cambodia,Cambodia - Kaôh Kong,2014-02-19,
108519,Alcedo atthis,species,Common Kingfisher,1,103.508090969,11.4203762252,Asia,Cambodia,Cambodia - Kaôh Kong,2014-02-19,
108535,Brachythemis contaminata,species,Asian Amberwing,1,103.508090969,11.4203762252,Asia,Cambodia,Cambodia - Kaôh Kong,2014-02-19,
10357,Alcedo atthis,species,Common Kingfisher,1,103.518104553,11.4348352222,Asia,Cambodia,Cambodia - Kaôh Kong,2014-02-18,
10374,Gracula religiosa intermedia,subspecies,Common Hill Myna ssp intermedia,2,103.518104553,11.4348352222,Asia,Cambodia,Cambodia - Kaôh Kong,2014-02-18,
10744,Oriolus chinensis,species,Black-naped Oriole,1,103.489036557,11.4249753654,Asia,Cambodia,Cambodia - Kaôh Kong,2014-02-18,
10777,Gracula religiosa,species,Common Hill Myna,1,103.489036557,11.4249753654,Asia,Cambodia,Cambodia - Kaôh Kong,2014-02-18,
10820,Gracula religiosa,species,Common Hill Myna,1,103.475189181,11.4286097389,Asia,Cambodia,Cambodia - Kaôh Kong,2014-02-18,
15797,Neurothemis intermedia,species,,1,103.479080199,11.4131408402,Asia,Cambodia,Cambodia - Kaôh Kong,2014-02-17,
15830,Meiglyptes jugularis,species,Black-and-buff Woodpecker,1,103.479080199,11.4131408402,Asia,Cambodia,Cambodia - Kaôh Kong,2014-02-17,
15869,Neurothemis intermedia,species,,1,103.479080199,11.4131408402,Asia,Cambodia,Cambodia - Kaôh Kong,2014-02-17,
15962,Merops leschenaulti,species,Chestnut-headed Bee-eater,1,103.479080199,11.4131408402,Asia,Cambodia,Cambodia - Kaôh Kong,2014-02-17,
21039,Pernis ptilorhynchus,species,Crested Honey Buzzard,1,103.480110168,11.4074757968,Asia,Cambodia,Cambodia - Kaôh Kong,2014-02-17,
21055,Merops leschenaulti,species,Chestnut-headed Bee-eater,1,103.480110168,11.4074757968,Asia,Cambodia,Cambodia - Kaôh Kong,2014-02-17,
62607,Anhinga melanogaster,species,Oriental Darter,1,103.870168019,13.407478236,Asia,Cambodia,Cambodia - Siemréab,2015-06-18,
57158,Acridotheres tristis,species,Common Myna,1,103.85041289,13.358052,Asia,Cambodia,Cambodia - Siemréab,2015-06-17,13:07
76675,Coracias affinis,species,Indochinese Roller,1,104.23828125,14.0153585138,Asia,Cambodia,Cambodia - Siemréab,2009-02-12,
90286,Coracias affinis,species,Indochinese Roller,1,104.276733398,14.0393406276,Asia,Cambodia,Cambodia - Siemréab,2009-02-11,
90416,Coracias affinis,species,Indochinese Roller,10,104.276733398,14.0393406276,Asia,Cambodia,Cambodia - Siemréab,2009-02-10,
53632,Coracias affinis,species,Indochinese Roller,4,104.493026733,14.0513307435,Asia,Cambodia,Cambodia - Preah Vihéar,2009-02-09,
53976,Anastomus oscitans,species,Asian Openbill,800,103.681411743,13.2205612992,Asia,Cambodia,Cambodia - Batdâmbâng,2009-02-08,
54034,Pelecanus philippensis,species,Spot-billed Pelican,15,103.681411743,13.2205612992,Asia,Cambodia,Cambodia - Batdâmbâng,2009-02-08,
54286,Haliaeetus ichthyaetus,species,Grey-headed Fish Eagle,2,103.681411743,13.2205612992,Asia,Cambodia,Cambodia - Batdâmbâng,2009-02-08,
54290,Haliastur indus,species,Brahminy Kite,2,103.681411743,13.2205612992,Asia,Cambodia,Cambodia - Batdâmbâng,2009-02-08,
54303,Merops philippinus,species,Blue-tailed Bee-eater,15,103.681411743,13.2205612992,Asia,Cambodia,Cambodia - Batdâmbâng,2009-02-08,
85901,Ixobrychus sinensis,species,Yellow Bittern,20,103.665618896,13.1269607666,Asia,Cambodia,Cambodia - Batdâmbâng,2009-02-07,
85910,Haliaeetus ichthyaetus,species,Grey-headed Fish Eagle,1,103.702011108,13.2239035127,Asia,Cambodia,Cambodia - Batdâmbâng,2009-02-07,
85926,Merops philippinus,species,Blue-tailed Bee-eater,20,103.645706177,13.2486344676,Asia,Cambodia,Cambodia - Batdâmbâng,2009-02-07,
34803,Pycnonotus flaviventris,species,Black-crested Bulbul,1,103.6887,14.3927,Asia,Cambodia,Cambodia - Otdar Mean Chey,2014-03-01,13:20
1766,Anastomus oscitans,species,Asian Openbill,2,103.54462713,13.29023565,Asia,Cambodia,Cambodia - Batdâmbâng,2014-02-26,
1768,Mycteria leucocephala,species,Painted Stork,13,103.54462713,13.29023565,Asia,Cambodia,Cambodia - Batdâmbâng,2014-02-26,
2724,Megaderma spasma,species,Lesser False Vampire Bat,5,103.10090485,13.0237185315,Asia,Cambodia,Cambodia - Batdâmbâng,2014-02-27,
2806,Macaca fascicularis,species,Long-tailed Macaque,20,103.099907069,13.0239092961,Asia,Cambodia,Cambodia - Batdâmbâng,2014-02-27,
2824,Elanus caeruleus,species,Black-winged Kite,1,103.177257031,13.0569453199,Asia,Cambodia,Cambodia - Batdâmbâng,2014-02-27,
3007,Chaerephon plicatus,species,Wrinkle-lipped Free-tailed Bat,100000,103.101543216,13.0220016438,Asia,Cambodia,Cambodia - Batdâmbâng,2014-02-27,
53746,Orthetrum sabina,species,Slender Skimmer,1,106.024132222,12.4807435102,Asia,Cambodia,Cambodia - Krâchéh,2010-02-06,
72002,Aegithina tiphia,species,Common Iora,1,104.902837928,11.4851501907,Asia,Cambodia,Cambodia - Phnom Penh,2015-04-09,
72007,Coracias affinis,species,Indochinese Roller,2,104.903773181,11.4834731197,Asia,Cambodia,Cambodia - Phnom Penh,2015-04-09,
94095,Rhyticeros undulatus,species,Wreathed Hornbill,1,103.447380059,11.2467436491,Asia,Cambodia,Cambodia - Kaôh Kong,2014-02-21,08:51
94098,Rhyticeros undulatus,species,Wreathed Hornbill,2,103.475532525,11.2935452669,Asia,Cambodia,Cambodia - Kaôh Kong,2014-02-21,08:01
94279,Xylocopa dejeanii,species,,1,103.474845879,11.378374773,Asia,Cambodia,Cambodia - Kaôh Kong,2014-02-16,
94471,Ducula aenea,species,Green Imperial Pigeon,1,103.51793289,11.3450126237,Asia,Cambodia,Cambodia - Kaôh Kong,2014-02-16,10:40
97110,Aegithina tiphia,species,Common Iora,1,104.903218746,11.4842772586,Asia,Cambodia,Cambodia - Phnom Penh,2014-02-22,16:20
98406,Trithemis pallidinervis,species,,1,103.97511005,13.335965,Asia,Cambodia,Cambodia - Siemréab,2014-02-06,12:17
103374,Anastomus oscitans,species,Asian Openbill,100,104.143981948,13.1724060719,Asia,Cambodia,Cambodia - Siemréab,2014-02-13,12:24
103390,Monticola solitarius,species,Blue Rock Thrush,1,103.882441522,13.4441763148,Asia,Cambodia,Cambodia - Siemréab,2014-02-12,17:47
103400,Tyto javanica stertens,subspecies,Eastern Barn Owl ssp stertens,1,103.872270586,13.4613862139,Asia,Cambodia,Cambodia - Siemréab,2014-02-12,16:18
103424,Cyornis hainanus,species,Hainan Blue Flycatcher,1,103.872270586,13.4613862139,Asia,Cambodia,Cambodia - Siemréab,2014-02-12,15:57
103435,Apis dorsata,species,Giant Honeybee,1,103.920679092,13.4347012994,Asia,Cambodia,Cambodia - Siemréab,2014-02-11,17:16
103454,Psittacula alexandri,species,Red-breasted Parakeet,1,103.889522554,13.4344230258,Asia,Cambodia,Cambodia - Siemréab,2014-02-11,12:20
103456,Apis dorsata,species,Giant Honeybee,1,103.889522554,13.4344230258,Asia,Cambodia,Cambodia - Siemréab,2014-02-11,11:34
103463,Psittacula alexandri,species,Red-breasted Parakeet,1,103.889522554,13.4344230258,Asia,Cambodia,Cambodia - Siemréab,2014-02-11,
105725,Hymenoptera indet.,multispecies,Hymenoptera unknown,1,103.859109877,13.4411543678,Asia,Cambodia,Cambodia - Siemréab,2014-02-10,16:28
109709,Ceryle rudis,species,Pied Kingfisher,5,103.332023614,13.246896715,Asia,Cambodia,Cambodia - Batdâmbâng,2015-03-28,
110076,Phalacrocorax fuscicollis,species,Indian Cormorant,1,103.698349013,13.21721904,Asia,Cambodia,Cambodia - Batdâmbâng,2015-03-28,
110080,Chlidonias hybrida,species,Whiskered Tern,2,103.615264886,13.2529788354,Asia,Cambodia,Cambodia - Batdâmbâng,2015-03-28,
110594,Brachythemis contaminata,species,Asian Amberwing,1,103.859267234,13.4407675783,Asia,Cambodia,Cambodia - Siemréab,2014-02-09,14:45
110597,Psittacula alexandri,species,Red-breasted Parakeet,1,103.859267234,13.4407675783,Asia,Cambodia,Cambodia - Siemréab,2014-02-09,14:44
110606,Xylocopa dejeanii,species,,1,103.859267234,13.4407675783,Asia,Cambodia,Cambodia - Siemréab,2014-02-09,14:38
110607,Meliponini indet.,multispecies,Stingless bee unknown,1,103.859267234,13.4407675783,Asia,Cambodia,Cambodia - Siemréab,2014-02-09,14:32
110610,Vespidae indet.,multispecies,Vespid unknown (Vespidae),1,103.858923911,13.4473206569,Asia,Cambodia,Cambodia - Siemréab,2014-02-09,13:03
110615,Rhyothemis variegata,species,Variegated Flutterer,1,103.858966827,13.4469032687,Asia,Cambodia,Cambodia - Siemréab,2014-02-09,11:16
110636,Junonia atlites,species,Gray pansy,1,103.858966827,13.4469032687,Asia,Cambodia,Cambodia - Siemréab,2014-02-09,10:52
110640,Crocothemis servilia,species,Oriental Scarlet,1,103.858966827,13.4469032687,Asia,Cambodia,Cambodia - Siemréab,2014-02-09,10:41
120707,Psittacula alexandri,species,Red-breasted Parakeet,1,103.861927985,13.4486145557,Asia,Cambodia,Cambodia - Siemréab,2014-02-08,17:51
120708,Psittacula alexandri,species,Red-breasted Parakeet,1,103.861927985,13.4486145557,Asia,Cambodia,Cambodia - Siemréab,2014-02-08,17:47
120711,Psittacula alexandri,species,Red-breasted Parakeet,1,103.861927985,13.4486145557,Asia,Cambodia,Cambodia - Siemréab,2014-02-08,17:39
120714,Psittacula alexandri,species,Red-breasted Parakeet,1,103.861927985,13.4486145557,Asia,Cambodia,Cambodia - Siemréab,2014-02-08,17:27
120718,Psittacula alexandri,species,Red-breasted Parakeet,1,103.861927985,13.4486145557,Asia,Cambodia,Cambodia - Siemréab,2014-02-08,17:19
120947,Junonia atlites,species,Gray pansy,1,103.857121467,13.4226517669,Asia,Cambodia,Cambodia - Siemréab,2014-02-08,13:13
121003,Junonia atlites,species,Gray pansy,1,103.857121467,13.4226517669,Asia,Cambodia,Cambodia - Siemréab,2014-02-08,12:55
121066,Formicidae indet.,multispecies,Unidentified Ant,1,103.974112272,13.3353970934,Asia,Cambodia,Cambodia - Siemréab,2014-02-06,14:39
121143,Junonia atlites,species,Gray pansy,1,103.865983486,13.4132788722,Asia,Cambodia,Cambodia - Siemréab,2014-02-05,09:43
121146,Macaca fascicularis,species,Long-tailed Macaque,1,103.86778593,13.4122874334,Asia,Cambodia,Cambodia - Siemréab,2014-02-05,12:22
9105,Macaca fascicularis,species,Long-tailed Macaque,2,103.859303221,13.4321158013,Asia,Cambodia,Cambodia - Siemréab,2015-03-25,
9266,Pteropus vampyrus,species,Large Flying Fox,1000,103.858836349,13.3631806234,Asia,Cambodia,Cambodia - Siemréab,2015-03-23,
14440,Acridotheres tristis,species,Common Myna,5,103.819942474,13.3618967847,Asia,Cambodia,Cambodia - Siemréab,2013-04-09,
22485,Monticola solitarius,species,Blue Rock Thrush,1,103.871770129,13.4621472053,Asia,Cambodia,Cambodia - Siemréab,2015-03-24,
22488,Psittacula alexandri,species,Red-breasted Parakeet,1,103.868701681,13.4612707435,Asia,Cambodia,Cambodia - Siemréab,2015-03-24,
22635,Gracula religiosa,species,Common Hill Myna,1,103.898463473,13.4303003683,Asia,Cambodia,Cambodia - Siemréab,2015-03-24,
22643,Ardeola bacchus,species,Chinese Pond Heron,1,103.899579272,13.4308221395,Asia,Cambodia,Cambodia - Siemréab,2015-03-24,
22651,Anhinga melanogaster,species,Oriental Darter,1,103.871556222,13.408405824,Asia,Cambodia,Cambodia - Siemréab,2015-03-24,
60512,Copsychus saularis,species,Oriental Magpie-Robin,1,104.930412881,11.5642305995,Asia,Cambodia,Cambodia - Phnom Penh,2015-03-20,
60518,Pycnonotus goiavier,species,Yellow-vented Bulbul,1,104.927466139,11.5555271531,Asia,Cambodia,Cambodia - Phnom Penh,2015-03-20,
