,scientificName,taxonRank,vernacularName,individualCount,longitudeDecimal,latitudeDecimal,continent,country,locality,eventDate,eventTime
1490,Allograpta fuscotibialis,species,,3,42.647,11.765,Africa,Djibouti,Djibouti - Tadjourah,2014-12-29,
81641,Pantala flavescens,species,Wandering Glider,1,43.146,11.558,Africa,Djibouti,Djibouti - Djibouti,2015-01-01,20:00
82272,Orthetrum sabina,species,Slender Skimmer,1,42.577,11.171,Africa,Djibouti,Djibouti - Dikhil,2014-12-31,
82335,Orthetrum sabina,species,Slender Skimmer,3,43.146,11.558,Africa,Djibouti,Djibouti,2014-12-31,
82693,Argemone mexicana,species,Mexican Poppy,1,42.642,11.784,Africa,Djibouti,Djibouti - Tadjourah,2014-12-29,
73461,Pantala flavescens,species,Wandering Glider,1,43.14639873,11.5576836,Africa,Djibouti,Djibouti - Djibouti,2015-01-01,18:35
79685,Lanius excubitor,species,Great Grey Shrike,2,42.57590243,11.17047185,Africa,Djibouti,Djibouti - Dikhil,2014-12-31,13:00
79686,Eremopterix nigriceps,species,Black-crowned Sparrow-Lark,1,42.64405714,11.21773494,Africa,Djibouti,Djibouti - Dikhil,2014-12-31,16:11
79688,Lanius excubitor,species,Great Grey Shrike,1,42.75045009,11.10680126,Africa,Djibouti,Djibouti - Ali Sabieh,2014-12-31,18:04
79689,Litocranius walleri,species,Gerenuk,2,42.80753706,11.01825161,Africa,Djibouti,Djibouti - Ali Sabieh,2015-01-01,10:31
79690,Madoqua saltiana,species,Salt's Dikdik,2,42.80748925,11.01675047,Africa,Djibouti,Djibouti - Ali Sabieh,2015-01-01,12:00
79691,Alaemon alaudipes,species,Greater Hoopoe-Lark,3,42.71780903,11.348512,Africa,Djibouti,Djibouti - Ali Sabieh,2015-01-01,16:04
97604,Litocranius walleri sclateri,subspecies,Northern Gerenuk,2,42.69295568,11.4313604,Africa,Djibouti,Djibouti - Dikhil,2014-12-28,09:44
97605,Lanius excubitor,species,Great Grey Shrike,1,42.59888278,11.67811766,Africa,Djibouti,Djibouti - Tadjourah,2014-12-28,13:59
97606,Oreotragus oreotragus,species,Klipspringer,3,42.59840975,11.71062111,Africa,Djibouti,Djibouti - Tadjourah,2014-12-28,14:19
97607,Neophron percnopterus,species,Egyptian Vulture,3,42.63987611,11.77942364,Africa,Djibouti,Djibouti - Tadjourah,2014-12-28,15:41
97608,Neophron percnopterus,species,Egyptian Vulture,6,42.64074567,11.78300303,Africa,Djibouti,Djibouti - Tadjourah,2014-12-28,16:12
97609,Dicrurus divaricatus lugubris,subspecies,Glossy-backed Drongo ssp lugubris,2,42.64154485,11.78246167,Africa,Djibouti,Djibouti - Tadjourah,2014-12-28,17:57
97610,Madoqua saltiana saltiana,subspecies,Salt's Dik-dik ssp saltiana,1,42.65211304,11.77425981,Africa,Djibouti,Djibouti - Tadjourah,2014-12-29,07:31
97611,Heterohyrax brucei,species,Bush Hyrax,1,42.6524471,11.76989293,Africa,Djibouti,Djibouti - Tadjourah,2014-12-29,17:05
97612,Dicrurus divaricatus lugubris,subspecies,Glossy-backed Drongo ssp lugubris,1,42.64221591,11.77403499,Africa,Djibouti,Djibouti - Tadjourah,2014-12-29,17:54
97613,Oreotragus oreotragus,species,Klipspringer,1,42.65454769,11.76579423,Africa,Djibouti,Djibouti - Tadjourah,2014-12-30,06:04
97614,Heterohyrax brucei,species,Bush Hyrax,1,42.65925265,11.75945823,Africa,Djibouti,Djibouti - Tadjourah,2014-12-30,09:26
4703,Dromas ardeola,species,Crab-plover,1,43.1326059,11.59522106,Africa,Djibouti,Djibouti - Djibouti,2014-12-27,06:58
4704,Xenus cinereus,species,Terek Sandpiper,3,43.15263388,11.60089965,Africa,Djibouti,Djibouti - Djibouti,2014-12-27,14:45
4706,Gelochelidon nilotica,species,Gull-billed Tern,1,43.15288479,11.60096511,Africa,Djibouti,Djibouti,2014-12-27,14:52
10235,Passer castanopterus,species,Somali Sparrow,3,43.14986555,11.55237293,Africa,Djibouti,Djibouti - Djibouti,2014-12-26,06:11
10242,Gelochelidon nilotica,species,Gull-billed Tern,1,43.14954681,11.60590096,Africa,Djibouti,Djibouti - Djibouti,2014-12-26,08:30
10243,Merops persicus,species,Blue-cheeked Bee-eater,2,43.14081717,11.53738197,Africa,Djibouti,Djibouti - Djibouti,2014-12-26,10:13
10246,Lanius excubitor,species,Great Grey Shrike,1,43.1263894,11.53074365,Africa,Djibouti,Djibouti - Djibouti,2014-12-26,11:27
10250,Vanellus spinosus,species,Spur-winged Lapwing,8,43.12787345,11.57009693,Africa,Djibouti,Djibouti - Djibouti,2014-12-26,12:51
10255,Dromas ardeola,species,Crab-plover,4,43.13518406,11.59296818,Africa,Djibouti,Djibouti,2014-12-26,14:13
10258,Xenus cinereus,species,Terek Sandpiper,1,43.13516999,11.59296907,Africa,Djibouti,Djibouti,2014-12-26,14:18
10259,Pandion haliaetus,species,Western Osprey,1,43.13520689,11.59300534,Africa,Djibouti,Djibouti,2014-12-26,14:23
10262,Gelochelidon nilotica,species,Gull-billed Tern,1,43.13518321,11.59304371,Africa,Djibouti,Djibouti,2014-12-26,14:24
7196,Columba guinea,species,Speckled Pigeon,1,42.373366355896,11.101599196968,Africa,Djibouti,Djibouti - Dikhil,2012-12-19,
7225,Spilopelia senegalensis,species,Laughing Dove,2,42.378859519958,11.106989519283,Africa,Djibouti,Djibouti - Dikhil,2012-12-19,
61485,Lanius excubitor,species,Great Grey Shrike,3,43.212781939656,11.502336287274,Africa,Djibouti,Djibouti - Djibouti,2012-12-30,
61508,Xenus cinereus,species,Terek Sandpiper,4,43.150055768201,11.623408350378,Africa,Djibouti,Djibouti - Djibouti,2012-12-29,
61509,Vanellus spinosus,species,Spur-winged Lapwing,2,43.150055768201,11.623408350378,Africa,Djibouti,Djibouti - Djibouti,2012-12-29,
61510,Phoenicopterus roseus,species,Greater Flamingo,5,43.150055768201,11.623408350378,Africa,Djibouti,Djibouti - Djibouti,2012-12-29,
61512,Gelochelidon nilotica,species,Gull-billed Tern,5,43.150055768201,11.623408350378,Africa,Djibouti,Djibouti - Djibouti,2012-12-29,
61514,Pandion haliaetus,species,Western Osprey,3,43.150055768201,11.623408350378,Africa,Djibouti,Djibouti - Djibouti,2012-12-29,
61519,Dromas ardeola,species,Crab-plover,63,43.150055768201,11.623408350378,Africa,Djibouti,Djibouti - Djibouti,2012-12-29,
61605,Oenanthe isabellina,species,Isabelline Wheatear,10,41.88302314491,11.158851888444,Africa,Djibouti,Djibouti - Dikhil,2012-12-20,
61614,Oenanthe isabellina,species,Isabelline Wheatear,3,41.89830851974,11.149406052189,Africa,Djibouti,Djibouti - Dikhil,2012-12-19,
61627,Vanellus spinosus,species,Spur-winged Lapwing,1,42.369924578816,11.10810687024,Africa,Djibouti,Djibouti - Dikhil,2012-12-19,
61639,Cinnyris habessinicus,species,Shining Sunbird,2,42.369924578816,11.10810687024,Africa,Djibouti,Djibouti - Dikhil,2012-12-19,
61640,Eremopterix nigriceps,species,Black-crowned Sparrow-Lark,25,42.567489892244,11.208892697204,Africa,Djibouti,Djibouti - Dikhil,2012-12-19,
61654,Sylvietta brachyura,species,Northern Crombec,2,42.829290381633,11.566922979964,Africa,Djibouti,Djibouti - Djibouti,2012-12-18,
61720,Vanellus spinosus,species,Spur-winged Lapwing,1,43.147018449381,11.577758852324,Africa,Djibouti,Djibouti - Djibouti,2012-12-17,
51194,Merops persicus,species,Blue-cheeked Bee-eater,2,43.16141309,11.55595611,Africa,Djibouti,Djibouti - Djibouti,2012-12-18,07:54
51195,Pandion haliaetus,species,Western Osprey,1,43.17585311,11.54770872,Africa,Djibouti,Djibouti - Djibouti,2012-12-18,08:17
51197,Xenus cinereus,species,Terek Sandpiper,40,43.17989844,11.54678091,Africa,Djibouti,Djibouti - Djibouti,2012-12-18,09:17
51198,Passer castanopterus,species,Somali Sparrow,4,43.14327122,11.56124929,Africa,Djibouti,Djibouti - Djibouti,2012-12-18,10:45
51199,Oenanthe isabellina,species,Isabelline Wheatear,10,41.88568047,11.16083876,Africa,Djibouti,Djibouti - Dikhil,2012-12-20,07:59
51200,Lanius excubitor,species,Great Grey Shrike,1,41.89687314,11.15533406,Africa,Djibouti,Djibouti - Dikhil,2012-12-20,12:26
51201,Gelochelidon nilotica,species,Gull-billed Tern,2,43.15346559,11.60176528,Africa,Djibouti,Djibouti - Djibouti,2012-12-21,06:49
51202,Xenus cinereus,species,Terek Sandpiper,2,43.15346445,11.60176571,Africa,Djibouti,Djibouti - Djibouti,2012-12-21,06:50
51203,Pluvialis fulva,species,Pacific Golden Plover,1,43.15349519,11.60194884,Africa,Djibouti,Djibouti - Djibouti,2012-12-21,07:25
51204,Dromas ardeola,species,Crab-plover,1,43.15336025,11.60177437,Africa,Djibouti,Djibouti - Djibouti,2012-12-21,08:19
112319,Dromas ardeola,species,Crab-plover,2,43.15737161,11.60228408,Africa,Djibouti,Djibouti - Djibouti,2019-10-30,17:40
118091,Dromas ardeola,species,Crab-plover,1,43.15779896,11.60193299,Africa,Djibouti,Djibouti,2019-10-29,16:05
118362,Dromas ardeola,species,Crab-plover,3,43.14488056,11.6175226,Africa,Djibouti,Djibouti,2019-10-29,12:47
81992,Buphagus erythrorynchus,species,Red-billed Oxpecker,5,42.65185936,11.76779341,Africa,Djibouti,Djibouti - Tadjourah,2018-11-30,15:57
89542,Upupa epops senegalensis,subspecies,Eurasian Hoopoe ssp senegalensis,1,42.7128973,11.42942193,Africa,Djibouti,Djibouti - Dikhil,2018-11-30,
90225,Columba guinea guinea,subspecies,Speckled Pigeon ssp guinea,2,43.14528264,11.61844357,Africa,Djibouti,Djibouti,2018-11-29,16:51
96744,Madoqua saltiana,species,Salt's Dikdik,1,42.70926190544172,11.42973700539342,Africa,Djibouti,Djibouti - Dikhil,2018-12-02,14:08
96745,Muscicapa striata,species,Spotted Flycatcher,1,42.92237590071086,11.780348285112323,Africa,Djibouti,Djibouti - Tadjourah,2018-12-02,09:30
96746,Papio hamadryas,species,Western Baboon,8,42.65185936,11.76779341,Africa,Djibouti,Djibouti - Tadjourah,2018-11-30,15:57
99103,Dromas ardeola,species,Crab-plover,8,43.15102458,11.62064706,Africa,Djibouti,Djibouti,2018-11-28,
41335,Neophron percnopterus,species,Egyptian Vulture,1,42.64074567,11.78300303,Africa,Djibouti,Djibouti - Tadjourah,2014-12-30,12:00
41336,Columba guinea,species,Speckled Pigeon,2,42.64074567,11.78300303,Africa,Djibouti,Djibouti - Tadjourah,2014-12-29,12:00
41337,Neophron percnopterus,species,Egyptian Vulture,1,42.64074567,11.78300303,Africa,Djibouti,Djibouti - Tadjourah,2014-12-29,12:00
41338,Eremopterix nigriceps,species,Black-crowned Sparrow-Lark,1,42.64405714,11.21773494,Africa,Djibouti,Djibouti - Dikhil,2014-12-31,16:11
41339,Litocranius walleri,species,Gerenuk,2,42.80753706,11.01825161,Africa,Djibouti,Djibouti - Ali Sabieh,2015-01-01,10:31
41340,Madoqua saltiana,species,Salt's Dikdik,2,42.80748925,11.01675047,Africa,Djibouti,Djibouti - Ali Sabieh,2015-01-01,12:00
41341,Alaemon alaudipes,species,Greater Hoopoe-Lark,3,42.71780903,11.348512,Africa,Djibouti,Djibouti - Ali Sabieh,2015-01-01,16:04
41342,Heterohyrax brucei,species,Bush Hyrax,1,42.6524471,11.76989293,Africa,Djibouti,Djibouti - Tadjourah,2014-12-29,17:05
41343,Dicrurus divaricatus lugubris,subspecies,Glossy-backed Drongo ssp lugubris,1,42.64221591,11.77403499,Africa,Djibouti,Djibouti - Tadjourah,2014-12-29,17:54
41344,Oreotragus oreotragus,species,Klipspringer,1,42.65454769,11.76579423,Africa,Djibouti,Djibouti - Tadjourah,2014-12-30,06:04
41345,Heterohyrax brucei,species,Bush Hyrax,1,42.65925265,11.75945823,Africa,Djibouti,Djibouti - Tadjourah,2014-12-30,09:26
41349,Oreotragus oreotragus,species,Klipspringer,3,42.59840975,11.71062111,Africa,Djibouti,Djibouti - Tadjourah,2014-12-28,14:19
41350,Neophron percnopterus,species,Egyptian Vulture,3,42.63987611,11.77942364,Africa,Djibouti,Djibouti - Tadjourah,2014-12-28,15:41
41351,Neophron percnopterus,species,Egyptian Vulture,6,42.64074567,11.78300303,Africa,Djibouti,Djibouti - Tadjourah,2014-12-28,16:12
41352,Dicrurus divaricatus lugubris,subspecies,Glossy-backed Drongo ssp lugubris,2,42.64154485,11.78246167,Africa,Djibouti,Djibouti - Tadjourah,2014-12-28,17:57
41353,Dromas ardeola,species,Crab-plover,1,43.1326059,11.59522106,Africa,Djibouti,Djibouti - Djibouti,2014-12-27,06:58
41354,Xenus cinereus,species,Terek Sandpiper,3,43.15263388,11.60089965,Africa,Djibouti,Djibouti - Djibouti,2014-12-27,14:45
41355,Gelochelidon nilotica,species,Gull-billed Tern,1,43.15288479,11.60096511,Africa,Djibouti,Djibouti,2014-12-27,14:52
41364,Orthetrum sabina,species,Slender Skimmer,1,43.12649458,11.52775028,Africa,Djibouti,Djibouti - Djibouti,2014-12-26,10:53
41365,Passer castanopterus,species,Somali Sparrow,1,43.14986555,11.55237293,Africa,Djibouti,Djibouti - Djibouti,2014-12-26,06:11
41366,Passer castanopterus,species,Somali Sparrow,3,43.14986555,11.55237293,Africa,Djibouti,Djibouti - Djibouti,2014-12-26,06:11
41367,Gelochelidon nilotica,species,Gull-billed Tern,1,43.14954681,11.60590096,Africa,Djibouti,Djibouti - Djibouti,2014-12-26,08:30
41368,Merops persicus,species,Blue-cheeked Bee-eater,2,43.14081717,11.53738197,Africa,Djibouti,Djibouti - Djibouti,2014-12-26,10:13
41369,Lanius excubitor,species,Great Grey Shrike,1,43.1263894,11.53074365,Africa,Djibouti,Djibouti - Djibouti,2014-12-26,11:27
41370,Vanellus spinosus,species,Spur-winged Lapwing,8,43.12787345,11.57009693,Africa,Djibouti,Djibouti - Djibouti,2014-12-26,12:51
41371,Dromas ardeola,species,Crab-plover,4,43.13518406,11.59296818,Africa,Djibouti,Djibouti,2014-12-26,14:13
41372,Xenus cinereus,species,Terek Sandpiper,1,43.13516999,11.59296907,Africa,Djibouti,Djibouti,2014-12-26,14:18
41373,Pandion haliaetus,species,Western Osprey,1,43.13520689,11.59300534,Africa,Djibouti,Djibouti,2014-12-26,14:23
41374,Gelochelidon nilotica,species,Gull-billed Tern,1,43.13518321,11.59304371,Africa,Djibouti,Djibouti,2014-12-26,14:24
32207,Neophron percnopterus,species,Egyptian Vulture,1,42.64074567,11.78300303,Africa,Djibouti,Djibouti - Tadjourah,2014-12-30,12:00
32208,Columba guinea,species,Speckled Pigeon,2,42.64074567,11.78300303,Africa,Djibouti,Djibouti - Tadjourah,2014-12-29,12:00
32209,Neophron percnopterus,species,Egyptian Vulture,1,42.64074567,11.78300303,Africa,Djibouti,Djibouti - Tadjourah,2014-12-29,12:00
32210,Lanius excubitor,species,Great Grey Shrike,2,42.57590243,11.17047185,Africa,Djibouti,Djibouti - Dikhil,2014-12-31,13:00
32211,Eremopterix nigriceps,species,Black-crowned Sparrow-Lark,1,42.64405714,11.21773494,Africa,Djibouti,Djibouti - Dikhil,2014-12-31,16:11
32212,Lanius excubitor,species,Great Grey Shrike,1,42.75045009,11.10680126,Africa,Djibouti,Djibouti - Ali Sabieh,2014-12-31,18:04
32213,Alaemon alaudipes,species,Greater Hoopoe-Lark,3,42.71780903,11.348512,Africa,Djibouti,Djibouti - Ali Sabieh,2015-01-01,16:04
32214,Lanius excubitor,species,Great Grey Shrike,1,42.59888278,11.67811766,Africa,Djibouti,Djibouti - Tadjourah,2014-12-28,13:59
32215,Neophron percnopterus,species,Egyptian Vulture,3,42.63987611,11.77942364,Africa,Djibouti,Djibouti - Tadjourah,2014-12-28,15:41
32216,Neophron percnopterus,species,Egyptian Vulture,6,42.64074567,11.78300303,Africa,Djibouti,Djibouti - Tadjourah,2014-12-28,16:12
32217,Dicrurus divaricatus lugubris,subspecies,Glossy-backed Drongo ssp lugubris,2,42.64154485,11.78246167,Africa,Djibouti,Djibouti - Tadjourah,2014-12-28,17:57
32218,Dicrurus divaricatus lugubris,subspecies,Glossy-backed Drongo ssp lugubris,1,42.64221591,11.77403499,Africa,Djibouti,Djibouti - Tadjourah,2014-12-29,17:54
53964,Neophron percnopterus,species,Egyptian Vulture,1,42.64074567,11.78300303,Africa,Djibouti,Djibouti - Tadjourah,2014-12-30,12:00
54168,Columba guinea,species,Speckled Pigeon,2,42.64074567,11.78300303,Africa,Djibouti,Djibouti - Tadjourah,2014-12-29,12:00
54225,Neophron percnopterus,species,Egyptian Vulture,1,42.64074567,11.78300303,Africa,Djibouti,Djibouti - Tadjourah,2014-12-29,12:00
54600,Orthetrum sabina,species,Slender Skimmer,1,43.12649458,11.52775028,Africa,Djibouti,Djibouti - Djibouti,2014-12-26,10:53
54664,Passer castanopterus,species,Somali Sparrow,1,43.14986555,11.55237293,Africa,Djibouti,Djibouti - Djibouti,2014-12-26,06:11
