,scientificName,taxonRank,vernacularName,individualCount,longitudeDecimal,latitudeDecimal,continent,country,locality,eventDate,eventTime
89246,Haliaeetus albicilla groenlandicus,subspecies,White-tailed Eagle ssp groenlandicus,1,-50.6109237671,67.015473109,North America,Greenland,Greenland,2013-07-07,
4289,Gavia stellata,species,Red-throated Diver,1,-25.4401184899095,70.7860881615326,North America,Greenland,Greenland,2014-09-01,20:31
74854,Rissa tridactyla,species,Black-legged Kittiwake,1,-21.9928550755,70.3031402779,North America,Greenland,Greenland,2013-09-04,
75317,Anthus pratensis,species,Meadow Pipit,1,-21.9626426732,70.4846981157,North America,Greenland,Greenland,2013-09-04,
75319,Anthus pratensis,species,Meadow Pipit,1,-21.9729423558,70.4903744731,North America,Greenland,Greenland,2013-09-04,
75497,Larus hyperboreus hyperboreus,subspecies,Glaucous Gull ssp hyperboreus,1,-21.9746589696,70.490890427,North America,Greenland,Greenland,2013-09-04,
76078,Larus hyperboreus hyperboreus,subspecies,Glaucous Gull ssp hyperboreus,1,-27.656250447,70.7456516576,North America,Greenland,Greenland,2013-09-02,
10222,Haliaeetus albicilla groenlandicus,subspecies,White-tailed Eagle ssp groenlandicus,1,-51.8823623666,63.9643196371,North America,Greenland,Greenland,2008-02-10,
13830,Haliaeetus albicilla groenlandicus,subspecies,White-tailed Eagle ssp groenlandicus,1,-51.7372083668,64.1751071435,North America,Greenland,Greenland - Nuuk,2008-02-08,
121574,Stercorarius skua,species,Great Skua,1,-21.181640625,68.9741635834,North America,Greenland,Greenland,2013-09-05,
121575,Rissa tridactyla,species,Black-legged Kittiwake,1,-21.181640625,68.9741635834,North America,Greenland,Greenland,2013-09-05,
121576,Fulmarus glacialis auduboni,subspecies,Northern Fulmar ssp auduboni,1,-21.181640625,68.9741635834,North America,Greenland,Greenland,2013-09-05,
121577,Uria aalge aalge,subspecies,Atlantic Murre,1,-21.181640625,68.9741635834,North America,Greenland,Greenland,2013-09-05,
66546,Taraxacum officinale s.l. (incl. all sec.),species,Common Dandelion,1,-21.9705963135,70.4850249792,North America,Greenland,Greenland,2013-09-04,
66630,Oxyria digyna,species,Mountain Sorrel,1,-21.9705963135,70.4850249792,North America,Greenland,Greenland,2013-09-04,
66632,Epilobium latifolium,species,,1,-21.9705963135,70.4850249792,North America,Greenland,Greenland,2013-09-04,
66641,Eriophorum scheuchzeri,species,White cottongrass,1,-21.9705963135,70.4850249792,North America,Greenland,Greenland,2013-09-04,
66646,Saxifraga cernua,species,Drooping Saxifrage,1,-21.9705963135,70.4850249792,North America,Greenland,Greenland,2013-09-04,
66665,Polygonum viviparum,synonym,,1,-21.9705963135,70.4850249792,North America,Greenland,Greenland,2013-09-04,
66675,Oxyria digyna,species,Mountain Sorrel,1,-21.9705963135,70.4850249792,North America,Greenland,Greenland,2013-09-04,
66678,Cerastium alpinum,species,Alpine Mouse-ear,1,-21.9705963135,70.4850249792,North America,Greenland,Greenland,2013-09-04,
67020,Rissa tridactyla,species,Black-legged Kittiwake,1,-21.5310573578,69.1986162975,North America,Greenland,Greenland,2013-09-04,
67025,Fulmarus glacialis glacialis,subspecies,Northern Fulmar ssp glacialis,1,-21.5310573578,69.1986162975,North America,Greenland,Greenland,2013-09-04,
67030,Calidris canutus,species,Red Knot,1,-21.9705104828,70.4854263835,North America,Greenland,Greenland,2013-09-04,
67091,Calidris maritima,species,Purple Sandpiper,1,-21.9705104828,70.4854263835,North America,Greenland,Greenland,2013-09-04,
67092,Oenanthe oenanthe leucorhoa,subspecies,Greenland Northern Wheatear,1,-21.9705104828,70.4854263835,North America,Greenland,Greenland,2013-09-04,
67094,Anthus pratensis,species,Meadow Pipit,1,-21.9705104828,70.4854263835,North America,Greenland,Greenland,2013-09-04,
67099,Arenaria interpres interpres,subspecies,Ruddy Turnstone ssp interpres,1,-21.9705104828,70.4854263835,North America,Greenland,Greenland,2013-09-04,
72352,Potentilla crantzii,species,Alpine Cinquefoil,1,-25.0646209717,71.293967423,North America,Greenland,Greenland,2013-09-03,
72357,Rhodiola rosea,synonym,Rosewort,1,-25.0646209717,71.293967423,North America,Greenland,Greenland,2013-09-03,
72386,Dryas octopetala,species,Mountain Avens,1,-25.0646209717,71.293967423,North America,Greenland,Greenland,2013-09-03,
72432,Arctostaphylos alpinus,synonym,,1,-25.0646209717,71.293967423,North America,Greenland,Greenland,2013-09-03,
72442,Pyrola grandiflora,species,Large-flowered wintergreen,1,-25.0646209717,71.293967423,North America,Greenland,Greenland,2013-09-03,
72457,Eriophorum scheuchzeri,species,White cottongrass,1,-25.0646209717,71.293967423,North America,Greenland,Greenland,2013-09-03,
72861,Rhodiola rosea,synonym,Rosewort,1,-25.7649993896,71.2617892397,North America,Greenland,Greenland,2013-09-03,
72888,Diphasiastrum alpinum,species,Alpine Clubmoss,1,-25.7649993896,71.2617892397,North America,Greenland,Greenland,2013-09-03,
72896,Eriophorum scheuchzeri,species,White cottongrass,1,-25.7649993896,71.2617892397,North America,Greenland,Greenland,2013-09-03,
72899,Harrimanella hypnoides,species,Mossplant,1,-25.7649993896,71.2617892397,North America,Greenland,Greenland,2013-09-03,
72903,Betula nana,species,Dwarf Birch,1,-25.7649993896,71.2617892397,North America,Greenland,Greenland,2013-09-03,
72910,Cassiope tetragona,species,White arctic mountain heather,1,-25.7649993896,71.2617892397,North America,Greenland,Greenland,2013-09-03,
72993,Epilobium latifolium,species,,1,-25.7649993896,71.2617892397,North America,Greenland,Greenland,2013-09-03,
73007,Rhodiola rosea,synonym,Rosewort,1,-25.7649993896,71.2617892397,North America,Greenland,Greenland,2013-09-03,
74431,Corvus corax principalis,subspecies,Northern Raven ssp principalis,1,-25.0654792786,71.2921505563,North America,Greenland,Greenland,2013-09-03,
74433,Alopex lagopus,synonym,,1,-25.0654792786,71.2921505563,North America,Greenland,Greenland,2013-09-03,
74434,Ovibos moschatus,species,Muskox,1,-25.0654792786,71.2921505563,North America,Greenland,Greenland,2013-09-03,
74436,Anser brachyrhynchus,species,Pink-footed Goose,1,-25.0654792786,71.2921505563,North America,Greenland,Greenland,2013-09-03,
74439,Fulmarus glacialis glacialis,subspecies,Northern Fulmar ssp glacialis,1,-25.0654792786,71.2921505563,North America,Greenland,Greenland,2013-09-03,
75442,Rhodiola rosea,synonym,Rosewort,1,-27.7267456055,70.9319008383,North America,Greenland,Greenland,2013-09-02,
75457,Dryas octopetala,species,Mountain Avens,1,-27.7267456055,70.9319008383,North America,Greenland,Greenland,2013-09-02,
75463,Betula nana,species,Dwarf Birch,1,-27.7267456055,70.9319008383,North America,Greenland,Greenland,2013-09-02,
75469,Tofieldia pusilla,species,Scottish Asphodel,1,-27.7267456055,70.9319008383,North America,Greenland,Greenland,2013-09-02,
75472,Juncus arcticus,species,Arctic rush,1,-27.7267456055,70.9319008383,North America,Greenland,Greenland,2013-09-02,
75478,Epilobium latifolium,species,,1,-27.7267456055,70.9319008383,North America,Greenland,Greenland,2013-09-02,
75488,Polygonum viviparum,synonym,,1,-27.7267456055,70.9319008383,North America,Greenland,Greenland,2013-09-02,
75562,Pagophilus groenlandicus,species,Harp Seal,1,-27.9711914062,70.6517808538,North America,Greenland,Greenland,2013-09-02,
75578,Larus hyperboreus hyperboreus,subspecies,Glaucous Gull ssp hyperboreus,1,-27.9711914062,70.6517808538,North America,Greenland,Greenland,2013-09-02,
75592,Calcarius lapponicus subcalcaratus,subspecies,Lapland Longspur ssp subcalcaratus,1,-27.7459716797,70.9408716622,North America,Greenland,Greenland,2013-09-02,
75595,Falco rusticolus,species,Gyrfalcon,1,-27.7459716797,70.9408716622,North America,Greenland,Greenland,2013-09-02,
75596,Corvus corax principalis,subspecies,Northern Raven ssp principalis,1,-27.7459716797,70.9408716622,North America,Greenland,Greenland,2013-09-02,
75599,Plectrophenax nivalis nivalis,subspecies,Snow Bunting ssp nivalis,1,-27.7459716797,70.9408716622,North America,Greenland,Greenland,2013-09-02,
75603,Gavia immer,species,Common Loon,1,-27.7459716797,70.9408716622,North America,Greenland,Greenland,2013-09-02,
81817,Arctostaphylos alpinus,synonym,,1,-25.5102539062,70.7898471434,North America,Greenland,Greenland,2013-09-01,
81819,Epilobium latifolium,species,,1,-25.5102539062,70.7898471434,North America,Greenland,Greenland,2013-09-01,
81822,Eriophorum scheuchzeri,species,White cottongrass,1,-25.5102539062,70.7898471434,North America,Greenland,Greenland,2013-09-01,
81829,Phyllodoce caerulea,species,Blue Heath,1,-25.5102539062,70.7898471434,North America,Greenland,Greenland,2013-09-01,
81832,Potentilla crantzii,species,Alpine Cinquefoil,1,-25.5102539062,70.7898471434,North America,Greenland,Greenland,2013-09-01,
81838,Diphasiastrum alpinum,species,Alpine Clubmoss,1,-25.5102539062,70.7898471434,North America,Greenland,Greenland,2013-09-01,
81844,Loiseleuria procumbens,synonym,Trailing Azalea,1,-25.5102539062,70.7898471434,North America,Greenland,Greenland,2013-09-01,
81853,Cassiope tetragona,species,White arctic mountain heather,1,-25.5102539062,70.7898471434,North America,Greenland,Greenland,2013-09-01,
82015,Gavia stellata,species,Red-throated Diver,1,-25.5349731445,70.8018178276,North America,Greenland,Greenland,2013-09-01,
82016,Rissa tridactyla,species,Black-legged Kittiwake,1,-25.4086303711,70.7832941067,North America,Greenland,Greenland,2013-09-01,
82019,Larus hyperboreus leuceretes,subspecies,Glaucous Gull ssp leuceretes,1,-23.6535644531,70.3796985484,North America,Greenland,Greenland,2013-09-01,
82020,Stercorarius pomarinus,species,Pomarine Jaeger,1,-23.6535644531,70.3796985484,North America,Greenland,Greenland,2013-09-01,
82023,Fulmarus glacialis glacialis,subspecies,Northern Fulmar ssp glacialis,1,-23.6535644531,70.3796985484,North America,Greenland,Greenland,2013-09-01,
82024,Rissa tridactyla,species,Black-legged Kittiwake,1,-23.6535644531,70.3796985484,North America,Greenland,Greenland,2013-09-01,
82025,Rissa tridactyla,species,Black-legged Kittiwake,1,-21.1706542969,70.6472305086,North America,Greenland,Greenland,2013-09-01,
82026,Stercorarius pomarinus,species,Pomarine Jaeger,3,-21.1706542969,70.6472305086,North America,Greenland,Greenland,2013-09-01,
82027,Fulmarus glacialis glacialis,subspecies,Northern Fulmar ssp glacialis,1,-21.1706542969,70.6472305086,North America,Greenland,Greenland,2013-09-01,
82029,Stercorarius pomarinus,species,Pomarine Jaeger,1,-21.1706542969,70.6472305086,North America,Greenland,Greenland,2013-09-01,
114559,Branta leucopsis,species,Barnacle Goose,1,-24.0696716309,72.530603441,North America,Greenland,Greenland,2013-08-31,
114562,Ovibos moschatus,species,Muskox,5,-24.0696716309,72.530603441,North America,Greenland,Greenland,2013-08-31,
114565,Honckenya peploides var. diffusa,variety,,1,-24.0696716309,72.530603441,North America,Greenland,Greenland,2013-08-31,
114567,Cassiope tetragona,species,White arctic mountain heather,1,-24.0696716309,72.530603441,North America,Greenland,Greenland,2013-08-31,
114574,Eriophorum scheuchzeri,species,White cottongrass,1,-24.0696716309,72.530603441,North America,Greenland,Greenland,2013-08-31,
114580,Saxifraga oppositifolia,species,Purple Saxifrage,1,-24.0696716309,72.530603441,North America,Greenland,Greenland,2013-08-31,
114582,Oxyria digyna,species,Mountain Sorrel,1,-24.0696716309,72.530603441,North America,Greenland,Greenland,2013-08-31,
114584,Saxifraga aizoides,species,Yellow Saxifrage,1,-24.0696716309,72.530603441,North America,Greenland,Greenland,2013-08-31,
114604,Silene acaulis,species,Moss Campion,1,-24.0696716309,72.530603441,North America,Greenland,Greenland,2013-08-31,
118811,Lesquerella arctica,species,,1,-24.4830322266,72.9357621983,North America,Greenland,Greenland,2013-08-30,
118824,Arctous alpina,species,Alpine bearberry,1,-24.4830322266,72.9357621983,North America,Greenland,Greenland,2013-08-30,
118832,Betula nana,species,Dwarf Birch,1,-24.4830322266,72.9357621983,North America,Greenland,Greenland,2013-08-30,
118839,Dryas octopetala,species,Mountain Avens,1,-24.4830322266,72.9357621983,North America,Greenland,Greenland,2013-08-30,
118851,Cassiope tetragona,species,White arctic mountain heather,1,-24.4830322266,72.9357621983,North America,Greenland,Greenland,2013-08-30,
118867,Saxifraga aizoides,species,Yellow Saxifrage,1,-24.4830322266,72.9357621983,North America,Greenland,Greenland,2013-08-30,
118880,Lepus arcticus,species,Arctic Hare,5,-24.4830322266,72.9357621983,North America,Greenland,Greenland,2013-08-30,
119549,Silene acaulis,species,Moss Campion,1,-25.1696777344,73.3215531,North America,Greenland,Greenland,2013-08-30,
119557,Eriophorum scheuchzeri,species,White cottongrass,1,-25.1696777344,73.3215531,North America,Greenland,Greenland,2013-08-30,
119570,Arctous alpina,species,Alpine bearberry,1,-25.1696777344,73.3215531,North America,Greenland,Greenland,2013-08-30,
119577,Polygonum viviparum,synonym,,1,-25.1696777344,73.3215531,North America,Greenland,Greenland,2013-08-30,
119584,Lesquerella arctica,species,,1,-25.1696777344,73.3215531,North America,Greenland,Greenland,2013-08-30,
119600,Cassiope tetragona,species,White arctic mountain heather,1,-25.1696777344,73.3215531,North America,Greenland,Greenland,2013-08-30,
119606,Saxifraga oppositifolia,species,Purple Saxifrage,1,-25.1696777344,73.3215531,North America,Greenland,Greenland,2013-08-30,
119617,Epilobium latifolium,species,,1,-25.1696777344,73.3215531,North America,Greenland,Greenland,2013-08-30,
119631,Dryas octopetala,species,Mountain Avens,1,-25.1696777344,73.3215531,North America,Greenland,Greenland,2013-08-30,
119768,Saxifraga aizoides,species,Yellow Saxifrage,1,-25.1696777344,73.3215531,North America,Greenland,Greenland,2013-08-30,
119775,Tofieldia pusilla,species,Scottish Asphodel,1,-25.1696777344,73.3215531,North America,Greenland,Greenland,2013-08-30,
119780,Saxifraga aizoides,species,Yellow Saxifrage,1,-25.1696777344,73.3215531,North America,Greenland,Greenland,2013-08-30,
119787,Betula nana,species,Dwarf Birch,1,-25.1696777344,73.3215531,North America,Greenland,Greenland,2013-08-30,
119793,Plectrophenax nivalis nivalis,subspecies,Snow Bunting ssp nivalis,1,-25.1696777344,73.3215531,North America,Greenland,Greenland,2013-08-30,
119796,Acanthis hornemanni hornemanni,subspecies,Arctic Redpoll ssp hornemanni,1,-25.1696777344,73.3215531,North America,Greenland,Greenland,2013-08-30,
119803,Ovibos moschatus,species,Muskox,1,-25.1696777344,73.3215531,North America,Greenland,Greenland,2013-08-30,
119816,Ovibos moschatus,species,Muskox,1,-25.1696777344,73.3215531,North America,Greenland,Greenland,2013-08-30,
119818,Lepus arcticus,species,Arctic Hare,2,-25.1696777344,73.3215531,North America,Greenland,Greenland,2013-08-30,
119821,Lepus arcticus,species,Arctic Hare,1,-25.1696777344,73.3215531,North America,Greenland,Greenland,2013-08-30,
5955,Trisetum spicatum,species,Spike trisetum,1,-20.1691818237,74.2844934246,North America,Greenland,Greenland,2013-08-29,
5962,Huperzia selago subsp. arctica,subspecies,,1,-20.1691818237,74.2844934246,North America,Greenland,Greenland,2013-08-29,
5971,Cassiope tetragona,species,White arctic mountain heather,1,-20.1691818237,74.2844934246,North America,Greenland,Greenland,2013-08-29,
6006,Silene spec.,multispecies,,1,-20.1691818237,74.2844934246,North America,Greenland,Greenland,2013-08-29,
6011,Silene uralensis subsp. arctica,subspecies,,1,-20.1691818237,74.2844934246,North America,Greenland,Greenland,2013-08-29,
6021,Papaver radicatum,species,,1,-20.1691818237,74.2844934246,North America,Greenland,Greenland,2013-08-29,
6043,Eriophorum scheuchzeri,species,White cottongrass,1,-20.1691818237,74.2844934246,North America,Greenland,Greenland,2013-08-29,
6051,Papaver radicatum,species,,1,-20.1691818237,74.2844934246,North America,Greenland,Greenland,2013-08-29,
6054,Oxyria digyna,species,Mountain Sorrel,1,-20.1691818237,74.2844934246,North America,Greenland,Greenland,2013-08-29,
6067,Stellaria longipes,species,Longstalk starwort,1,-20.1691818237,74.2844934246,North America,Greenland,Greenland,2013-08-29,
6123,Saxifraga cernua,species,Drooping Saxifrage,1,-20.1691818237,74.2844934246,North America,Greenland,Greenland,2013-08-29,
6145,Polygonum viviparum,synonym,,1,-20.1691818237,74.2844934246,North America,Greenland,Greenland,2013-08-29,
6181,Festuca vivipara,species,Viviparous Sheep's-fescue,1,-20.1691818237,74.2844934246,North America,Greenland,Greenland,2013-08-29,
20148,Fulmarus glacialis glacialis,subspecies,Northern Fulmar ssp glacialis,1,-20.0411224365,74.1879581154,North America,Greenland,Greenland,2013-08-29,
20152,Stercorarius pomarinus,species,Pomarine Jaeger,1,-20.0411224365,74.1879581154,North America,Greenland,Greenland,2013-08-29,
20156,Anser brachyrhynchus,species,Pink-footed Goose,1,-20.0411224365,74.1879581154,North America,Greenland,Greenland,2013-08-29,
20164,Oenanthe oenanthe leucorhoa,subspecies,Greenland Northern Wheatear,1,-20.172958374,74.283470472,North America,Greenland,Greenland,2013-08-29,
20173,Corvus corax principalis,subspecies,Northern Raven ssp principalis,1,-20.172958374,74.283470472,North America,Greenland,Greenland,2013-08-29,
20206,Odobenus rosmarus,species,Walrus,9,-20.1564788818,74.2648600121,North America,Greenland,Greenland,2013-08-29,
20217,Somateria mollissima borealis,subspecies,Common Eider ssp borealis,1,-20.1564788818,74.2648600121,North America,Greenland,Greenland,2013-08-29,
20237,Ovibos moschatus,species,Muskox,3,-20.0950241089,74.2831914737,North America,Greenland,Greenland,2013-08-29,
43101,Alle alle alle,subspecies,Little Auk ssp alle,1,-14.23828125,75.7373027894,North America,Greenland,Greenland,2013-08-28,
43115,Fulmarus glacialis glacialis,subspecies,Northern Fulmar ssp glacialis,1,-14.23828125,75.7373027894,North America,Greenland,Greenland,2013-08-28,
44957,Rissa tridactyla,species,Black-legged Kittiwake,1,-8.26171875,77.7675823827,North America,Greenland,Greenland,2013-08-27,
44960,Fulmarus glacialis glacialis,subspecies,Northern Fulmar ssp glacialis,1,-8.26171875,77.7675823827,North America,Greenland,Greenland,2013-08-27,
44963,Uria lomvia lomvia,subspecies,Thick-billed Murre ssp lomvia,1,-8.26171875,77.7675823827,North America,Greenland,Greenland,2013-08-27,
9081,Cystophora cristata,species,Hooded Seal,1,-20.21484375,70.815812159313,North America,Greenland,Greenland,2005-09-05,
34998,Pusa hispida,species,Ringed Seal,1,-28.0632019043,70.5047417488,North America,Greenland,Greenland,2005-09-17,
45183,Orcinus orca,species,Killer Whale,1,-11.25,68.3991800434,North America,Greenland,Greenland,1985-07-12,
109412,Balaenoptera borealis,species,Sei Whale,1,-54.2601013184,69.3435260486,North America,Greenland,Greenland,1982-07-01,
109414,Orcinus orca,species,Killer Whale,1,-54.2601013184,69.3435260486,North America,Greenland,Greenland,1982-07-01,
19183,Balaenoptera physalus physalus,subspecies,Northern Fin Whale,1,-11.42578125,69.7181066991,North America,Greenland,Greenland,2004-06-07,
19185,Hyperoodon ampullatus,species,North Atlantic Bottlenose Whale,25,-11.42578125,69.7181066991,North America,Greenland,Greenland,2004-06-07,
107867,Ovibos moschatus,species,Muskox,5,-20.57899418,74.48759573,North America,Greenland,Greenland,2019-07-29,
108680,Ranunculus nivalis,species,Snowy buttercup,1,-20.49282017,74.48489483,North America,Greenland,Greenland,2019-07-21,
39079,Larus glaucoides,species,Iceland Gull,6,-43.293025970459,60.0776596069336,North America,Greenland,Greenland - Kujalleq,2019-08-25,09:51
39080,Corvus corax,species,Northern Raven,1,-46.0684547424316,60.6943168640137,North America,Greenland,Greenland - Kujalleq,2019-08-26,06:48
39081,Oenanthe oenanthe,species,Northern Wheatear,5,-46.0416412353516,60.7220191955566,North America,Greenland,Greenland - Kujalleq,2019-08-26,10:34
39082,Plectrophenax nivalis,species,Snow Bunting,12,-46.0416412353516,60.7220191955566,North America,Greenland,Greenland - Kujalleq,2019-08-26,10:50
39083,Haliaeetus albicilla,species,White-tailed Eagle,2,-46.031494140625,60.7087936401367,North America,Greenland,Greenland - Kujalleq,2019-08-26,15:23
39084,Pagophilus groenlandicus,species,Harp Seal,26,-49.69548416,61.97932816,North America,Greenland,Greenland - Paamiut,2019-08-27,11:21
39085,Calcarius lapponicus,species,Lapland Longspur,1,-49.6656913757324,61.9950256347656,North America,Greenland,Greenland - Paamiut,2019-08-27,14:18
39086,Oenanthe oenanthe,species,Northern Wheatear,7,-49.660083770752,61.9923362731934,North America,Greenland,Greenland - Paamiut,2019-08-27,14:41
39087,Charadrius hiaticula,species,Common Ringed Plover,1,-45.2486190795898,60.1389579772949,North America,Greenland,Greenland - Kujalleq,2019-08-28,11:21
39088,Larus glaucoides,species,Iceland Gull,1,-44.4693145751953,60.1208992004395,North America,Greenland,Greenland - Kujalleq,2019-08-29,07:46
99993,Calcarius lapponicus,species,Lapland Longspur,1,-51.09430518937399,69.22756237915645,North America,Greenland,Greenland,2019-07-10,20:38
99994,Phalaropus lobatus,species,Red-necked Phalarope,1,-51.10294493812434,69.21481094724695,North America,Greenland,Greenland,2019-07-10,13:57
108609,Calidris alpina,species,Dunlin,1,-20.5223743524402,74.483230705373,North America,Greenland,Greenland,2019-07-17,12:39
108610,Arenaria interpres,species,Ruddy Turnstone,3,-20.48661933,74.47982531,North America,Greenland,Greenland,2019-07-17,17:21
108611,Calidris alpina,species,Dunlin,2,-20.4916785657406,74.4787347363308,North America,Greenland,Greenland,2019-07-17,17:31
108612,Calidris alpina,species,Dunlin,2,-20.5620887316763,74.4694719370455,North America,Greenland,Greenland,2019-07-18,08:58
108614,Calidris alpina,species,Dunlin,1,-20.6214056164026,74.4662291044369,North America,Greenland,Greenland,2019-07-19,10:33
108615,Calidris alpina,species,Dunlin,1,-20.6202978640795,74.4664347014827,North America,Greenland,Greenland,2019-07-19,10:33
108616,Calidris alpina,species,Dunlin,1,-20.55516838,74.4774878,North America,Greenland,Greenland,2019-07-19,13:04
108617,Arenaria interpres,species,Ruddy Turnstone,1,-20.5281901359558,74.487475049682,North America,Greenland,Greenland,2019-07-19,13:47
108618,Arenaria interpres,species,Ruddy Turnstone,2,-20.5609410814941,74.4972032960504,North America,Greenland,Greenland,2019-07-19,15:37
108619,Calidris alpina,species,Dunlin,1,-20.4787351470441,74.49886190705,North America,Greenland,Greenland,2019-07-19,17:02
108620,Arenaria interpres,species,Ruddy Turnstone,1,-20.4984438512474,74.4804958580062,North America,Greenland,Greenland,2019-07-19,23:25
108621,Ovibos moschatus,species,Muskox,6,-20.5790015682578,74.4704354171575,North America,Greenland,Greenland,2019-07-20,09:59
108622,Calidris alpina,species,Dunlin,1,-20.607840931043,74.4735258445144,North America,Greenland,Greenland,2019-07-21,14:52
108623,Calidris alpina,species,Dunlin,2,-20.5949748773128,74.4763979455456,North America,Greenland,Greenland,2019-07-21,15:02
108625,Calidris alpina,species,Dunlin,3,-20.5506211984903,74.4858421292156,North America,Greenland,Greenland,2019-07-21,15:59
108626,Arenaria interpres,species,Ruddy Turnstone,1,-20.5350349657238,74.4966403255239,North America,Greenland,Greenland,2019-07-21,18:14
108627,Calidris alpina,species,Dunlin,1,-20.5221795570105,74.4826772063971,North America,Greenland,Greenland,2019-07-22,10:12
108628,Ovibos moschatus,species,Muskox,5,-20.5733669176698,74.4771132571623,North America,Greenland,Greenland,2019-07-23,09:49
108629,Ovibos moschatus,species,Muskox,8,-20.5879474058747,74.4752672268078,North America,Greenland,Greenland,2019-07-23,09:56
108630,Calidris alpina,species,Dunlin,1,-20.5951265897602,74.4743651244789,North America,Greenland,Greenland,2019-07-23,11:28
108631,Ovibos moschatus,species,Muskox,4,-20.5675974860787,74.4787664230924,North America,Greenland,Greenland,2019-07-23,11:48
108632,Calidris alpina,species,Dunlin,1,-20.5707504227757,74.4852465949953,North America,Greenland,Greenland,2019-07-23,12:18
108633,Calidris alpina,species,Dunlin,1,-20.5858748126775,74.4936075434089,North America,Greenland,Greenland,2019-07-23,13:56
108634,Calidris alpina,species,Dunlin,1,-20.5827191937715,74.4926645793021,North America,Greenland,Greenland,2019-07-23,14:16
108635,Calidris alpina,species,Dunlin,1,-20.5605691764504,74.480912941508,North America,Greenland,Greenland,2019-07-23,15:41
108636,Calidris alpina,species,Dunlin,1,-20.5807036813349,74.4731963099912,North America,Greenland,Greenland,2019-07-24,10:18
108637,Calidris alpina,species,Dunlin,1,-20.6049121264368,74.4735239166766,North America,Greenland,Greenland,2019-07-24,11:52
108638,Ovibos moschatus,species,Muskox,6,-20.6057214830071,74.4735067337751,North America,Greenland,Greenland,2019-07-24,11:52
108639,Arenaria interpres,species,Ruddy Turnstone,2,-20.5853150691837,74.4931876519695,North America,Greenland,Greenland,2019-07-24,14:56
108640,Calidris alpina,species,Dunlin,2,-20.4712678771466,74.4837570050731,North America,Greenland,Greenland,2019-07-24,17:29
108641,Arenaria interpres,species,Ruddy Turnstone,2,-20.4708629474044,74.4835652271286,North America,Greenland,Greenland,2019-07-25,12:09
108642,Calidris alpina,species,Dunlin,1,-20.471131503582,74.4858964020386,North America,Greenland,Greenland,2019-07-25,12:27
108643,Calidris alpina,species,Dunlin,1,-20.4711445793509,74.4876135187224,North America,Greenland,Greenland,2019-07-25,13:24
108644,Calidris alpina,species,Dunlin,1,-20.4711445793509,74.4876135187224,North America,Greenland,Greenland,2019-07-25,13:28
108645,Calidris alpina,species,Dunlin,1,-20.5418684799224,74.4973902963102,North America,Greenland,Greenland,2019-07-25,21:30
108646,Vulpes lagopus,species,Arctic Fox,1,-20.6210241559893,74.4663488818333,North America,Greenland,Greenland,2019-07-27,13:55
108647,Arenaria interpres,species,Ruddy Turnstone,1,-20.5376212857664,74.4896472617984,North America,Greenland,Greenland,2019-07-27,16:06
108648,Calidris alpina,species,Dunlin,1,-20.5382920894772,74.489286756143,North America,Greenland,Greenland,2019-07-27,16:16
108650,Arenaria interpres,species,Ruddy Turnstone,1,-20.5752536840737,74.4695386989042,North America,Greenland,Greenland,2019-07-28,22:40
108651,Vulpes lagopus,species,Arctic Fox,1,-20.5752536840737,74.4695386989042,North America,Greenland,Greenland,2019-07-28,22:40
108652,Arenaria interpres,species,Ruddy Turnstone,5,-20.5733599606901,74.4695811951533,North America,Greenland,Greenland,2019-07-29,10:22
108653,Calidris alpina,species,Dunlin,1,-20.5659946985543,74.4849187368527,North America,Greenland,Greenland,2019-07-29,15:29
108654,Calidris alpina,species,Dunlin,1,-20.5576889868826,74.4795839488506,North America,Greenland,Greenland,2019-07-29,15:39
108655,Arenaria interpres,species,Ruddy Turnstone,2,-20.5775414407253,74.4636606378481,North America,Greenland,Greenland,2019-07-30,09:13
108656,Calidris alpina,species,Dunlin,1,-20.5740108154714,74.4617065647617,North America,Greenland,Greenland,2019-07-30,09:14
108657,Calidris alpina,species,Dunlin,1,-20.5702247936279,74.4599590217695,North America,Greenland,Greenland,2019-07-30,09:22
108658,Calidris alpina,species,Dunlin,7,-20.5823746137321,74.4609649758786,North America,Greenland,Greenland,2019-07-30,16:10
108060,Balaena mysticetus,species,Bowhead Whale,1,-20.08442228,75.29152676,North America,Greenland,Greenland,2017-08-01,
108318,Ovibos moschatus,species,Muskox,2,-20.59010582,74.47183564,North America,Greenland,Greenland,2017-07-12,
108339,Ursus maritimus,species,Polar Bear,1,-23.90488701,72.23263551,North America,Greenland,Greenland,2017-07-09,
77363,Ovibos moschatus,species,Muskox,4,-27.8415798582396,70.7990635699321,North America,Greenland,Greenland,2018-09-21,14:25
63239,Calcarius lapponicus,species,Lapland Longspur,1,-50.703525,67.0191533333333,North America,Greenland,Greenland,2018-08-06,09:34
63240,Plectrophenax nivalis,species,Snow Bunting,5,-51.14281,69.2056716666667,North America,Greenland,Greenland,2018-08-06,14:44
63241,Calcarius lapponicus,species,Lapland Longspur,1,-51.14021,69.2053766666667,North America,Greenland,Greenland,2018-08-06,14:48
63242,Megaptera novaeangliae,species,Humpback Whale,3,-51.12918,69.20527,North America,Greenland,Greenland,2018-08-06,15:02
63243,Calcarius lapponicus,species,Lapland Longspur,1,-51.103945,69.2141833333333,North America,Greenland,Greenland,2018-08-06,15:44
63244,Megaptera novaeangliae,species,Humpback Whale,4,-51.1443116666667,69.1999316666667,North America,Greenland,Greenland,2018-08-07,09:15
63245,Megaptera novaeangliae,species,Humpback Whale,1,-51.2367416666667,69.19962,North America,Greenland,Greenland,2018-08-07,09:56
63246,Megaptera novaeangliae,species,Humpback Whale,2,-51.227625,69.187435,North America,Greenland,Greenland,2018-08-07,10:11
63247,Cepphus grylle,species,Black Guillemot,1,-51.1159916666667,69.0807383333333,North America,Greenland,Greenland - Qasigiannguit,2018-08-07,11:59
63248,Stercorarius parasiticus,species,Parasitic Jaeger,10,-51.1159633333333,69.0807783333333,North America,Greenland,Greenland - Qasigiannguit,2018-08-07,12:01
63249,Balaenoptera physalus,species,Fin Whale,3,-51.15536667,69.051465,North America,Greenland,Greenland - Qasigiannguit,2018-08-07,13:55
63250,Falco rusticolus ,variety,Gyrfalcon white morph,1,-51.11976363,69.08835479,North America,Greenland,Greenland - Qasigiannguit,2018-08-07,14:33
63251,Megaptera novaeangliae,species,Humpback Whale,4,-51.162065,69.20481,North America,Greenland,Greenland,2018-08-07,16:38
63252,Gavia immer,species,Common Loon,1,-51.0122266666667,69.34771,North America,Greenland,Greenland,2018-08-08,09:55
63253,Calcarius lapponicus,species,Lapland Longspur,5,-51.0064983333333,69.342125,North America,Greenland,Greenland,2018-08-08,11:12
63254,Plectrophenax nivalis,species,Snow Bunting,10,-51.0065116666667,69.34207,North America,Greenland,Greenland,2018-08-08,11:12
63255,Gavia immer,species,Common Loon,1,-51.0015866666667,69.3385933333333,North America,Greenland,Greenland,2018-08-08,14:34
63256,Larus hyperboreus,species,Glaucous Gull,50,-51.002065,69.3408766666667,North America,Greenland,Greenland,2018-08-08,15:22
63258,Calcarius lapponicus,species,Lapland Longspur,2,-50.9967416666667,69.32531,North America,Greenland,Greenland,2018-08-09,10:29
63259,Plectrophenax nivalis,species,Snow Bunting,10,-50.9748,69.3134783333333,North America,Greenland,Greenland,2018-08-09,11:08
63260,Calcarius lapponicus,species,Lapland Longspur,15,-50.9747983333333,69.3134783333333,North America,Greenland,Greenland,2018-08-09,11:08
63261,Gavia immer,species,Common Loon,1,-50.9079433333333,69.2890216666667,North America,Greenland,Greenland,2018-08-09,12:48
63262,Larus hyperboreus,species,Glaucous Gull,20,-50.9315733333333,69.2686033333334,North America,Greenland,Greenland,2018-08-09,14:11
63263,Calcarius lapponicus,species,Lapland Longspur,4,-51.0206866666667,69.2579616666667,North America,Greenland,Greenland,2018-08-09,16:15
63264,Megaptera novaeangliae,species,Humpback Whale,3,-51.11752,69.2038266666667,North America,Greenland,Greenland,2018-08-10,10:01
63265,Calcarius lapponicus,species,Lapland Longspur,2,-51.1261816666667,69.20171,North America,Greenland,Greenland,2018-08-10,10:24
63266,Phalaropus lobatus,species,Red-necked Phalarope,2,-51.10919941,69.20776624,North America,Greenland,Greenland,2018-08-10,12:06
63267,Calcarius lapponicus,species,Lapland Longspur,15,-51.1050433333333,69.21456,North America,Greenland,Greenland,2018-08-10,12:34
63268,Plectrophenax nivalis,species,Snow Bunting,4,-51.1081766666667,69.2200983333333,North America,Greenland,Greenland,2018-08-10,12:58
63269,Megaptera novaeangliae,species,Humpback Whale,5,-51.14893,69.2024016666667,North America,Greenland,Greenland,2018-08-10,20:51
63270,Megaptera novaeangliae,species,Humpback Whale,2,-51.2232383333333,69.2042166666667,North America,Greenland,Greenland,2018-08-10,21:11
114656,Larus glaucoides,species,Iceland Gull,2,-37.1505059302199,65.5799832568183,North America,Greenland,Greenland,2018-08-14,10:23
114657,Larus hyperboreus,species,Glaucous Gull,1,-37.1506190859127,65.5799804488808,North America,Greenland,Greenland,2018-08-14,10:23
114658,Arenaria interpres,species,Ruddy Turnstone,1,-37.14405773211,65.5810055556387,North America,Greenland,Greenland,2018-08-14,09:59
114659,Charadrius hiaticula,species,Common Ringed Plover,10,-37.14405773211,65.5810055556387,North America,Greenland,Greenland,2018-08-14,09:59
4665,Larus hyperboreus,species,Glaucous Gull,1,-37.1497667301792,65.5792433862254,North America,Greenland,Greenland,2018-08-13,13:03
87541,Epilobium latifolium,species,,2,-45.40715097,61.16485744,North America,Greenland,Greenland - Kujalleq,2018-06-29,17:45
87542,Platanthera hyperborea,species,,1,-45.37,61.18,North America,Greenland,Greenland - Kujalleq,2018-07-01,14:55
65408,Ovibos moschatus,species,Muskox,7,-27.91406386,70.69739971,North America,Greenland,Greenland,2017-09-07,07:56
87041,Larus hyperboreus,species,Glaucous Gull,1,-36.99673651,65.56901708,North America,Greenland,Greenland,2017-08-06,15:54
92944,Larus hyperboreus,species,Glaucous Gull,1,-37.15438598,65.54641459,North America,Greenland,Greenland,2017-07-31,19:00
92945,Larus hyperboreus,species,Glaucous Gull,3,-37.2185236,65.53594876,North America,Greenland,Greenland,2017-08-04,15:44
92946,Larus hyperboreus,species,Glaucous Gull,1,-37.14290724,65.58154613,North America,Greenland,Greenland,2017-08-05,10:37
68938,Larus hyperboreus,species,Glaucous Gull,1,-37.17719874,65.57431473,North America,Greenland,Greenland,2017-07-27,11:15
68939,Larus hyperboreus,species,Glaucous Gull,2,-37.19146906,65.57453922,North America,Greenland,Greenland,2017-07-29,19:39
99528,Gavia immer,species,Common Loon,5,-25.616,71.0704,North America,Greenland,Greenland,2016-09-18,11:26
99529,Ovibos moschatus,species,Muskox,12,-27.9077,70.7274,North America,Greenland,Greenland,2016-09-17,13:46
108608,Ovibos moschatus,species,Muskox,12,-27.969360358547,70.764278134681,North America,Greenland,Greenland,2016-09-17,14:03
108609,Gavia immer,species,Common Loon,5,-25.65325333,71.09080333,North America,Greenland,Greenland,2016-09-18,12:00
11426,Ovibos moschatus,species,Muskox,1,-48.08,61.25,North America,Greenland,Greenland,2007-07-08,
11431,Ovibos moschatus,species,Muskox,30,-48.01,61.24,North America,Greenland,Greenland,2007-07-08,
11441,Ovibos moschatus,species,Muskox,20,-47.98,61.24,North America,Greenland,Greenland,2007-07-07,
11454,Ovibos moschatus,species,Muskox,25,-48.02,61.1,North America,Greenland,Greenland,2007-07-03,
11460,Ovibos moschatus,species,Muskox,10,-47.99,61.09,North America,Greenland,Greenland,2007-07-03,
11477,Ovibos moschatus,species,Muskox,3,-47.91,61.11,North America,Greenland,Greenland,2007-07-01,
11564,Megaptera novaeangliae,species,Humpback Whale,20,-52.857735157,65.4011538242,North America,Greenland,Greenland,2009-07-04,
11574,Megaptera novaeangliae,species,Humpback Whale,30,-52.86,65.4,North America,Greenland,Greenland,2009-06-23,
11590,Megaptera novaeangliae,species,Humpback Whale,1,-53.61,66.91,North America,Greenland,Greenland,2009-06-20,
115806,Oxyria digyna,species,Mountain Sorrel,1,-21.9754042239945,70.4837911032155,North America,Greenland,Greenland,2015-08-26,22:01
