,scientificName,taxonRank,vernacularName,individualCount,longitudeDecimal,latitudeDecimal,continent,country,locality,eventDate,eventTime
89070,Fregata magnificens,species,Magnificent Frigatebird,1,-77.7655049879,17.8834517578,North America,Jamaica,Jamaica - Saint Elizabeth,2014-08-23,10:36
89201,Cathartes aura,species,Turkey Vulture,1,-77.923706118,18.4810895226,North America,Jamaica,Jamaica - Saint James,2014-08-22,08:29
9798,Egretta caerulea,species,Little Blue Heron,1,-77.6438355446,18.4558371604,North America,Jamaica,Jamaica - Trelawny,2013-02-25,11:53
46110,Egretta thula,species,Snowy Egret,1,-77.9233270884,18.4750426856,North America,Jamaica,Jamaica - Saint James,2014-02-25,17:31
46116,Fregata magnificens,species,Magnificent Frigatebird,2,-77.8700315952,18.5207339749,North America,Jamaica,Jamaica,2014-02-25,15:22
46379,Nyctanassa violacea,species,Yellow-crowned Night Heron,1,-77.1675261855,18.4340798365,North America,Jamaica,Jamaica - Saint Ann,2014-02-23,19:30
46552,Trochilus polytmus,species,Red-billed Streamertail,2,-76.9534000754,18.3503275282,North America,Jamaica,Jamaica - Saint Mary,2014-02-23,09:45
46569,Anthracothorax mango,species,Jamaican Mango,1,-76.9534000754,18.3503275282,North America,Jamaica,Jamaica - Saint Mary,2014-02-23,08:45
46641,Columbina passerina jamaicensis,subspecies,Common Ground Dove ssp jamaicensis,2,-76.9536548853,18.3502791577,North America,Jamaica,Jamaica - Saint Mary,2014-02-23,07:08
46656,Setophaga ruticilla,species,American Redstart,1,-76.9536548853,18.3502791577,North America,Jamaica,Jamaica - Saint Mary,2014-02-23,06:56
46722,Tyrannus caudifasciatus,species,Loggerhead Kingbird,1,-76.9538506866,18.3501849624,North America,Jamaica,Jamaica - Saint Mary,2014-02-22,17:30
7152,Pardirallus maculatus,species,Spotted Rail,1,-77.71881457,18.09755144,North America,Jamaica,Jamaica - Saint Elizabeth,2014-03-15,18:23
7153,Tyto furcata,species,American Barn Owl,1,-77.71876109,18.09796559,North America,Jamaica,Jamaica - Saint Elizabeth,2014-03-15,18:26
19410,Geotrygon versicolor,species,Crested Quail-Dove,1,-77.44799121,18.37643341,North America,Jamaica,Jamaica - Trelawny,2014-03-15,08:31
20686,Geotrygon versicolor,species,Crested Quail-Dove,1,-77.4479174427688,18.3763941982761,North America,Jamaica,Jamaica - Trelawny,2014-03-15,08:31
20687,Porphyrio martinica,species,Purple Gallinule,1,-77.7200293075293,18.0894638411701,North America,Jamaica,Jamaica - Saint Elizabeth,2014-03-15,16:14
20688,Pardirallus maculatus,species,Spotted Rail,2,-77.7171954698861,18.0957926390693,North America,Jamaica,Jamaica - Saint Elizabeth,2014-03-15,17:52
20689,Tyto furcata,species,American Barn Owl,2,-77.7188442740589,18.0974135315046,North America,Jamaica,Jamaica - Saint Elizabeth,2014-03-15,18:12
25565,Patagioenas leucocephala,species,White-crowned Pigeon,2,-76.9536924362,18.3501773249,North America,Jamaica,Jamaica - Saint Mary,2014-02-23,17:00
25631,Quiscalus niger,species,Greater Antillean Grackle,2,-76.9536924362,18.3501773249,North America,Jamaica,Jamaica - Saint Mary,2014-02-23,17:00
25896,Trochilus polytmus,species,Red-billed Streamertail,4,-77.8243589401,18.1545175251,North America,Jamaica,Jamaica - Saint Elizabeth,2014-02-20,11:00
25924,Bubulcus ibis,species,Western Cattle Egret,25,-77.8292512894,18.1481558845,North America,Jamaica,Jamaica - Saint Elizabeth,2014-02-20,11:00
25994,Anthracothorax mango,species,Jamaican Mango,2,-77.8280925751,18.1403513442,North America,Jamaica,Jamaica - Saint Elizabeth,2014-02-20,11:00
27178,Butorides virescens,species,Green Heron,1,-77.923925221,18.4680262653,North America,Jamaica,Jamaica - Saint James,2014-02-25,18:00
36403,Eupsittula nana nana,subspecies,Olive-throated Parakeet ssp nana,3,-77.60892781,18.48140925,North America,Jamaica,Jamaica - Trelawny,2014-03-14,06:41
36404,Eupsittula nana nana,subspecies,Olive-throated Parakeet ssp nana,12,-77.61000446,18.47953249,North America,Jamaica,Jamaica - Trelawny,2014-03-14,06:51
36405,Trochilus polytmus,species,Red-billed Streamertail,1,-77.6108124,18.47810539,North America,Jamaica,Jamaica - Trelawny,2014-03-14,07:06
36406,Myiarchus barbirostris,species,Sad Flycatcher,1,-77.61171253,18.47435956,North America,Jamaica,Jamaica - Trelawny,2014-03-14,07:27
39397,Egretta thula,species,Snowy Egret,2,-77.9419871822,18.4580806396,North America,Jamaica,Jamaica - Saint James,2014-03-13,18:20
39398,Fregata magnificens,species,Magnificent Frigatebird,1,-77.92657153,18.4709509,North America,Jamaica,Jamaica,2014-03-13,17:11
39399,Fregata magnificens,species,Magnificent Frigatebird,2,-77.92875867,18.46974762,North America,Jamaica,Jamaica,2014-03-13,17:21
67766,Tyto furcata,species,American Barn Owl,1,-77.5231491805,18.4210007946,North America,Jamaica,Jamaica - Trelawny,2014-03-10,18:48
78794,Egretta caerulea,species,Little Blue Heron,1,-77.71197122,18.50267981,North America,Jamaica,Jamaica - Trelawny,2014-03-09,15:24
78795,Egretta caerulea,species,Little Blue Heron,3,-77.71605606,18.50598093,North America,Jamaica,Jamaica - Trelawny,2014-03-09,15:43
78796,Thalasseus acuflavidus,species,Cabot's Tern,1,-77.7147326,18.50611777,North America,Jamaica,Jamaica - Trelawny,2014-03-09,15:59
78797,Egretta caerulea,species,Little Blue Heron,1,-77.67302128,18.48971204,North America,Jamaica,Jamaica - Trelawny,2014-03-09,16:20
78798,Egretta caerulea,species,Little Blue Heron,1,-77.66307549,18.49633844,North America,Jamaica,Jamaica - Trelawny,2014-03-09,16:25
78799,Egretta caerulea,species,Little Blue Heron,1,-77.60166787,18.48462,North America,Jamaica,Jamaica - Trelawny,2014-03-09,16:51
78859,Egretta caerulea,species,Little Blue Heron,1,-77.71197122,18.50267981,North America,Jamaica,Jamaica - Trelawny,2014-03-09,15:24
78860,Egretta caerulea,species,Little Blue Heron,3,-77.71605606,18.50598093,North America,Jamaica,Jamaica - Trelawny,2014-03-09,15:43
78861,Thalasseus acuflavidus,species,Cabot's Tern,1,-77.7147326,18.50611777,North America,Jamaica,Jamaica - Trelawny,2014-03-09,15:59
78862,Egretta caerulea,species,Little Blue Heron,1,-77.67302128,18.48971204,North America,Jamaica,Jamaica - Trelawny,2014-03-09,16:20
78863,Egretta caerulea,species,Little Blue Heron,1,-77.66307549,18.49633844,North America,Jamaica,Jamaica - Trelawny,2014-03-09,16:25
78865,Egretta caerulea,species,Little Blue Heron,1,-77.60166787,18.48462,North America,Jamaica,Jamaica - Trelawny,2014-03-09,16:51
37187,Egretta tricolor,species,Tricolored Heron,1,-76.443772315979,18.174559256237,North America,Jamaica,Jamaica - Blue Mountain/John Crow Mountain NP,2003-03-05,
37263,Coereba flaveola,species,Bananaquit,1,-77.914566993713,18.465281184428,North America,Jamaica,Jamaica - Saint James,2003-03-03,
37385,Patagioenas leucocephala,species,White-crowned Pigeon,1,-77.914566993713,18.465281184428,North America,Jamaica,Jamaica - Saint James,2003-03-03,
37388,Cathartes aura,species,Turkey Vulture,1,-77.914566993713,18.465281184428,North America,Jamaica,Jamaica - Saint James,2003-03-03,
37389,Bubulcus ibis,species,Western Cattle Egret,1,-77.914566993713,18.465281184428,North America,Jamaica,Jamaica - Saint James,2003-03-03,
37431,Butorides virescens,species,Green Heron,1,-77.096871435642,18.40559599672,North America,Jamaica,Jamaica - Ocho Rios,2003-03-01,
37432,Egretta caerulea,species,Little Blue Heron,1,-77.096871435642,18.40559599672,North America,Jamaica,Jamaica - Ocho Rios,2003-03-01,
32301,Trochilus polytmus,species,Red-billed Streamertail,4,-76.626205444336,18.014650896221,North America,Jamaica,Jamaica - Blue Mountain/John Crow Mountain NP,2013-03-14,
32581,Trochilus scitulus,species,Black-billed Streamertail,3,-76.397552490234,18.152376614237,North America,Jamaica,Jamaica - Blue Mountain/John Crow Mountain NP,2013-03-14,
33388,Tyto furcata,species,American Barn Owl,1,-76.330261230469,18.074062447156,North America,Jamaica,Jamaica - Portland,2013-03-13,
40225,Trochilus polytmus,species,Red-billed Streamertail,4,-76.624145507812,18.021833578255,North America,Jamaica,Jamaica - Blue Mountain/John Crow Mountain NP,2013-03-12,
6149,Fregata magnificens,species,Magnificent Frigatebird,1,-77.85443086351779,18.36933800000014,North America,Jamaica,Jamaica - Saint James,2013-01-26,
6163,Eupsittula nana nana,subspecies,Olive-throated Parakeet ssp nana,1,-77.82001104639971,18.00999379822265,North America,Jamaica,Jamaica - Black River Lower Morass NP,2013-01-26,
6174,Nycticorax nycticorax hoactli,subspecies,Black-crowned Night Heron ssp hoactli,1,-77.82001104639971,18.00999379822265,North America,Jamaica,Jamaica - Black River Lower Morass NP,2013-01-25,
6178,Egretta thula brewsteri,subspecies,Snowy Egret ssp brewsteri,1,-77.82001104639971,18.00999379822265,North America,Jamaica,Jamaica - Black River Lower Morass NP,2013-01-25,
6179,Ardea alba egretta,subspecies,American Great Egret,1,-77.82001104639971,18.00999379822265,North America,Jamaica,Jamaica - Black River Lower Morass NP,2013-01-25,
6184,Falco sparverius,species,American Kestrel,1,-78.1574785174717,18.19237356160953,North America,Jamaica,Jamaica - Westmoreland,2013-01-25,
6185,Zenaida aurita zenaida,subspecies,Zenaida Dove ssp zenaida,1,-78.15528175717921,18.197961886992797,North America,Jamaica,Jamaica - Westmoreland,2013-01-25,
6187,Myiarchus validus,species,Rufous-tailed Flycatcher,1,-78.1574785174717,18.19237356160953,North America,Jamaica,Jamaica - Westmoreland,2013-01-25,
6192,Turdus aurantius,species,White-chinned Thrush,1,-78.1574785174717,18.19237356160953,North America,Jamaica,Jamaica - Westmoreland,2013-01-25,
6194,Quiscalus niger,species,Greater Antillean Grackle,1,-78.33646774292,18.355421632544,North America,Jamaica,Jamaica - Hanover,2013-01-25,
6195,Tyrannus caudifasciatus,species,Loggerhead Kingbird,1,-78.33646774292,18.355421632544,North America,Jamaica,Jamaica - Hanover,2013-01-25,
6197,Melanerpes radiolatus,species,Jamaican Woodpecker,1,-78.33646774292,18.355421632544,North America,Jamaica,Jamaica - Hanover,2013-01-25,
6199,Trochilus polytmus,species,Red-billed Streamertail,1,-78.33646774292,18.355421632544,North America,Jamaica,Jamaica - Hanover,2013-01-25,
6200,Anthracothorax mango,species,Jamaican Mango,1,-78.33646774292,18.355421632544,North America,Jamaica,Jamaica - Hanover,2013-01-25,
6202,Pelecanus occidentalis,species,Brown Pelican,1,-78.33646774292,18.355421632544,North America,Jamaica,Jamaica - Hanover,2013-01-25,
6203,Quiscalus niger,species,Greater Antillean Grackle,1,-78.33646774292,18.355421632544,North America,Jamaica,Jamaica - Hanover,2013-01-23,
6207,Tyrannus caudifasciatus,species,Loggerhead Kingbird,1,-78.33646774292,18.355421632544,North America,Jamaica,Jamaica - Hanover,2013-01-23,
6209,Trochilus polytmus,species,Red-billed Streamertail,1,-78.33646774292,18.355421632544,North America,Jamaica,Jamaica - Hanover,2013-01-23,
6211,Anthracothorax mango,species,Jamaican Mango,1,-78.33646774292,18.355421632544,North America,Jamaica,Jamaica - Hanover,2013-01-23,
6228,Pelecanus occidentalis,species,Brown Pelican,1,-78.33646774292,18.355421632544,North America,Jamaica,Jamaica - Hanover,2013-01-23,
6229,Quiscalus niger,species,Greater Antillean Grackle,1,-78.336639404297,18.353222097674,North America,Jamaica,Jamaica - Hanover,2013-01-23,
6232,Tyrannus caudifasciatus,species,Loggerhead Kingbird,1,-78.336639404297,18.353222097674,North America,Jamaica,Jamaica - Hanover,2013-01-23,
6234,Trochilus polytmus,species,Red-billed Streamertail,1,-78.336639404297,18.353222097674,North America,Jamaica,Jamaica - Hanover,2013-01-23,
6236,Anthracothorax mango,species,Jamaican Mango,1,-78.336639404297,18.353222097674,North America,Jamaica,Jamaica - Hanover,2013-01-23,
6250,Pelecanus occidentalis,species,Brown Pelican,1,-78.336639404297,18.353222097674,North America,Jamaica,Jamaica - Hanover,2013-01-23,
6252,Quiscalus niger,species,Greater Antillean Grackle,1,-78.336639404297,18.353222097674,North America,Jamaica,Jamaica - Hanover,2013-01-22,
6259,Tyrannus caudifasciatus,species,Loggerhead Kingbird,1,-78.336639404297,18.353222097674,North America,Jamaica,Jamaica - Hanover,2013-01-22,
6266,Trochilus polytmus,species,Red-billed Streamertail,1,-78.336639404297,18.353222097674,North America,Jamaica,Jamaica - Hanover,2013-01-22,
6269,Anthracothorax mango,species,Jamaican Mango,1,-78.336639404297,18.353222097674,North America,Jamaica,Jamaica - Hanover,2013-01-22,
6280,Pelecanus occidentalis,species,Brown Pelican,1,-78.336639404297,18.353222097674,North America,Jamaica,Jamaica - Hanover,2013-01-22,
6292,Quiscalus niger,species,Greater Antillean Grackle,1,-78.337669372559,18.354851385453,North America,Jamaica,Jamaica - Hanover,2013-01-21,
6297,Trochilus polytmus,species,Red-billed Streamertail,1,-78.337669372559,18.354851385453,North America,Jamaica,Jamaica - Hanover,2013-01-21,
6298,Anthracothorax mango,species,Jamaican Mango,1,-78.337669372559,18.354851385453,North America,Jamaica,Jamaica - Hanover,2013-01-21,
6317,Tyrannus caudifasciatus,species,Loggerhead Kingbird,1,-78.337326049805,18.355177241164,North America,Jamaica,Jamaica - Hanover,2013-01-21,
6325,Pelecanus occidentalis,species,Brown Pelican,1,-78.337326049805,18.355177241164,North America,Jamaica,Jamaica - Hanover,2013-01-21,
6329,Quiscalus niger,species,Greater Antillean Grackle,1,-78.337326049805,18.355177241164,North America,Jamaica,Jamaica - Hanover,2013-01-20,
6346,Tyrannus caudifasciatus,species,Loggerhead Kingbird,1,-78.337326049805,18.355177241164,North America,Jamaica,Jamaica - Hanover,2013-01-20,
6348,Trochilus polytmus,species,Red-billed Streamertail,1,-78.337326049805,18.355177241164,North America,Jamaica,Jamaica - Hanover,2013-01-20,
6350,Anthracothorax mango,species,Jamaican Mango,1,-78.337326049805,18.355177241164,North America,Jamaica,Jamaica - Hanover,2013-01-20,
6358,Pelecanus occidentalis,species,Brown Pelican,1,-78.337326049805,18.355177241164,North America,Jamaica,Jamaica - Hanover,2013-01-20,
6397,Quiscalus niger,species,Greater Antillean Grackle,1,-78.337326049805,18.355177241164,North America,Jamaica,Jamaica - Hanover,2013-01-19,
6400,Tyrannus caudifasciatus,species,Loggerhead Kingbird,1,-78.337326049805,18.355177241164,North America,Jamaica,Jamaica - Hanover,2013-01-19,
6401,Trochilus polytmus,species,Red-billed Streamertail,1,-78.337326049805,18.355177241164,North America,Jamaica,Jamaica - Hanover,2013-01-19,
6402,Anthracothorax mango,species,Jamaican Mango,1,-78.337326049805,18.355177241164,North America,Jamaica,Jamaica - Hanover,2013-01-19,
6409,Pelecanus occidentalis,species,Brown Pelican,1,-78.337326049805,18.355177241164,North America,Jamaica,Jamaica - Hanover,2013-01-17,
6412,Quiscalus niger,species,Greater Antillean Grackle,1,-78.337326049805,18.355177241164,North America,Jamaica,Jamaica - Hanover,2013-01-18,
6447,Tyrannus caudifasciatus,species,Loggerhead Kingbird,1,-78.337326049805,18.355177241164,North America,Jamaica,Jamaica - Hanover,2013-01-17,
6449,Melanerpes radiolatus,species,Jamaican Woodpecker,1,-78.337326049805,18.355177241164,North America,Jamaica,Jamaica - Hanover,2013-01-18,
6454,Trochilus polytmus,species,Red-billed Streamertail,1,-78.337326049805,18.355177241164,North America,Jamaica,Jamaica - Hanover,2013-01-17,
6458,Anthracothorax mango,species,Jamaican Mango,1,-78.337326049805,18.355177241164,North America,Jamaica,Jamaica - Hanover,2013-01-18,
6495,Pelecanus occidentalis,species,Brown Pelican,1,-78.337326049805,18.355177241164,North America,Jamaica,Jamaica - Hanover,2013-01-18,
6502,Quiscalus niger,species,Greater Antillean Grackle,1,-78.337368965149,18.354932849438,North America,Jamaica,Jamaica - Hanover,2013-01-17,
6541,Tyrannus caudifasciatus,species,Loggerhead Kingbird,1,-78.337368965149,18.354932849438,North America,Jamaica,Jamaica - Hanover,2013-01-17,
6542,Trochilus polytmus,species,Red-billed Streamertail,1,-78.337368965149,18.354932849438,North America,Jamaica,Jamaica - Hanover,2013-01-17,
6545,Anthracothorax mango,species,Jamaican Mango,1,-78.337368965149,18.354932849438,North America,Jamaica,Jamaica - Hanover,2013-01-17,
6618,Pelecanus occidentalis,species,Brown Pelican,1,-78.337669372559,18.354688457367,North America,Jamaica,Jamaica - Hanover,2013-01-17,
45186,Megaceryle alcyon,species,Belted Kingfisher,1,-78.336639404297,18.356236267978,North America,Jamaica,Jamaica - Hanover,2013-01-23,
45191,Pelecanus occidentalis,species,Brown Pelican,1,-78.336639404297,18.356236267978,North America,Jamaica,Jamaica - Hanover,2013-01-23,
121571,Loxipasser anoxanthus,species,Yellow-shouldered Grassquit,4,-76.7229490951,18.0776319179,North America,Jamaica,Jamaica - Saint Andrew,2012-08-26,
121572,Myadestes genibarbis,species,Rufous-throated Solitaire,20,-76.7157393172,18.1135703153,North America,Jamaica,Jamaica - Portland,2012-08-26,
121574,Todus todus,species,Jamaican Tody,5,-76.7157393172,18.1135703153,North America,Jamaica,Jamaica - Portland,2012-08-26,
121578,Trochilus polytmus,species,Red-billed Streamertail,1,-76.7496638949,18.0228535224,North America,Jamaica,Jamaica - Saint Andrew,2012-08-25,
121580,Siproeta stelenes,species,Malachite,30,-76.338470526,18.0999871963,North America,Jamaica,Jamaica - Portland,2012-08-24,
34787,Siproeta stelenes,species,Malachite,20,-76.3459377986,18.0925629462,North America,Jamaica,Jamaica - Portland,2012-08-24,
49788,Trochilus scitulus,species,Black-billed Streamertail,15,-76.3485891625,18.0981162099,North America,Jamaica,Jamaica - Portland,2012-08-19,
44622,Turdus aurantius,species,White-chinned Thrush,1,-78.2203598023,18.2457619094,North America,Jamaica,Jamaica- Westmoreland,2011-08-02,
44624,Myiarchus validus,species,Rufous-tailed Flycatcher,1,-77.3853988648,17.9324625992,North America,Jamaica,Jamaica,2011-08-02,
44632,Trochilus scitulus,species,Black-billed Streamertail,1,-76.4006937302,18.1729722983,North America,Jamaica,Jamaica - Blue Mountain/John Crow Mountain NP,2011-08-02,
44633,Trochilus polytmus,species,Red-billed Streamertail,1,-76.6603012085,18.0265110902,North America,Jamaica,Jamaica,2011-08-02,
44634,Anthracothorax mango,species,Jamaican Mango,1,-77.3914928437,17.8553578131,North America,Jamaica,Jamaica - Manchester,2011-08-02,
44662,Thalasseus maximus,species,Royal Tern,1,-77.3414535523,17.8592792034,North America,Jamaica,Jamaica,2011-08-02,
44680,Charadrius wilsonia,species,Wilson's Plover,1,-77.3414535523,17.8906472117,North America,Jamaica,Jamaica,2011-08-02,
44683,Jacana spinosa,species,Northern Jacana,1,-76.2483139039,17.9494472811,North America,Jamaica,Jamaica - Saint Thomas,2011-08-02,
44687,Falco sparverius,species,American Kestrel,1,-77.3963851929,18.0056157569,North America,Jamaica,Jamaica - Manchester,2011-08-02,
53118,Dendrocygna arborea,species,West Indian Whistling Duck,10,-78.3097305298,18.2507594895,North America,Jamaica,Jamaica- Westmoreland,2011-08-02,
25500,Nesopsar nigerrimus,species,Jamaican Blackbird,1,-77.3197508121,18.1513306389,North America,Jamaica,Jamaica,2004-06-06,
67751,Patagioenas inornata,species,Plain Pigeon,1,-78.1315648863,18.2303153963,North America,Jamaica,Jamaica- Westmoreland,2004-06-15,
24467,Bubulcus ibis,species,Western Cattle Egret,3,-77.487913370132,18.477685852877,North America,Jamaica,Jamaica,1980-01-29,
31549,Cathartes aura,species,Turkey Vulture,20,-77.10711479187032,18.406817588274333,North America,Jamaica,Jamaica- Ocho Rios- Sandcastles Hotel,2007-02-19,
75983,Agraulis vanillae,species,Gulf Fritillary,1,-76.44299984,18.18666881,North America,Jamaica,Jamaica - Portland,2019-11-11,
11056,Egretta thula,species,Snowy Egret,1,-77.83452988,17.98428451,North America,Jamaica,Jamaica - Black River Lower Morass NP,2019-11-14,
11118,Eichhornia crassipes,species,Water Hyacinth,1,-77.83830643,18.03350481,North America,Jamaica,Jamaica - Black River Lower Morass NP,2019-11-14,
11173,Crotophaga ani,species,Smooth-billed Ani,10,-77.75359154,17.87595972,North America,Jamaica,Jamaica - Saint Elizabeth,2019-11-14,
11296,Thalasseus acuflavidus,species,Cabot's Tern,2,-77.83495903,17.98101899,North America,Jamaica,Jamaica - Black River Lower Morass NP,2019-11-14,
11299,Aythya collaris,species,Ring-necked Duck,50,-77.75299072,17.87728713,North America,Jamaica,Jamaica - Saint Elizabeth,2019-11-14,
25948,Antigonon leptopus,species,Queen's wreath,1,-77.75714636,17.88420584,North America,Jamaica,Jamaica - Saint Elizabeth,2019-11-14,
26585,Sturnus vulgaris,species,Common Starling,1,-77.75290489,17.87551044,North America,Jamaica,Jamaica - Saint Elizabeth,2019-11-14,
37648,Tringa melanoleuca,species,Greater Yellowlegs,2,-77.82440186,18.11648697,North America,Jamaica,Jamaica - Saint Elizabeth,2019-11-14,
37649,Tringa flavipes,species,Lesser Yellowlegs,1,-77.82440186,18.11648697,North America,Jamaica,Jamaica - Saint Elizabeth,2019-11-14,
49067,Hemidactylus mabouia,species,Tropical House Gecko,1,-78.36699486,18.27245536,North America,Jamaica,Jamaica - Westmoreland,2017-12-31,
77996,Bubulcus ibis,species,Western Cattle Egret,100,-76.80868149,18.27793226,North America,Jamaica,Jamaica - Saint Mary,2019-11-12,
78035,Pachyramphus niger,species,Jamaican Becard,1,-76.82224274,18.18075684,North America,Jamaica,Jamaica - Saint Mary,2019-11-12,
78067,Herpestes auropunctatus,species,Small Indian Mongoose,1,-76.81177139,18.21011084,North America,Jamaica,Jamaica - Saint Mary,2019-11-12,
86286,Bubulcus ibis,species,Western Cattle Egret,1,-77.75556564,17.88317867,North America,Jamaica,Jamaica - Saint Elizabeth,2019-11-15,
86292,Cathartes aura,species,Turkey Vulture,1,-77.75663853,17.88376066,North America,Jamaica,Jamaica - Saint Elizabeth,2019-11-15,
86298,Crotophaga ani,species,Smooth-billed Ani,1,-77.76126802,17.87985513,North America,Jamaica,Jamaica - Saint Elizabeth,2019-11-15,
87020,Fulica americana,species,American Coot,1,-77.76126802,17.87985513,North America,Jamaica,Jamaica - Saint Elizabeth,2019-11-15,
87022,Spatula discors,species,Blue-winged Teal,4,-77.76201189,17.88002769,North America,Jamaica,Jamaica - Saint Elizabeth,2019-11-15,
87027,Himantopus mexicanus,species,Black-necked Stilt,2,-77.76201189,17.88002769,North America,Jamaica,Jamaica - Saint Elizabeth,2019-11-15,
87029,Plegadis falcinellus,species,Glossy Ibis,1,-77.76201189,17.88002769,North America,Jamaica,Jamaica - Saint Elizabeth,2019-11-15,
87030,Bubulcus ibis,species,Western Cattle Egret,1,-77.76201189,17.88002769,North America,Jamaica,Jamaica - Saint Elizabeth,2019-11-15,
97545,Pelecanus occidentalis,species,Brown Pelican,5,-77.83440113,17.9823252,North America,Jamaica,Jamaica - Black River Lower Morass NP,2019-11-14,
97559,Bubulcus ibis,species,Western Cattle Egret,100,-77.84474373,18.02436377,North America,Jamaica,Jamaica - Black River Lower Morass NP,2019-11-14,
97704,Ardea alba,species,Great Egret,5,-77.83504486,18.03301513,North America,Jamaica,Jamaica - Black River Lower Morass NP,2019-11-14,
97707,Pandion haliaetus,species,Western Osprey,2,-77.83504486,18.03301513,North America,Jamaica,Jamaica - Black River Lower Morass NP,2019-11-14,
97908,Ardea alba,species,Great Egret,1,-77.80863762,18.02164857,North America,Jamaica,Jamaica - Black River Lower Morass NP,2019-11-14,
97919,Jacana spinosa,species,Northern Jacana,2,-77.80890942,18.02256815,North America,Jamaica,Jamaica - Black River Lower Morass NP,2019-11-14,
98142,Cathartes aura,species,Turkey Vulture,1,-77.75751472,17.88505194,North America,Jamaica,Jamaica - Saint Elizabeth,2019-11-14,
99295,Porphyrio martinica,species,Purple Gallinule,2,-76.89831734,17.92943491,North America,Jamaica,Jamaica - Saint Catherine,2019-11-13,
99499,Actitis macularius,species,Spotted Sandpiper,1,-76.89831734,17.92943491,North America,Jamaica,Jamaica - Saint Catherine,2019-11-13,
99503,Himantopus mexicanus,species,Black-necked Stilt,25,-76.89831734,17.92943491,North America,Jamaica,Jamaica - Saint Catherine,2019-11-13,
100537,Falco sparverius,species,American Kestrel,1,-76.81557655,18.2998327,North America,Jamaica,Jamaica - Saint Mary,2019-11-12,
101418,Spatula clypeata,species,Northern Shoveler,4,-76.57017231,18.20390343,North America,Jamaica,Jamaica - Portland,2019-11-11,
106847,Arenaria interpres,species,Ruddy Turnstone,1,-76.79386139,18.29294667,North America,Jamaica,Jamaica - Saint Mary,2019-11-12,
106848,Pluvialis squatarola,species,Grey Plover,1,-76.79386139,18.29294667,North America,Jamaica,Jamaica - Saint Mary,2019-11-12,
107000,Egretta thula,species,Snowy Egret,10,-76.57084465,18.20369008,North America,Jamaica,Jamaica - Portland,2019-11-11,
107026,Nycticorax nycticorax,species,Black-crowned Night Heron,1,-76.57084465,18.20369008,North America,Jamaica,Jamaica - Portland,2019-11-11,
107035,Nyctanassa violacea,species,Yellow-crowned Night Heron,2,-76.57099485,18.20332317,North America,Jamaica,Jamaica - Portland,2019-11-11,
107085,Ardea alba,species,Great Egret,1,-76.44053221,18.1852418,North America,Jamaica,Jamaica - Portland,2019-11-11,
107410,Patagioenas leucocephala,species,White-crowned Pigeon,1,-76.41396761,18.17164387,North America,Jamaica,Jamaica - Blue Mountain/John Crow Mountain NP,2019-11-11,
107440,Turdus aurantius,species,White-chinned Thrush,1,-76.41396761,18.17164387,North America,Jamaica,Jamaica - Blue Mountain/John Crow Mountain NP,2019-11-11,
107443,Columbina passerina,species,Common Ground Dove,2,-76.41396761,18.17164387,North America,Jamaica,Jamaica - Blue Mountain/John Crow Mountain NP,2019-11-11,
108597,Falco sparverius,species,American Kestrel,1,-76.32929564,18.04680744,North America,Jamaica,Jamaica - Portland,2019-11-10,
108598,Herpestes auropunctatus,species,Small Indian Mongoose,1,-76.32929564,18.04680744,North America,Jamaica,Jamaica - Portland,2019-11-10,
108613,Cathartes aura,species,Turkey Vulture,1,-76.34757042,18.07578546,North America,Jamaica,Jamaica - Portland,2019-11-10,
111789,Cathartes aura,species,Turkey Vulture,1,-76.40274525,18.17241859,North America,Jamaica,Jamaica - Blue Mountain/John Crow Mountain NP,2019-11-10,
111798,Seiurus aurocapilla,species,Ovenbird,1,-76.41390324,18.17180697,North America,Jamaica,Jamaica - Blue Mountain/John Crow Mountain NP,2019-11-10,
111802,Setophaga americana,species,Northern Parula,1,-76.41390324,18.17180697,North America,Jamaica,Jamaica - Blue Mountain/John Crow Mountain NP,2019-11-10,
111803,Setophaga discolor,species,Prairie Warbler,1,-76.41390324,18.17180697,North America,Jamaica,Jamaica - Blue Mountain/John Crow Mountain NP,2019-11-10,
111806,Setophaga ruticilla,species,American Redstart,1,-76.41390324,18.17166426,North America,Jamaica,Jamaica - Blue Mountain/John Crow Mountain NP,2019-11-10,
111849,Turdus aurantius,species,White-chinned Thrush,2,-76.41390324,18.17166426,North America,Jamaica,Jamaica - Blue Mountain/John Crow Mountain NP,2019-11-10,
111851,Patagioenas leucocephala,species,White-crowned Pigeon,3,-76.41390324,18.17166426,North America,Jamaica,Jamaica - Blue Mountain/John Crow Mountain NP,2019-11-10,
111866,Patagioenas leucocephala,species,White-crowned Pigeon,1,-76.41390324,18.17166426,North America,Jamaica,Jamaica - Blue Mountain/John Crow Mountain NP,2019-11-09,
111902,Mareca americana,species,American Wigeon,2,-76.57006502,18.20378113,North America,Jamaica,Jamaica - Portland,2019-11-09,
111921,Egretta caerulea,species,Little Blue Heron,1,-76.57090902,18.2025282,North America,Jamaica,Jamaica - Portland,2019-11-09,
111940,Spatula clypeata,species,Northern Shoveler,2,-76.57005072,18.20371046,North America,Jamaica,Jamaica - Portland,2019-11-09,
111944,Himantopus mexicanus,species,Black-necked Stilt,3,-76.57005072,18.20371046,North America,Jamaica,Jamaica - Portland,2019-11-09,
111951,Ardea herodias,species,Great Blue Heron,1,-76.57084465,18.20413852,North America,Jamaica,Jamaica - Portland,2019-11-09,
112096,Nyctanassa violacea,species,Yellow-crowned Night Heron,1,-76.57101631,18.2032824,North America,Jamaica,Jamaica - Portland,2019-11-09,
112115,Podilymbus podiceps antillarum,subspecies,Pied-billed Grebe ssp antillarum,1,-76.79614306,18.27229779,North America,Jamaica,Jamaica - Saint Mary,2019-11-09,
24058,Papilio demoleus,species,Lemon Butterfly,1,-76.89339638,18.37466637,North America,Jamaica,Jamaica - Saint Mary,2019-11-09,
24159,Gallinula galeata,species,Common Gallinule,2,-77.05012321,18.37774125,North America,Jamaica,Jamaica - Saint Mary,2019-11-09,
24163,Egretta caerulea,species,Little Blue Heron,1,-77.05012321,18.37774125,North America,Jamaica,Jamaica - Saint Mary,2019-11-09,
24166,Spatula discors,species,Blue-winged Teal,5,-77.04954386,18.37806707,North America,Jamaica,Jamaica - Saint Mary,2019-11-09,
24167,Egretta thula,species,Snowy Egret,1,-77.04954386,18.37806707,North America,Jamaica,Jamaica - Saint Mary,2019-11-09,
24170,Charadrius vociferus,species,Killdeer,1,-77.04954386,18.37806707,North America,Jamaica,Jamaica - Saint Mary,2019-11-09,
24339,Anartia jatrophae,species,White Peacock,1,-77.05252647,18.3948863,North America,Jamaica,Jamaica - Saint Mary,2019-11-09,
24465,Butorides virescens,species,Green Heron,1,-77.05252647,18.3948863,North America,Jamaica,Jamaica - Saint Mary,2019-11-09,
24715,Fregata magnificens,species,Magnificent Frigatebird,1,-77.29828119,18.46924996,North America,Jamaica,Jamaica - Saint Ann,2019-11-09,
24723,Bubulcus ibis,species,Western Cattle Egret,1,-77.29879618,18.46847657,North America,Jamaica,Jamaica - Saint Ann,2019-11-09,
24744,Thalasseus maximus,species,Royal Tern,5,-77.29879618,18.46847657,North America,Jamaica,Jamaica - Saint Ann,2019-11-09,
24745,Ardea alba egretta,subspecies,American Great Egret,1,-77.29879618,18.46847657,North America,Jamaica,Jamaica - Saint Ann,2019-11-09,
24758,Ardea herodias,species,Great Blue Heron,1,-77.29879618,18.46847657,North America,Jamaica,Jamaica - Saint Ann,2019-11-09,
29749,Todus todus,species,Jamaican Tody,1,-77.60484695,18.47610861,North America,Jamaica,Jamaica - Trelawny,2019-11-09,
29767,Mimus polyglottos,species,Northern Mockingbird,1,-77.60484695,18.47610861,North America,Jamaica,Jamaica - Trelawny,2019-11-09,
37847,Myadestes genibarbis,species,Rufous-throated Solitaire,1,-76.724671,18.084535,North America,Jamaica,Jamaica - Portland,2015-03-07,
37947,Loxipasser anoxanthus,species,Yellow-shouldered Grassquit,1,-76.724671,18.084535,North America,Jamaica,Jamaica - Portland,2015-03-06,
38086,Fregata magnificens,species,Magnificent Frigatebird,1,-77.92564,18.476221,North America,Jamaica,Jamaica - Saint James,2015-02-14,
38130,Egretta thula,species,Snowy Egret,1,-77.92564,18.476221,North America,Jamaica,Jamaica - Saint James,2015-02-14,
115276,Thalasseus maximus,species,Royal Tern,1,-78.35629463,18.26322085,North America,Jamaica,Jamaica - Westmoreland,2003-03-03,
50314,Erythemis vesiculosa,species,Great Pondhawk,1,-78.36663365,18.27266319,North America,Jamaica,Jamaica - Westmoreland,2017-12-26,
67178,Setophaga ruticilla,species,American Redstart,1,-78.3665916,18.2723962,North America,Jamaica,Jamaica - Westmoreland,2018-01-01,10:57
93704,Sicalis flaveola,species,Saffron Finch,1,-78.3671355019839,18.272183420273,North America,Jamaica,Jamaica - Westmoreland,2017-12-31,08:02
93705,Butorides virescens,species,Green Heron,1,-78.3162988112699,18.2939267131017,North America,Jamaica,Jamaica - Westmoreland,2017-12-31,10:06
117377,Butorides virescens,species,Green Heron,1,-78.3073324757283,18.3731148601234,North America,Jamaica,Jamaica - Hanover,2017-12-28,14:33
7701,Todus todus,species,Jamaican Tody,1,-78.0444014972366,18.2457632353815,North America,Jamaica,Jamaica - Westmoreland,2017-12-27,07:56
7703,Todus todus,species,Jamaican Tody,1,-78.0256510446503,18.1794072348075,North America,Jamaica,Jamaica - Westmoreland,2017-12-27,15:05
16731,Phaethon lepturus,species,White-tailed Tropicbird,6,-78.3670749210404,18.2734457331712,North America,Jamaica,Jamaica - Westmoreland,2017-12-26,07:32
25808,Phaethon lepturus,species,White-tailed Tropicbird,5,-78.3671765981291,18.2732173448319,North America,Jamaica,Jamaica - Westmoreland,2017-12-25,07:48
34689,Butorides virescens,species,Green Heron,1,-78.3143634222752,18.292650955791,North America,Jamaica,Jamaica - Westmoreland,2017-12-24,11:04
113192,Dendrocygna arborea,species,West Indian Whistling Duck,30,-77.6735883672,18.0775429434,North America,Jamaica,Jamaica - Saint Elizabeth,2007-01-15,
