,scientificName,taxonRank,vernacularName,individualCount,longitudeDecimal,latitudeDecimal,continent,country,locality,eventDate,eventTime
12603,Corvus cornix,species,Hooded Crow,1,24.1083956882,56.9484617074,Europe,Latvia,Latvia - Riga,2015-02-15,
12621,Corvus cornix,species,Hooded Crow,10,24.1160704941,56.9491169709,Europe,Latvia,Latvia - Riga,2015-02-15,
12837,Corvus cornix,species,Hooded Crow,15,24.1165650263429,56.9491542730722,Europe,Latvia,Latvia - Riga,2015-02-14,14:53
110151,Corvus cornix,species,Hooded Crow,10,24.1129983589,56.9440670212,Europe,Latvia,Latvia - Riga,2015-02-02,
16975,Corvus cornix,species,Hooded Crow,1,24.1349938714286,56.9530939,Europe,Latvia,Latvia - Riga,2015-01-31,13:57
16976,Corvus cornix,species,Hooded Crow,1,24.1349938714286,56.9530939,Europe,Latvia,Latvia - Riga,2015-01-31,14:37
93257,Corvus cornix,species,Hooded Crow,1,23.7561106682,56.9239889238,Europe,Latvia,Latvia - Riga,2008-10-08,
18056,Coenonympha glycerion,species,Chestnut Heath,1,25.2,57.3,Europe,Latvia,Latvia - Gauja NP,2014-07-08,
18089,Polyommatus amandus,species,Amanda's Blue,1,25.2407314628,57.3122238624,Europe,Latvia,Latvia - Gauja NP,2014-07-08,
18103,Nymphalis xanthomelas,species,Yellow-legged Tortoiseshell,1,25.2327492088,57.3181682551,Europe,Latvia,Latvia - Gauja NP,2014-07-08,
18109,Coenonympha glycerion,species,Chestnut Heath,1,25.2,57.3,Europe,Latvia,Latvia - Gauja NP,2014-07-08,
18112,Maniola jurtina,species,Meadow Brown,1,25.2327492088,57.3181682551,Europe,Latvia,Latvia - Gauja NP,2014-07-08,
18113,Lycaena alciphron,species,Purple-shot Copper,1,25.2277924865,57.3171022749,Europe,Latvia,Latvia - Gauja NP,2014-07-08,
18114,Coenonympha arcania,species,Pearly Heath,1,25.2,57.3,Europe,Latvia,Latvia - Gauja NP,2014-07-08,
18118,Brenthis ino,species,Lesser Marbled Fritillary,5,25.2,57.3,Europe,Latvia,Latvia - Gauja NP,2014-07-08,
18292,Apatura ilia,species,Lesser Purple Emperor,1,25.2,57.3,Europe,Latvia,Latvia - Gauja NP,2014-07-08,
18294,Cyaniris semiargus,species,Mazarine Blue,1,25.2,57.3,Europe,Latvia,Latvia - Gauja NP,2014-07-08,
18297,Boloria selene,species,Small Pearl-bordered Fritillary,1,25.2,57.3,Europe,Latvia,Latvia - Gauja NP,2014-07-08,
18298,Cyaniris semiargus,species,Mazarine Blue,1,25.2,57.3,Europe,Latvia,Latvia - Gauja NP,2014-07-08,
18303,Argynnis laodice,species,Pallas's Fritillary,1,25.2417399734,57.3133247484,Europe,Latvia,Latvia - Gauja NP,2014-07-08,
18316,Aricia artaxerxes,species,Northern Brown Argus,1,25.2417399734,57.3133247484,Europe,Latvia,Latvia - Gauja NP,2014-07-08,
18327,Polyommatus amandus,species,Amanda's Blue,1,25.2407921478,57.3120500353,Europe,Latvia,Latvia - Gauja NP,2014-07-08,
10741,Phylloscopus sibilatrix,species,Wood Warbler,1,25.1919084816335,57.2810268846863,Europe,Latvia,Latvia - Gauja NP,2014-07-17,17:17
75302,Polyommatus amandus,species,Amanda's Blue,1,24.3732695282,57.5981278828,Europe,Latvia,Latvia - Limbaži,2014-07-05,
75303,Limenitis populi,species,Poplar Admiral,1,24.35,57.55,Europe,Latvia,Latvia - Limbaži,2014-07-05,
75304,Limenitis populi,species,Poplar Admiral,1,24.35,57.6,Europe,Latvia,Latvia - Limbaži,2014-07-05,
75305,Limenitis populi,species,Poplar Admiral,1,24.35,57.6,Europe,Latvia,Latvia - Limbaži,2014-07-05,
38606,Polyommatus amandus,species,Amanda's Blue,1,24.3897916004,57.038904745,Europe,Latvia,Latvia - Riga,2014-06-28,
38609,Brenthis ino,species,Lesser Marbled Fritillary,1,24.35,57.0,Europe,Latvia,Latvia - Riga,2014-06-28,
38610,Agriades optilete,species,Cranberry Blue,1,24.3897916004,57.038904745,Europe,Latvia,Latvia - Riga,2014-06-28,
38611,Speyeria aglaja,species,Dark Green Fritillary,1,24.3897916004,57.038904745,Europe,Latvia,Latvia - Riga,2014-06-28,
38615,Coenonympha pamphilus,species,Small Heath,1,24.3897916004,57.038904745,Europe,Latvia,Latvia - Riga,2014-06-28,
38629,Diacrisia sannio,species,Clouded Buff,1,24.5287659019,57.100619085,Europe,Latvia,Latvia - Riga,2014-06-28,
38633,Deltote bankiana,species,Silver Barred,1,24.5287659019,57.100619085,Europe,Latvia,Latvia - Riga,2014-06-28,
38645,Cyaniris semiargus,species,Mazarine Blue,1,24.5,57.1,Europe,Latvia,Latvia - Riga,2014-06-28,
38654,Boloria selene,species,Small Pearl-bordered Fritillary,1,24.5,57.05,Europe,Latvia,Latvia - Riga,2014-06-28,
38662,Cyaniris semiargus,species,Mazarine Blue,1,24.5,57.05,Europe,Latvia,Latvia - Riga,2014-06-28,
38674,Polypogon tentacularia,species,,1,24.5147754997,57.0975769883,Europe,Latvia,Latvia - Riga,2014-06-28,
38685,Polyommatus icarus,species,Common Blue,1,24.5147754997,57.0975769883,Europe,Latvia,Latvia - Riga,2014-06-28,
38687,Cyaniris semiargus,species,Mazarine Blue,1,24.5,57.05,Europe,Latvia,Latvia - Riga,2014-06-28,
38698,Brenthis ino,species,Lesser Marbled Fritillary,1,24.5,57.1,Europe,Latvia,Latvia - Riga,2014-06-28,
38702,Ochlodes sylvanus,species,Large Skipper,1,24.5286371559,57.10063074,Europe,Latvia,Latvia - Riga,2014-06-28,
38710,Aphantopus hyperantus,species,Ringlet,1,24.5286371559,57.10063074,Europe,Latvia,Latvia - Riga,2014-06-28,
38714,Aporia crataegi,species,Black-veined White,1,24.5286371559,57.10063074,Europe,Latvia,Latvia - Riga,2014-06-28,
38716,Thymelicus sylvestris,species,Small Skipper,1,24.5286371559,57.10063074,Europe,Latvia,Latvia - Riga,2014-06-28,
38752,Coenonympha glycerion,species,Chestnut Heath,1,24.5,57.1,Europe,Latvia,Latvia - Riga,2014-06-28,
38761,Lycaena virgaureae,species,Scarce Copper,1,24.5,57.05,Europe,Latvia,Latvia - Riga,2014-06-28,
38781,Coenonympha arcania,species,Pearly Heath,1,24.5,57.05,Europe,Latvia,Latvia - Riga,2014-06-28,
79554,Ceratomegilla notata,species,,1,25.6980588287,57.082440559,Europe,Latvia,Latvia - Cesis,2014-05-10,
81053,Phylloscopus sibilatrix,species,Wood Warbler,1,25.1848992705,57.2641931743,Europe,Latvia,Latvia - Gauja NP,2014-04-29,
81153,Thecla betulae,species,Brown Hairstreak,3,25.6976799667,57.0825921488,Europe,Latvia,Latvia - Cesis,2014-04-25,
117504,Grus grus,species,Common Crane,1,23.3967664566294,56.8516406877232,Europe,Latvia,Latvia - Kemeru NP,2014-05-18,10:41
29911,Sterna hirundo,species,Common Tern,10,21.5245342769192,57.4062608136849,Europe,Latvia,Latvia - Ventspils,2014-05-07,19:11
29912,Grus grus,species,Common Crane,1,22.4821165321391,57.6807224668837,Europe,Latvia,Latvia - Slitere NP,2014-05-08,20:21
29913,Lyrurus tetrix,species,Black Grouse,1,22.45,57.65,Europe,Latvia,Latvia - Slitere NP,2014-05-08,20:21
29914,Lyrurus tetrix,species,Black Grouse,10,22.45,57.65,Europe,Latvia,Latvia - Slitere NP,2014-05-09,05:30
29916,Motacilla alba,species,White Wagtail,1,22.4877047478722,57.699897294302,Europe,Latvia,Latvia - Slitere NP,2014-05-09,06:00
29917,Clangula hyemalis,species,Long-tailed Duck,8,22.6012814093012,57.7531902598107,Europe,Latvia,Latvia - Slitere NP,2014-05-09,10:56
29918,Clangula hyemalis,species,Long-tailed Duck,12,22.5968373642353,57.7474180273273,Europe,Latvia,Latvia - Slitere NP,2014-05-10,07:16
29919,Motacilla alba,species,White Wagtail,3,22.6028244392497,57.7552996291941,Europe,Latvia,Latvia - Slitere NP,2014-05-10,07:38
29920,Corvus cornix,species,Hooded Crow,1,22.604373824455,57.7584665695916,Europe,Latvia,Latvia - Slitere NP,2014-05-10,07:49
29921,Clangula hyemalis,species,Long-tailed Duck,1,22.6031110452442,57.7584283500952,Europe,Latvia,Latvia - Slitere NP,2014-05-10,08:29
29922,Corvus corax,species,Northern Raven,1,22.5944863271971,57.7551304740169,Europe,Latvia,Latvia - Slitere NP,2014-05-10,10:25
29923,Corvus cornix,species,Hooded Crow,3,22.5947662024066,57.7482510842054,Europe,Latvia,Latvia - Slitere NP,2014-05-10,11:26
29924,Grus grus,species,Common Crane,2,22.5305697591896,57.7376079223053,Europe,Latvia,Latvia - Slitere NP,2014-05-10,11:48
29925,Motacilla alba,species,White Wagtail,6,22.5952733626892,57.7488198846203,Europe,Latvia,Latvia - Slitere NP,2014-05-10,16:52
29926,Calidris alpina,species,Dunlin,1,22.6032187618734,57.7586349178535,Europe,Latvia,Latvia - Slitere NP,2014-05-11,07:40
29928,Calidris alpina,species,Dunlin,6,22.6047065352333,57.7588958635585,Europe,Latvia,Latvia - Slitere NP,2014-05-11,07:53
29947,Grus grus,species,Common Crane,2,22.5722187471708,57.6256291424891,Europe,Latvia,Latvia - Talsi,2014-05-11,15:57
29950,Ciconia ciconia,species,White Stork,8,22.4641154124226,57.6068591933925,Europe,Latvia,Latvia - Talsi,2014-05-11,17:04
29953,Ciconia ciconia,species,White Stork,1,22.4602191867403,57.6080498643549,Europe,Latvia,Latvia - Talsi,2014-05-11,17:12
29955,Grus grus,species,Common Crane,2,22.4271748687153,57.6157140874311,Europe,Latvia,Latvia - Talsi,2014-05-11,17:18
30048,Ardea alba,species,Great Egret,1,26.9064310276308,56.8166607763199,Europe,Latvia,Latvia - Madona,2014-05-14,10:38
30053,Pandion haliaetus,species,Western Osprey,1,26.9634239144479,56.7669319123367,Europe,Latvia,Latvia - Rezekne,2014-05-14,11:41
30054,Podiceps grisegena,species,Red-necked Grebe,1,26.9135769191372,56.6904325144525,Europe,Latvia,Latvia - Rezekne,2014-05-14,12:45
30055,Cygnus cygnus,species,Whooper Swan,1,26.9128260618518,56.6907104656665,Europe,Latvia,Latvia - Rezekne,2014-05-14,12:47
30058,Clanga pomarina,species,Lesser Spotted Eagle,1,26.7337740822818,56.8263286662441,Europe,Latvia,Latvia - Madona,2014-05-14,18:40
30076,Cygnus cygnus,species,Whooper Swan,2,26.9122922980852,56.6909426589982,Europe,Latvia,Latvia - Rezekne,2014-05-15,09:33
30079,Carpodacus erythrinus,species,Common Rosefinch,1,26.9057446427647,56.6937777612757,Europe,Latvia,Latvia - Rezekne,2014-05-15,09:57
30084,Carpodacus erythrinus,species,Common Rosefinch,1,26.8939659610452,56.6980730580049,Europe,Latvia,Latvia - Rezekne,2014-05-15,11:11
30088,Remiz pendulinus,species,Eurasian Penduline Tit,1,26.85,56.7,Europe,Latvia,Latvia - Rezekne,2014-05-15,12:02
30090,Motacilla citreola,species,Citrine Wagtail,1,26.8896613965779,56.705916080059,Europe,Latvia,Latvia - Rezekne,2014-05-15,12:26
30093,Podiceps grisegena,species,Red-necked Grebe,1,26.9091303992533,56.6923033942729,Europe,Latvia,Latvia - Rezekne,2014-05-15,13:26
30095,Motacilla citreola,species,Citrine Wagtail,1,26.8925906636646,56.6932689359924,Europe,Latvia,Latvia - Rezekne,2014-05-15,17:34
30097,Motacilla citreola,species,Citrine Wagtail,1,26.8972778794355,56.6923486600068,Europe,Latvia,Latvia - Rezekne,2014-05-15,18:04
30098,Motacilla citreola,species,Citrine Wagtail,1,26.8972871108519,56.6923570705967,Europe,Latvia,Latvia - Rezekne,2014-05-15,18:04
30099,Chlidonias leucopterus,species,White-winged Tern,2,26.9000049739344,56.6941335280849,Europe,Latvia,Latvia - Rezekne,2014-05-15,18:12
30105,Clanga pomarina,species,Lesser Spotted Eagle,2,26.6678847739428,56.8693634380954,Europe,Latvia,Latvia - Madona,2014-05-16,08:45
30108,Coracias garrulus,species,European Roller,1,24.4533079286566,57.0637420667116,Europe,Latvia,Latvia - Riga,2014-05-16,15:24
114154,Nymphalis antiopa,species,Camberwell Beauty,1,25.2413181961,57.3106709777,Europe,Latvia,Latvia - Gauja NP,2014-04-20,
69231,Ciconia ciconia,species,White Stork,1,26.3938453048,57.5234510887,Europe,Latvia,Latvia - Aluksne,2014-03-30,
30974,Nymphalis antiopa,species,Camberwell Beauty,1,25.2448727936,57.3155148341,Europe,Latvia,Latvia - Gauja NP,2014-03-27,16:30
30975,Nymphalis xanthomelas,species,Yellow-legged Tortoiseshell,1,25.2448727936,57.3155148341,Europe,Latvia,Latvia - Gauja NP,2014-03-27,16:30
30980,Nymphalis antiopa,species,Camberwell Beauty,1,25.2320484817,57.321725161,Europe,Latvia,Latvia - Gauja NP,2014-03-27,16:30
30983,Nymphalis xanthomelas,species,Yellow-legged Tortoiseshell,5,25.2320484817,57.321725161,Europe,Latvia,Latvia - Gauja NP,2014-03-27,16:30
43108,Larus argentatus,species,European Herring Gull,2,23.12,57.35,Europe,Latvia,Latvia - Talsi,2013-11-26,14:35
43109,Larus argentatus,species,European Herring Gull,20,23.23,57.15,Europe,Latvia,Latvia - Tukums,2013-11-27,09:26
63827,Nyctereutes procyonoides,species,Raccoon Dog,1,27.5102376938,59.3765889516,Europe,Latvia,Latvia - Ogre,2013-08-12,17:57
96523,Corvus cornix,species,Hooded Crow,1,23.967876434326,56.924088463336,Europe,Latvia,Latvia - Riga,2013-05-03,
99010,Clanga pomarina,species,Lesser Spotted Eagle,1,26.6811,56.798888,Europe,Latvia,Latvia - Madona,2013-05-08,20:43
99012,Vulpes vulpes,species,Red Fox,1,26.8,56.8,Europe,Latvia,Latvia - Madona,2013-05-08,21:05
99013,Vulpes vulpes,species,Red Fox,1,26.9,56.75,Europe,Latvia,Latvia - Rezekne,2013-05-08,21:22
99014,Cygnus cygnus,species,Whooper Swan,1,26.906216,56.693862,Europe,Latvia,Latvia - Rezekne,2013-05-09,08:25
99015,Chlidonias leucopterus,species,White-winged Tern,1,26.906173,56.693694,Europe,Latvia,Latvia - Rezekne,2013-05-09,08:27
99016,Haliaeetus albicilla,species,White-tailed Eagle,2,26.906135,56.693692,Europe,Latvia,Latvia - Rezekne,2013-05-09,08:28
99017,Chlidonias niger,species,Black Tern,1,26.906198,56.693695,Europe,Latvia,Latvia - Rezekne,2013-05-09,08:29
99018,Carpodacus erythrinus,species,Common Rosefinch,1,26.899275,56.702659,Europe,Latvia,Latvia - Rezekne,2013-05-09,09:57
99019,Podiceps grisegena,species,Red-necked Grebe,2,26.893346,56.697374,Europe,Latvia,Latvia - Rezekne,2013-05-09,11:21
99020,Motacilla flava,species,Western Yellow Wagtail,1,26.890528,56.696921,Europe,Latvia,Latvia - Rezekne,2013-05-09,11:44
99021,Haliaeetus albicilla,species,White-tailed Eagle,1,26.888404,56.69541,Europe,Latvia,Latvia - Rezekne,2013-05-09,12:08
99022,Chlidonias leucopterus,species,White-winged Tern,100,26.968795,56.765277,Europe,Latvia,Latvia - Rezekne,2013-05-09,14:59
99023,Chlidonias niger,species,Black Tern,10,26.968795,56.765277,Europe,Latvia,Latvia - Rezekne,2013-05-09,15:00
99024,Vulpes vulpes,species,Red Fox,1,26.35,56.65,Europe,Latvia,Latvia - Madona,2013-05-10,04:43
99025,Emberiza citrinella,species,Yellowhammer,1,26.396752,56.692765,Europe,Latvia,Latvia - Madona,2013-05-10,04:48
99026,Castor fiber,species,Eurasian Beaver,1,26.35,56.65,Europe,Latvia,Latvia - Madona,2013-05-10,06:00
99027,Lanius collurio,species,Red-backed Shrike,1,26.396789,56.692498,Europe,Latvia,Latvia - Madona,2013-05-10,06:05
99028,Hydrocoloeus minutus,species,Little Gull,1,26.965254,56.766331,Europe,Latvia,Latvia - Rezekne,2013-05-10,12:21
99029,Locustella fluviatilis,species,River Warbler,1,26.400511,56.691143,Europe,Latvia,Latvia - Madona,2013-05-10,16:50
99030,Emberiza citrinella,species,Yellowhammer,1,26.397775,56.692924,Europe,Latvia,Latvia - Madona,2013-05-11,07:35
99031,Lanius collurio,species,Red-backed Shrike,1,26.397837,56.692948,Europe,Latvia,Latvia - Madona,2013-05-11,07:59
99032,Canis lupus,species,Wolf,1,26.4,56.65,Europe,Latvia,Latvia - Madona,2013-05-11,10:21
99033,Martes foina,species,Beech Marten,1,27.066581,56.902279,Europe,Latvia,Latvia - Balvi,2013-05-12,09:47
99042,Coracias garrulus,species,European Roller,2,24.45185,57.060228,Europe,Latvia,Latvia - Riga,2013-05-15,11:12
99043,Melolontha melolontha,species,Cockchafer maybeetle,100,24.456604,57.062104,Europe,Latvia,Latvia - Riga,2013-05-15,11:35
99044,Lacerta agilis,species,Sand Lizard,1,24.45,57.05,Europe,Latvia,Latvia - Riga,2013-05-15,11:50
99045,Lacerta agilis,species,Sand Lizard,1,24.45,57.05,Europe,Latvia,Latvia - Riga,2013-05-15,11:55
112725,Corvus cornix,species,Hooded Crow,1,24.201507568359,56.957705918761,Europe,Latvia,Latvia - Riga,2013-05-13,
40452,Leucorrhinia albifrons,species,Dark Whiteface,1,23.45,56.9,Europe,Latvia,Latvia - Kemeru NP,2012-08-21,18:30
40594,Mustela vison,synonym,Mink,1,23.5225326186,56.9563757823,Europe,Latvia,Latvia - Kemeru NP,2012-08-18,13:30
82702,Corvus cornix,species,Hooded Crow,3,23.6463447626,56.9623825553,Europe,Latvia,Latvia - Riga,2008-08-06,
27621,Exochomus quadripustulatus,species,Pine ladybird,1,23.1364929223,57.2576750376,Europe,Latvia,Latvia - Tukums,2011-11-11,
27623,Anisosticta novemdecimpunctata,species,Water ladybird,3,23.1364929223,57.2576750376,Europe,Latvia,Latvia - Tukums,2011-11-11,
27625,Anisosticta novemdecimpunctata,species,Water ladybird,1,23.1364929223,57.2576750376,Europe,Latvia,Latvia - Tukums,2011-11-11,
27626,Anatis ocellata,species,Eyed ladybird,1,23.1364929223,57.2576750376,Europe,Latvia,Latvia - Tukums,2011-11-11,
27629,Coccinella septempunctata,species,7-spot Ladybird,2,20.9810328484,56.3776682854,Europe,Latvia,Latvia - Liepaja,2011-11-11,
27669,Exochomus quadripustulatus,species,Pine ladybird,1,20.9832000732,56.3780128461,Europe,Latvia,Latvia - Liepaja,2011-11-11,
27676,Coccinella septempunctata,species,7-spot Ladybird,14,20.9832000732,56.3780128461,Europe,Latvia,Latvia - Liepaja,2011-11-11,
55311,Motacilla flava,species,Western Yellow Wagtail,1,27.7281188965,56.5454794482,Europe,Latvia,Latvia - Ludza,2010-07-20,18:00
2278,Antonechloris smaragdaria,species,,1,24.1336262226,56.9463844818,Europe,Latvia,Latvia - Riga,2010-06-27,20:45
4183,Leucorrhinia caudalis,species,Lilypad Whiteface,1,22.25,57.65,Europe,Latvia,Latvia - Slitere NP,2009-06-29,
4222,Leucorrhinia pectoralis,species,Yellow-spotted Whiteface,2,23.15,57.25,Europe,Latvia,Latvia / Letland,2009-06-29,
4235,Anax parthenope,species,Lesser Emperor,1,23.1502532959,57.2589944028,Europe,Latvia,Latvia / Letland,2009-06-29,
41383,Crex crex,species,Corn Crake,1,25.75,56.75,Europe,Latvia,Latvia / Letland,2009-07-21,
44006,Aglais io,species,Peacock,5,24.31,57.05,Europe,Latvia,Latvia - Riga,2020-04-22,
44012,Callophrys rubi,species,Green Hairstreak,5,24.31,57.05,Europe,Latvia,Latvia - Riga,2020-04-22,
44026,Gonepteryx rhamni,species,Brimstone,10,24.31,57.05,Europe,Latvia,Latvia - Riga,2020-04-22,
44035,Polygonia c-album,species,Comma Butterfly,3,24.31,57.05,Europe,Latvia,Latvia - Riga,2020-04-22,
44055,Pieris rapae,species,Small White,1,24.31,57.05,Europe,Latvia,Latvia - Riga,2020-04-22,
44069,Pieris rapae,species,Small White,1,24.31,57.05,Europe,Latvia,Latvia - Riga,2020-04-21,
7400,Gonepteryx rhamni,species,Brimstone,6,24.31,57.05,Europe,Latvia,Latvia - Riga,2020-04-06,
7780,Aglais urticae,species,Small Tortoiseshell,1,24.31,57.05,Europe,Latvia,Latvia - Riga,2020-04-06,
7802,Aglais io,species,Peacock,2,24.31,57.05,Europe,Latvia,Latvia - Riga,2020-04-06,
7826,Gonepteryx rhamni,species,Brimstone,5,24.31,57.05,Europe,Latvia,Latvia - Riga,2020-03-28,
7844,Polygonia c-album,species,Comma Butterfly,1,24.31,57.05,Europe,Latvia,Latvia - Riga,2020-03-27,
7874,Nymphalis xanthomelas,species,Yellow-legged Tortoiseshell,3,24.31,57.05,Europe,Latvia,Latvia - Riga,2020-03-27,
32687,Regulus regulus,species,Goldcrest,8,23.9828890934587,56.9757041636107,Europe,Latvia,Latvia - Riga,2020-03-22,16:21
32688,Buteo buteo,species,Common Buzzard,2,23.9628573507071,56.9709249017405,Europe,Latvia,Latvia - Riga,2020-03-25,10:14
32689,Dryocopus martius,species,Black Woodpecker,2,23.9634668827057,56.9713585581613,Europe,Latvia,Latvia - Riga,2020-03-26,10:49
32690,Dryocopus martius,species,Black Woodpecker,1,23.9627342224121,56.9705123901367,Europe,Latvia,Latvia - Riga,2020-03-26,12:19
32691,Buteo buteo,species,Common Buzzard,2,23.9627170562744,56.9704856872559,Europe,Latvia,Latvia - Riga,2020-03-26,12:23
83312,Certhia brachydactyla,species,Short-toed Treecreeper,1,22.60314369,57.75686646,Europe,Latvia,Latvia - Slitere NP,2020-03-08,15:36
103207,Meles meles,species,Eurasian Badger,1,21.824536,56.885416,Europe,Latvia,Latvia - Kuldiga,2019-07-21,07:56
118966,Emberiza schoeniclus,species,Common Reed Bunting,1,23.4709428400609,57.0006457823537,Europe,Latvia,Latvia - Kemeru NP,2019-10-09,09:49
17534,Bufo bufo,species,Common Toad,1,24.84992981,57.18155741,Europe,Latvia,Latvia - Gauja NP,2013-07-26,
2018,Corvus cornix,species,Hooded Crow,1,24.19488940799554,56.96078964930465,Europe,Latvia,Latvia - Riga,2019-09-18,16:40
15051,Corvus cornix,species,Hooded Crow,5,24.116207208938903,56.95506773386257,Europe,Latvia,Latvia - Riga,2019-09-18,08:10
53525,Medicago falcata,species,Sickle Medick,1,24.0959987640381,56.9577217102051,Europe,Latvia,Latvia - Riga,2019-09-15,11:41
53526,Corvus cornix,species,Hooded Crow,1,24.1000938415527,56.9523735046387,Europe,Latvia,Latvia - Riga,2019-09-15,11:51
8970,Sturnus vulgaris,species,Common Starling,1,23.9786567687988,56.9248428344727,Europe,Latvia,Latvia - Riga,2019-08-29,08:11
8971,Corvus cornix,species,Hooded Crow,2,23.9786567687988,56.9248428344727,Europe,Latvia,Latvia - Riga,2019-08-29,08:11
102189,Melampyrum pratense,species,Common Cow-wheat,1,24.39111111111106,57.22583333333333,Europe,Latvia,Latvia - Riga,2019-08-13,08:25
102990,Linaria vulgaris,species,Common Toadflax,1,24.007777777777846,56.926944444444445,Europe,Latvia,Latvia - Riga,2019-08-13,20:25
103198,Berteroa incana,species,Hoary Alison,1,24.007499999999936,56.92666666666666,Europe,Latvia,Latvia - Riga,2019-08-13,20:36
103253,Trifolium arvense,species,Hare's-foot Clover,1,24.007499999999936,56.92638888888889,Europe,Latvia,Latvia - Riga,2019-08-13,20:39
103288,Campanula patula,species,Spreading Bellflower,1,24.006111111111068,56.92611111111111,Europe,Latvia,Latvia - Riga,2019-08-13,20:58
106268,Honckenya peploides,species,Sea Sandwort,1,24.364722222222213,57.212500000000006,Europe,Latvia,Latvia - Riga,2019-08-13,09:04
106431,Phragmites australis,species,Common Reed,1,24.364444444444416,57.21222222222222,Europe,Latvia,Latvia - Riga,2019-08-13,09:08
106440,Gavia arctica,species,Black-throated Diver,1,24.37166666666667,57.21666666666667,Europe,Latvia,Latvia - Riga,2019-08-13,09:37
106667,Polistes dominula,species,European Paper Wasp,1,24.465,57.24972222,Europe,Latvia,Latvia - Riga,2019-08-13,12:49
106731,Bellis perennis,species,Common Daisy,1,24.464722222222235,57.24944444444444,Europe,Latvia,Latvia - Riga,2019-08-13,12:39
106737,Aglais urticae,species,Small Tortoiseshell,1,24.46527777777783,57.24944444444444,Europe,Latvia,Latvia - Riga,2019-08-13,12:35
112536,Dryocopus martius,species,Black Woodpecker,1,23.968769274652,56.9719972464775,Europe,Latvia,Latvia - Riga,2019-08-13,08:04
6807,Falco subbuteo,species,Eurasian Hobby,3,23.9705848693848,56.9724540710449,Europe,Latvia,Latvia - Riga,2019-08-12,08:05
113773,Larus argentatus,species,European Herring Gull,1,21.0102844238281,56.5127410888672,Europe,Latvia,Latvia - Liepaja,2019-08-05,17:03
113774,Coloeus monedula soemmerringii,subspecies,Western Jackdaw ssp soemmerringii,1,21.0069121420383,56.5133128848054,Europe,Latvia,Latvia - Liepaja,2019-08-05,17:03
25462,Speyeria aglaja,species,Dark Green Fritillary,1,25.1000740751624,57.3476136868823,Europe,Latvia,Latvia - Gauja NP,2019-07-26,17:03
25463,Odontites vernus,species,Red Bartsia,1,25.7090644836426,57.082275390625,Europe,Latvia,Latvia - Cesis,2019-07-27,08:22
25465,Ceratomegilla notata,species,,1,25.69729372859,57.0807617330161,Europe,Latvia,Latvia - Cesis,2019-07-27,09:31
25466,Pieris brassicae,species,Large White,1,25.69817162,57.08273697,Europe,Latvia,Latvia - Cesis,2019-07-27,10:31
25468,Araschnia levana,species,Map Butterfly,1,25.6989936828613,57.0827713012695,Europe,Latvia,Latvia - Cesis,2019-07-27,10:39
25469,Pieris napi,species,Green-veined White,1,25.6989727020264,57.0823097229004,Europe,Latvia,Latvia - Cesis,2019-07-27,10:45
25470,Leptidea spec.,multispecies,,1,25.6991481781006,57.0823631286621,Europe,Latvia,Latvia - Cesis,2019-07-27,10:49
25471,Pieris brassicae,species,Large White,1,25.6994953155518,57.0825080871582,Europe,Latvia,Latvia - Cesis,2019-07-27,10:53
25473,Polygonia c-album,species,Comma Butterfly,1,25.7002334594727,57.0822601318359,Europe,Latvia,Latvia - Cesis,2019-07-27,10:56
25474,Lycaena dispar,species,Large Copper,1,25.65,57.05,Europe,Latvia,Latvia - Cesis,2019-07-27,11:17
25477,Chilocorus renipustulatus,species,Kidney-spot ladybird,1,25.7089328765869,57.0759773254395,Europe,Latvia,Latvia - Cesis,2019-07-28,11:17
25478,Tettigonia cantans,species,Upland Green Bush Cricket,1,25.6977181881666,57.0823749670049,Europe,Latvia,Latvia - Cesis,2019-07-28,12:23
25479,Riparia riparia,species,Sand Martin,5,25.6925659179687,57.1001281738281,Europe,Latvia,Latvia - Cesis,2019-07-28,13:32
25480,Charadrius dubius,species,Little Ringed Plover,3,25.6948699951172,57.0999794006348,Europe,Latvia,Latvia - Cesis,2019-07-28,13:52
25481,Aglais urticae,species,Small Tortoiseshell,2,26.3935966491699,57.5239410400391,Europe,Latvia,Latvia - Aluksne,2019-07-29,17:33
99759,Argynnis paphia,species,Silver-washed Fritillary,1,25.1463985443115,57.2457618713379,Europe,Latvia,Latvia - Gauja NP,2019-07-25,14:35
99761,Fabriciana adippe,species,High Brown Fritillary,1,25.1448421478271,57.2460517883301,Europe,Latvia,Latvia - Gauja NP,2019-07-25,14:49
99762,Vanessa cardui,species,Painted Lady,1,25.1446228027344,57.2461280822754,Europe,Latvia,Latvia - Gauja NP,2019-07-25,14:52
99763,Brenthis ino,species,Lesser Marbled Fritillary,1,25.1,57.2,Europe,Latvia,Latvia - Gauja NP,2019-07-25,15:05
99764,Aricia artaxerxes,species,Northern Brown Argus,1,25.14430428,57.24659729,Europe,Latvia,Latvia - Gauja NP,2019-07-25,15:08
99765,Nymphalis antiopa,species,Camberwell Beauty,1,25.1438045501709,57.2473373413086,Europe,Latvia,Latvia - Gauja NP,2019-07-25,15:31
99766,Limenitis camilla,species,White Admiral,1,25.1437911987305,57.2473678588867,Europe,Latvia,Latvia - Gauja NP,2019-07-25,15:32
99767,Lycaena tityrus,species,Sooty Copper,1,25.1,57.2,Europe,Latvia,Latvia - Gauja NP,2019-07-25,17:07
99768,Thecla betulae,species,Brown Hairstreak,1,25.1473236083984,57.2459411621094,Europe,Latvia,Latvia - Gauja NP,2019-07-25,18:18
11564,Apus apus,species,Common Swift,6,23.2766745239713,56.62503149365692,Europe,Latvia,Latvia - Dobele,2019-06-12,15:20
15874,Craterellus cornucopioides,species,,1,25.95,57.3,Europe,Latvia,Latvia - Valka,2019-07-23,08:18
15875,Fabriciana adippe,species,High Brown Fritillary,1,25.2014789581299,57.2378959655762,Europe,Latvia,Latvia - Gauja NP,2019-07-23,16:54
15876,Fabriciana adippe,species,High Brown Fritillary,1,25.14730453,57.24578094,Europe,Latvia,Latvia - Gauja NP,2019-07-23,17:23
34644,Leptidea spec.,multispecies,,1,25.2314720153809,57.3160400390625,Europe,Latvia,Latvia - Gauja NP,2019-07-21,12:45
34645,Lycaena phlaeas,species,Small Copper,1,25.2327861785889,57.3168296813965,Europe,Latvia,Latvia - Gauja NP,2019-07-21,12:52
34646,Eumedonia eumedon,species,Geranium Argus,1,25.2,57.3,Europe,Latvia,Latvia - Gauja NP,2019-07-21,13:02
34647,Coenonympha glycerion,species,Chestnut Heath,1,25.2329578399658,57.3167495727539,Europe,Latvia,Latvia - Gauja NP,2019-07-21,13:02
34648,Vanessa cardui,species,Painted Lady,1,25.2352256774902,57.3161125183106,Europe,Latvia,Latvia - Gauja NP,2019-07-21,13:24
34649,Argynnis paphia,species,Silver-washed Fritillary,1,25.2356338500977,57.3163757324219,Europe,Latvia,Latvia - Gauja NP,2019-07-21,13:27
73976,Argynnis paphia,species,Silver-washed Fritillary,1,25.2605489641428,57.3607235312515,Europe,Latvia,Latvia - Gauja NP,2019-07-18,15:27
73977,Limenitis camilla,species,White Admiral,1,25.2604681625962,57.360732391948,Europe,Latvia,Latvia - Gauja NP,2019-07-18,16:53
73978,Satyrium w-album,species,White-letter Hairstreak,1,25.2356185913086,57.3163681030273,Europe,Latvia,Latvia - Gauja NP,2019-07-19,09:45
73980,Pieris napi,species,Green-veined White,1,25.2277030944824,57.3171272277832,Europe,Latvia,Latvia - Gauja NP,2019-07-19,09:58
73981,Leptidea spec.,multispecies,,1,25.0958042144775,57.3532562255859,Europe,Latvia,Latvia - Gauja NP,2019-07-20,18:47
73982,Satyrium w-album,species,White-letter Hairstreak,1,25.0959777832031,57.3536911010742,Europe,Latvia,Latvia - Gauja NP,2019-07-20,18:52
73983,Issoria lathonia,species,Queen of Spain Fritillary,1,25.0962505340576,57.3542633056641,Europe,Latvia,Latvia - Gauja NP,2019-07-20,18:57
81471,Oenanthe oenanthe oenanthe,subspecies,Northern Wheatear ssp oenanthe,1,21.52880333,57.40088667,Europe,Latvia,Latvia - Ventspils,2019-05-23,11:22
84799,Primula veris,species,Cowslip,1,21.24,56.91,Europe,Latvia,Latvia - Kurzeme,2019-05-22,19:24
84983,Anthyllis vulneraria,species,Kidney Vetch,1,21.15147667,56.143395,Europe,Latvia,Latvia - Liepaja,2019-05-22,15:32
87914,Emberiza citrinella citrinella,subspecies,Yellowhammer ssp citrinella,1,21.242939,56.91610336,Europe,Latvia,Latvia - Liepaja,2019-05-22,21:33
88711,Coenonympha pamphilus,species,Small Heath,1,21.24225,56.91607667,Europe,Latvia,Latvia - Liepaja,2019-05-22,19:24
89206,Iris pseudacorus,species,Yellow Iris,1,21.03027778,56.49333333,Europe,Latvia,Latvia - Liepaja,2019-05-22,17:22
11209,Cuculus canorus,species,Common Cuckoo,1,26.9131278991699,56.6905975341797,Europe,Latvia,Latvia - Rezekne,2019-07-16,07:58
11210,Carpodacus erythrinus,species,Common Rosefinch,1,26.9158172607422,56.6894721984863,Europe,Latvia,Latvia - Rezekne,2019-07-16,08:24
11211,Acrocephalus arundinaceus,species,Great Reed Warbler,1,26.9106960296631,56.6916809082031,Europe,Latvia,Latvia - Rezekne,2019-07-16,08:33
11212,Acrocephalus arundinaceus,species,Great Reed Warbler,1,26.8855857849121,56.6934585571289,Europe,Latvia,Latvia - Rezekne,2019-07-16,09:24
11214,Pandion haliaetus,species,Western Osprey,1,26.9081382751465,56.6917877197266,Europe,Latvia,Latvia - Rezekne,2019-07-16,10:18
11215,Haliaeetus albicilla,species,White-tailed Eagle,1,26.8885478973389,56.6995353698731,Europe,Latvia,Latvia - Rezekne,2019-07-16,10:42
11216,Calidris alpina,species,Dunlin,1,26.9428176879883,56.7847328186035,Europe,Latvia,Latvia - Rezekne,2019-07-16,14:06
11218,Cygnus cygnus,species,Whooper Swan,1,26.9696636199951,56.7649650573731,Europe,Latvia,Latvia - Rezekne,2019-07-16,14:20
11219,Neovison vison,species,American Mink,5,26.9698325917125,56.70919386801,Europe,Latvia,Latvia - Rezekne,2019-07-16,15:00
11220,Haliaeetus albicilla,species,White-tailed Eagle,1,26.9803695678711,56.6814804077148,Europe,Latvia,Latvia - Rezekne,2019-07-16,15:40
11221,Remiz pendulinus,species,Eurasian Penduline Tit,1,26.95,56.65,Europe,Latvia,Latvia - Rezekne,2019-07-16,16:04
46089,Cuculus canorus,species,Common Cuckoo,1,26.9726409912109,56.6776237487793,Europe,Latvia,Latvia - Rezekne,2019-07-15,09:53
46090,Vaccinium uliginosum,species,Bog Bilberry,1,26.9499855041504,56.7192077636719,Europe,Latvia,Latvia - Rezekne,2019-07-15,11:17
46091,Arichanna melanaria,species,,1,26.9479575008154,56.7185423136901,Europe,Latvia,Latvia - Rezekne,2019-07-15,11:45
46092,Zootoca vivipara,species,Common Lizard,1,26.9545230865479,56.7179794311523,Europe,Latvia,Latvia - Rezekne,2019-07-15,11:49
46093,Rhododendron tomentosum,species,Labrador-tea,1000,26.9522724151611,56.7194061279297,Europe,Latvia,Latvia - Rezekne,2019-07-15,12:01
46094,Plebejus argus/idas,multispecies,,100,26.949499130249,56.7189102172852,Europe,Latvia,Latvia - Rezekne,2019-07-15,12:16
46097,Pandion haliaetus,species,Western Osprey,1,26.9722099304199,56.677661895752,Europe,Latvia,Latvia - Rezekne,2019-07-15,13:03
25052,Pandion haliaetus,species,Western Osprey,1,21.97425957,56.67013383,Europe,Latvia,Latvia - Kuldiga,2019-06-12,18:30
61343,Capreolus capreolus,species,European Roe Deer,1,21.41160774,57.03086472,Europe,Latvia,Latvia - Ventspils,2019-05-23,09:54
61344,Grus grus,species,Common Crane,2,21.5779991149902,57.2777938842773,Europe,Latvia,Latvia - Ventspils,2019-05-23,10:27
61345,Mergus merganser merganser,subspecies,Common Merganser ssp merganser,5,21.53187752,57.39943695,Europe,Latvia,Latvia - Ventspils,2019-05-23,11:03
61346,Clangula hyemalis,species,Long-tailed Duck,1,21.53189278,57.39943695,Europe,Latvia,Latvia - Ventspils,2019-05-23,11:03
61347,Cygnus olor,species,Mute Swan,10,21.5311965942383,57.3991088867188,Europe,Latvia,Latvia - Ventspils,2019-05-23,11:04
61348,Corvus cornix cornix,subspecies,Hooded Crow ssp cornix,1,21.53046989,57.39956665,Europe,Latvia,Latvia - Ventspils,2019-05-23,11:11
61349,Bucephala clangula clangula,subspecies,Common Goldeneye ssp clangula,2,21.52881241,57.40082932,Europe,Latvia,Latvia - Ventspils,2019-05-23,11:19
61350,Aythya fuligula,species,Tufted Duck,2,21.5288505554199,57.4008331298828,Europe,Latvia,Latvia - Ventspils,2019-05-23,11:19
61351,Melanitta nigra,species,Common Scoter,1,21.5288753509521,57.4008331298828,Europe,Latvia,Latvia - Ventspils,2019-05-23,11:20
61352,Clangula hyemalis,species,Long-tailed Duck,1,21.52886391,57.40082932,Europe,Latvia,Latvia - Ventspils,2019-05-23,11:20
61353,Branta leucopsis,species,Barnacle Goose,1,21.52466965,57.40526199,Europe,Latvia,Latvia - Ventspils,2019-05-23,11:40
61354,Mergus merganser merganser,subspecies,Common Merganser ssp merganser,7,21.52466965,57.40526199,Europe,Latvia,Latvia - Ventspils,2019-05-23,11:40
61359,Linaria cannabina cannabina,subspecies,Common Linnet ssp cannabina,2,21.24190903,56.9161377,Europe,Latvia,Latvia - Liepaja,2019-05-23,07:14
61360,Larus canus canus,subspecies,Mew Gull ssp canus,1,21.24159622,56.91630554,Europe,Latvia,Latvia - Kurzeme,2019-05-23,09:28
61380,Motacilla flava flava,subspecies,Blue-headed Wagtail,1,21.0305881500244,56.4931945800781,Europe,Latvia,Latvia - Liepaja,2019-05-22,17:26
61381,Larus argentatus,species,European Herring Gull,1,21.0306243896484,56.4932098388672,Europe,Latvia,Latvia - Liepaja,2019-05-22,17:28
61382,Acrocephalus schoenobaenus,species,Sedge Warbler,1,21.03059769,56.49321747,Europe,Latvia,Latvia - Liepaja,2019-05-22,17:30
61383,Emberiza citrinella citrinella,subspecies,Yellowhammer ssp citrinella,1,21.21670914,56.83362961,Europe,Latvia,Latvia - Liepaja,2019-05-22,18:54
61391,Emberiza schoeniclus schoeniclus,subspecies,Common Reed Bunting ssp schoeniclus,1,21.02701187,56.4944458,Europe,Latvia,Latvia - Liepaja,2019-05-22,17:18
61392,Acrocephalus scirpaceus scirpaceus,subspecies,Eurasian Reed Warbler ssp scirpaceus,1,21.02699471,56.49443436,Europe,Latvia,Latvia - Liepaja,2019-05-22,17:18
49618,Cygnus cygnus,species,Whooper Swan,4,26.977617703403325,56.67669876018229,Europe,Latvia,Latvia - Rezekne,2019-06-27,16:44
49619,Haliaeetus albicilla,species,White-tailed Eagle,1,26.977325426439734,56.6766715609065,Europe,Latvia,Latvia - Rezekne,2019-06-27,16:44
49623,Haliaeetus albicilla,species,White-tailed Eagle,13,26.862391977440403,56.72385171295417,Europe,Latvia,Latvia - Rezekne,2019-06-27,22:14
49624,Acrocephalus arundinaceus,species,Great Reed Warbler,1,26.89479527997495,56.70861721509761,Europe,Latvia,Latvia - Rezekne,2019-06-27,22:11
49625,Cygnus cygnus,species,Whooper Swan,2,26.894831322158588,56.70861025811798,Europe,Latvia,Latvia - Rezekne,2019-06-27,22:10
89253,Grus grus,species,Common Crane,1,21.08505707,56.47567095,Europe,Latvia,Latvia - Liepaja,2019-06-13,17:30
120431,Ficedula hypoleuca,species,European Pied Flycatcher,1,23.13503265,57.26234429,Europe,Latvia,Latvia - Tukums,2019-06-24,
120450,Hydrocoloeus minutus,species,Little Gull,60,23.12777281,57.26729217,Europe,Latvia,Latvia - Tukums,2019-06-24,
122017,Ficedula hypoleuca,species,European Pied Flycatcher,3,23.1337108612061,57.2668113708496,Europe,Latvia,Latvia - Tukums,2019-06-12,11:28
122018,Hydrocoloeus minutus,species,Little Gull,40,23.1263672187924,57.2715153944821,Europe,Latvia,Latvia - Tukums,2019-06-12,12:16
122019,Sterna hirundo,species,Common Tern,3,23.1263672187924,57.2715153944821,Europe,Latvia,Latvia - Tukums,2019-06-12,12:16
122020,Delichon urbicum,species,Common House Martin,6,23.1263672187924,57.2715153944821,Europe,Latvia,Latvia - Tukums,2019-06-12,12:16
122021,Hirundo rustica,species,Barn Swallow,1,23.1263672187924,57.2715153944821,Europe,Latvia,Latvia - Tukums,2019-06-12,12:17
122022,Caprimulgus europaeus,species,European Nightjar,2,23.144510269165,57.2608337402344,Europe,Latvia,Latvia - Tukums,2019-06-12,14:07
122023,Cygnus cygnus,species,Whooper Swan,100,21.99052238,56.6854248,Europe,Latvia,Latvia - Kuldiga,2019-06-12,17:32
122024,Cygnus olor,species,Mute Swan,20,21.99049377,56.68543243,Europe,Latvia,Latvia - Kuldiga,2019-06-12,17:32
122025,Haliaeetus albicilla,species,White-tailed Eagle,1,21.9803161621094,56.6864128112793,Europe,Latvia,Latvia - Kuldiga,2019-06-12,17:49
122026,Saxicola rubetra,species,Whinchat,1,21.0178676247597,56.449350284187,Europe,Latvia,Latvia - Liepaja,2019-06-13,11:09
122027,Circus aeruginosus,species,Western Marsh Harrier,1,21.0179534554482,56.4499806640264,Europe,Latvia,Latvia - Liepaja,2019-06-13,11:09
122028,Lanius collurio,species,Red-backed Shrike,2,21.03746083,56.46523945,Europe,Latvia,Latvia - Liepaja,2019-06-13,12:00
122029,Chlidonias niger,species,Black Tern,5,21.0365740209818,56.4218413119755,Europe,Latvia,Latvia - Liepaja,2019-06-13,13:55
122030,Circus aeruginosus,species,Western Marsh Harrier,1,21.035314053297,56.4223762809978,Europe,Latvia,Latvia - Liepaja,2019-06-13,14:26
122031,Lanius collurio,species,Red-backed Shrike,2,21.0339518263936,56.4233273390617,Europe,Latvia,Latvia - Liepaja,2019-06-13,14:35
122032,Grus grus,species,Common Crane,1,21.0262354463339,56.4286807458747,Europe,Latvia,Latvia - Liepaja,2019-06-13,14:41
122033,Remiz pendulinus,species,Eurasian Penduline Tit,1,21.0,56.4,Europe,Latvia,Latvia - Liepaja,2019-06-13,14:44
122034,Saxicola rubetra,species,Whinchat,1,21.0366125777364,56.4260503969863,Europe,Latvia,Latvia - Liepaja,2019-06-13,15:06
122035,Circus aeruginosus,species,Western Marsh Harrier,1,21.0335426330566,56.422664642334,Europe,Latvia,Latvia - Liepaja,2019-06-13,15:33
122036,Sylvia nisoria,species,Barred Warbler,1,21.0242318361998,56.4248871043887,Europe,Latvia,Latvia - Liepaja,2019-06-13,15:54
122037,Lanius collurio,species,Red-backed Shrike,1,21.0887451171875,56.4035797119141,Europe,Latvia,Latvia - Liepaja,2019-06-13,17:15
122038,Saxicola rubetra,species,Whinchat,1,21.0885887145996,56.4035835266113,Europe,Latvia,Latvia - Liepaja,2019-06-13,17:24
122039,Lanius collurio,species,Red-backed Shrike,2,21.0354804992676,56.4653930664062,Europe,Latvia,Latvia - Liepaja,2019-06-13,11:52
122040,Chlidonias niger,species,Black Tern,5,21.0359044745564,56.4215880103266,Europe,Latvia,Latvia - Liepaja,2019-06-13,14:02
122041,Lanius collurio,species,Red-backed Shrike,1,21.0337949171662,56.4222720692515,Europe,Latvia,Latvia - Liepaja,2019-06-13,14:29
122042,Remiz pendulinus,species,Eurasian Penduline Tit,1,21.0,56.4,Europe,Latvia,Latvia - Liepaja,2019-06-13,14:44
122043,Sylvia nisoria,species,Barred Warbler,1,21.0243823751807,56.4246506961394,Europe,Latvia,Latvia - Liepaja,2019-06-13,15:56
122044,Lanius collurio,species,Red-backed Shrike,1,21.088659286499,56.403564453125,Europe,Latvia,Latvia - Liepaja,2019-06-13,17:16
122045,Saxicola rubetra,species,Whinchat,1,21.0889123007655,56.4037285894509,Europe,Latvia,Latvia - Liepaja,2019-06-13,17:25
4558,Hydrocoloeus minutus,species,Little Gull,40,23.1267147064209,57.2716102600098,Europe,Latvia,Latvia - Tukums,2019-06-12,12:15
4559,Delichon urbicum,species,Common House Martin,8,23.1267051696777,57.2715911865234,Europe,Latvia,Latvia - Tukums,2019-06-12,12:19
4560,Hirundo rustica,species,Barn Swallow,4,23.1266918182373,57.2715950012207,Europe,Latvia,Latvia - Tukums,2019-06-12,12:20
4561,Caprimulgus europaeus,species,European Nightjar,2,23.144458770752,57.2608680725098,Europe,Latvia,Latvia - Tukums,2019-06-12,14:07
4562,Cygnus cygnus,species,Whooper Swan,100,21.993772611022,56.6911018342893,Europe,Latvia,Latvia - Kuldiga,2019-06-12,17:41
19017,Ficedula hypoleuca,species,European Pied Flycatcher,2,23.1338272094727,57.2668151855469,Europe,Latvia,Latvia - Tukums,2019-06-12,11:29
32559,Pyrola rotundifolia,species,Round-leaved Wintergreen,1,22.3264789581299,57.6924743652344,Europe,Latvia,Latvia - Slitere NP,2019-06-11,13:27
32560,Pulsatilla vulgaris,species,Pasqueflower,1,22.32,57.69,Europe,Latvia,Latvia - Slitere NP,2019-06-11,13:31
32561,Honckenya peploides,species,Sea Sandwort,1,22.3271064758301,57.692798614502,Europe,Latvia,Latvia - Slitere NP,2019-06-11,13:41
32562,Epipactis atrorubens,species,Dark-red Helleborine,1,22.3,57.65,Europe,Latvia,Latvia - Slitere NP,2019-06-11,15:08
32563,Maianthemum bifolium,species,May Lily,1,22.6018753051758,57.757209777832,Europe,Latvia,Latvia - Slitere NP,2019-06-11,15:10
35837,Carpodacus erythrinus,species,Common Rosefinch,1,24.3397579193115,57.8339538574219,Europe,Latvia,Latvia - Limbaži,2019-06-10,17:28
35838,Lanius collurio,species,Red-backed Shrike,1,24.3397560119629,57.8339538574219,Europe,Latvia,Latvia - Limbaži,2019-06-10,17:28
35839,Thalasseus sandvicensis,species,Sandwich Tern,10,24.3376140594482,57.8335075378418,Europe,Latvia,Latvia - Limbaži,2019-06-10,17:41
35840,Dendrocoptes medius,species,Middle Spotted Woodpecker,2,24.6461086273193,57.334156036377,Europe,Latvia,Latvia - Limbaži,2019-06-11,13:13
38329,Lanius collurio,species,Red-backed Shrike,2,24.3398036956787,57.8339309692383,Europe,Latvia,Latvia - Limbaži,2019-06-10,17:28
38330,Carpodacus erythrinus,species,Common Rosefinch,1,24.3397884368896,57.8339462280273,Europe,Latvia,Latvia - Limbaži,2019-06-10,17:28
38331,Thalasseus sandvicensis,species,Sandwich Tern,25,24.3344884738326,57.8357585053611,Europe,Latvia,Latvia - Limbaži,2019-06-10,17:31
12246,Lanius collurio,species,Red-backed Shrike,1,26.3528003692627,56.749626159668,Europe,Latvia,Latvia - Madona,2019-06-01,11:35
46119,Jynx torquilla,species,Eurasian Wryneck,2,25.7421184703708,57.674995248155,Europe,Latvia,Latvia - Valka,2019-06-04,11:37
48615,Jynx torquilla,species,Eurasian Wryneck,1,25.7424068450928,57.6751823425293,Europe,Latvia,Latvia - Valka,2019-06-04,11:37
48616,Emberiza schoeniclus,species,Common Reed Bunting,1,25.7182846069336,57.7102966308594,Europe,Latvia,Latvia - Valka,2019-06-04,14:00
48617,Sterna hirundo,species,Common Tern,1,25.7183418273926,57.7102508544922,Europe,Latvia,Latvia - Valka,2019-06-04,14:05
71070,Haliaeetus albicilla,species,White-tailed Eagle,1,26.968879699707,56.7639999389648,Europe,Latvia,Latvia - Rezekne,2019-06-03,12:25
73530,Cuculus canorus,species,Common Cuckoo,1,26.8386726379395,56.889575958252,Europe,Latvia,Latvia - Madona,2019-06-03,07:49
73531,Gallinago gallinago,species,Common Snipe,1,26.7584319412708,56.902807496551,Europe,Latvia,Latvia - Madona,2019-06-03,09:57
73532,Haliaeetus albicilla,species,White-tailed Eagle,1,26.8918949738145,56.8212573748962,Europe,Latvia,Latvia - Madona,2019-06-03,10:44
73533,Muscicapa striata,species,Spotted Flycatcher,1,26.9076461791992,56.816837310791,Europe,Latvia,Latvia - Madona,2019-06-03,11:20
73534,Haliaeetus albicilla,species,White-tailed Eagle,1,26.9232416152954,56.76437354792,Europe,Latvia,Latvia - Rezekne,2019-06-03,11:47
73535,Cygnus cygnus,species,Whooper Swan,1,26.9504051208496,56.7721214294434,Europe,Latvia,Latvia - Rezekne,2019-06-03,11:50
73536,Streptopelia turtur,species,European Turtle Dove,2,26.7160905897617,56.8704531152428,Europe,Latvia,Latvia - Madona,2019-06-03,15:40
79703,Gallinago gallinago,species,Common Snipe,1,26.7577825114131,56.9025876153974,Europe,Latvia,Latvia - Madona,2019-06-03,09:57
79704,Muscicapa striata,species,Spotted Flycatcher,1,26.9075965881348,56.8167495727539,Europe,Latvia,Latvia - Madona,2019-06-03,11:20
100174,Lanius collurio,species,Red-backed Shrike,2,26.491060256958,56.7742156982422,Europe,Latvia,Latvia - Madona,2019-06-01,10:15
100175,Calopteryx splendens,species,Banded Demoiselle,10,26.4382476806641,56.771369934082,Europe,Latvia,Latvia - Madona,2019-06-01,10:51
100176,Lanius collurio,species,Red-backed Shrike,1,26.352810524404,56.7498726921118,Europe,Latvia,Latvia - Madona,2019-06-01,11:39
100177,Graphosoma italicum,species,Striped shield bug,30,26.5147705078125,56.8097457885742,Europe,Latvia,Latvia - Madona,2019-06-02,14:04
100178,Vulpes vulpes,species,Red Fox,1,26.5,56.8,Europe,Latvia,Latvia - Madona,2019-06-02,14:10
18109,Acrocephalus arundinaceus,species,Great Reed Warbler,1,26.9953479766846,56.6757125854492,Europe,Latvia,Latvia - Rezekne,2019-05-30,14:20
18110,Podiceps grisegena,species,Red-necked Grebe,1,26.9953594207764,56.675708770752,Europe,Latvia,Latvia - Rezekne,2019-05-30,14:21
18111,Pandion haliaetus,species,Western Osprey,1,26.995361328125,56.675708770752,Europe,Latvia,Latvia - Rezekne,2019-05-30,14:21
18112,Cygnus cygnus,species,Whooper Swan,2,26.9953632354736,56.675708770752,Europe,Latvia,Latvia - Rezekne,2019-05-30,14:21
18114,Haliaeetus albicilla,species,White-tailed Eagle,1,27.022743858397,56.7299385513386,Europe,Latvia,Latvia - Rezekne,2019-05-30,17:37
18115,Cygnus cygnus,species,Whooper Swan,100,26.9796380773187,56.694803155812,Europe,Latvia,Latvia - Rezekne,2019-05-30,17:39
18116,Pandion haliaetus,species,Western Osprey,2,26.9048976525664,56.7531443604806,Europe,Latvia,Latvia - Rezekne,2019-05-30,18:08
18117,Spatula querquedula,species,Garganey,1,26.7679061889648,56.7150917053223,Europe,Latvia,Latvia - Madona,2019-05-30,18:38
18118,Pandion haliaetus,species,Western Osprey,1,26.7984696105123,56.7334015682438,Europe,Latvia,Latvia - Rezekne,2019-05-30,18:41
18119,Carpodacus erythrinus,species,Common Rosefinch,1,26.7678871154785,56.7151145935059,Europe,Latvia,Latvia - Madona,2019-05-30,19:03
18120,Lanius collurio,species,Red-backed Shrike,1,26.7370872497559,56.7988891601563,Europe,Latvia,Latvia - Madona,2019-05-31,12:36
18121,Saxicola rubetra,species,Whinchat,2,26.7662754058838,56.7912902832031,Europe,Latvia,Latvia - Madona,2019-05-31,12:50
18122,Alauda arvensis,species,Eurasian Skylark,1,26.8452415466309,56.8154296875,Europe,Latvia,Latvia - Madona,2019-05-31,14:01
18123,Spatula querquedula,species,Garganey,2,26.8486404418945,56.814525604248,Europe,Latvia,Latvia - Madona,2019-05-31,14:04
18124,Cuculus canorus,species,Common Cuckoo,1,26.8540714681148,56.8105357931004,Europe,Latvia,Latvia - Madona,2019-05-31,15:00
18125,Pandion haliaetus,species,Western Osprey,1,26.8628261983395,56.8071213678679,Europe,Latvia,Latvia - Madona,2019-05-31,15:00
34903,Cygnus cygnus,species,Whooper Swan,6,26.9943656921387,56.6758193969727,Europe,Latvia,Latvia - Rezekne,2019-05-30,14:28
34904,Spatula querquedula,species,Garganey,2,26.849157333374,56.8144035339356,Europe,Latvia,Latvia - Madona,2019-05-31,14:06
63484,Carpodacus erythrinus,species,Common Rosefinch,1,26.7432556152344,55.7525367736816,Europe,Latvia,Latvia - Daugavpils,2019-05-29,13:37
63485,Lanius collurio,species,Red-backed Shrike,1,26.7416718229651,55.7493548815949,Europe,Latvia,Latvia - Daugavpils,2019-05-29,14:02
63486,Carpodacus erythrinus,species,Common Rosefinch,2,26.6961212158203,55.7398452758789,Europe,Latvia,Latvia - Daugavpils,2019-05-29,14:22
63487,Lullula arborea,species,Woodlark,1,26.6948928833008,55.7394638061523,Europe,Latvia,Latvia - Daugavpils,2019-05-29,14:31
63488,Carpodacus erythrinus,species,Common Rosefinch,1,26.6948261260986,55.7369728088379,Europe,Latvia,Latvia - Daugavpils,2019-05-29,14:49
63489,Lanius collurio,species,Red-backed Shrike,1,26.6945648193359,55.7376251220703,Europe,Latvia,Latvia - Daugavpils,2019-05-29,14:55
63490,Saxicola rubetra,species,Whinchat,1,26.6948547363281,55.7378730773926,Europe,Latvia,Latvia - Daugavpils,2019-05-29,15:03
63491,Phylloscopus sibilatrix,species,Wood Warbler,1,26.7823874205351,55.7266845145477,Europe,Latvia,Latvia - Daugavpils,2019-05-30,09:08
77297,Carpodacus erythrinus,species,Common Rosefinch,1,26.7421455383301,55.7521743774414,Europe,Latvia,Latvia - Daugavpils,2019-05-29,13:49
77298,Lanius collurio,species,Red-backed Shrike,1,26.7409954071045,55.7491798400879,Europe,Latvia,Latvia - Daugavpils,2019-05-29,14:01
77299,Carpodacus erythrinus,species,Common Rosefinch,1,26.7410087585449,55.7486991882324,Europe,Latvia,Latvia - Daugavpils,2019-05-29,14:03
77300,Lanius collurio,species,Red-backed Shrike,1,26.6940642893314,55.7381077928899,Europe,Latvia,Latvia - Daugavpils,2019-05-29,14:54
86598,Pandion haliaetus,species,Western Osprey,1,23.5466594696045,56.9572677612305,Europe,Latvia,Latvia - Kemeru NP,2019-05-28,09:09
86600,Acrocephalus arundinaceus,species,Great Reed Warbler,1,23.5468306392431,56.9576953156642,Europe,Latvia,Latvia - Kemeru NP,2019-05-28,09:25
86602,Motacilla alba,species,White Wagtail,1,23.5470523834229,56.9576263427734,Europe,Latvia,Latvia - Kemeru NP,2019-05-28,09:28
86603,Carpodacus erythrinus,species,Common Rosefinch,1,23.5229894891381,56.9502577801835,Europe,Latvia,Latvia - Kemeru NP,2019-05-28,09:48
86604,Saxicola rubetra,species,Whinchat,1,25.6807537078857,56.1939353942871,Europe,Latvia,Latvia - Jekabpils,2019-05-28,15:52
86606,Emberiza citrinella,species,Yellowhammer,1,25.6806659698486,56.1939353942871,Europe,Latvia,Latvia - Jekabpils,2019-05-28,16:12
86608,Ciconia ciconia,species,White Stork,3,25.6824463605881,56.1969716580325,Europe,Latvia,Latvia - Jekabpils,2019-05-28,16:12
86611,Motacilla flava,species,Western Yellow Wagtail,1,26.1790237426758,56.0689659118652,Europe,Latvia,Latvia - Daugavpils,2019-05-28,19:17
86677,Saxicola rubetra,species,Whinchat,1,25.6807632446289,56.1939544677734,Europe,Latvia,Latvia - Jekabpils,2019-05-28,15:55
100560,Carpodacus erythrinus,species,Common Rosefinch,1,23.5232892259955,56.9497212987846,Europe,Latvia,Latvia - Kemeru NP,2019-05-28,09:49
102130,Acrocephalus arundinaceus,species,Great Reed Warbler,1,23.5466740652919,56.957667528225,Europe,Latvia,Latvia - Kemeru NP,2019-05-27,19:04
102131,Pandion haliaetus,species,Western Osprey,2,23.5470905303955,56.9576377868652,Europe,Latvia,Latvia - Kemeru NP,2019-05-27,19:30
102132,Emberiza schoeniclus,species,Common Reed Bunting,1,23.5466841235757,56.9576560110566,Europe,Latvia,Latvia - Kemeru NP,2019-05-27,19:42
102133,Acrocephalus arundinaceus,species,Great Reed Warbler,1,23.4709697216749,56.9976260126831,Europe,Latvia,Latvia - Kemeru NP,2019-05-27,20:21
102134,Carpodacus erythrinus,species,Common Rosefinch,1,23.4715812653303,56.9955881436384,Europe,Latvia,Latvia - Kemeru NP,2019-05-27,20:21
91394,Emberiza schoeniclus schoeniclus,subspecies,Common Reed Bunting ssp schoeniclus,1,21.02701187,56.4944458,Europe,Latvia,Latvia - Liepaja,2019-05-22,17:18
91395,Acrocephalus scirpaceus scirpaceus,subspecies,Eurasian Reed Warbler ssp scirpaceus,1,21.02699471,56.49443436,Europe,Latvia,Latvia - Liepaja,2019-05-22,17:18
91396,Motacilla flava flava,subspecies,Blue-headed Wagtail,1,21.0305881500244,56.4931945800781,Europe,Latvia,Latvia - Liepaja,2019-05-22,17:26
91397,Larus argentatus,species,European Herring Gull,1,21.0306243896484,56.4932098388672,Europe,Latvia,Latvia - Liepaja,2019-05-22,17:28
91398,Acrocephalus schoenobaenus,species,Sedge Warbler,1,21.03059769,56.49321747,Europe,Latvia,Latvia - Liepaja,2019-05-22,17:30
91399,Emberiza citrinella citrinella,subspecies,Yellowhammer ssp citrinella,1,21.21670914,56.83362961,Europe,Latvia,Latvia - Liepaja,2019-05-22,18:54
91400,Larus canus canus,subspecies,Mew Gull ssp canus,1,21.24159622,56.91630554,Europe,Latvia,Latvia - Kurzeme,2019-05-23,09:28
91401,Capreolus capreolus,species,European Roe Deer,1,21.4116077423096,57.0308647155762,Europe,Latvia,Latvia - Ventspils,2019-05-23,09:54
91402,Mergus merganser merganser,subspecies,Common Merganser ssp merganser,5,21.53187752,57.39943695,Europe,Latvia,Latvia - Ventspils,2019-05-23,11:03
91403,Clangula hyemalis,species,Long-tailed Duck,1,21.5318927764893,57.3994369506836,Europe,Latvia,Latvia - Ventspils,2019-05-23,11:03
91404,Cygnus olor,species,Mute Swan,10,21.5311965942383,57.3991088867188,Europe,Latvia,Latvia - Ventspils,2019-05-23,11:04
91405,Corvus cornix cornix,subspecies,Hooded Crow ssp cornix,1,21.53046989,57.39956665,Europe,Latvia,Latvia - Ventspils,2019-05-23,11:11
91406,Bucephala clangula clangula,subspecies,Common Goldeneye ssp clangula,2,21.52881241,57.40082932,Europe,Latvia,Latvia - Ventspils,2019-05-23,11:19
91407,Aythya fuligula,species,Tufted Duck,2,21.5288505554199,57.4008331298828,Europe,Latvia,Latvia - Ventspils,2019-05-23,11:19
91408,Melanitta nigra,species,Common Scoter,1,21.5288753509521,57.4008331298828,Europe,Latvia,Latvia - Ventspils,2019-05-23,11:20
91409,Clangula hyemalis,species,Long-tailed Duck,1,21.5288639068604,57.4008293151855,Europe,Latvia,Latvia - Ventspils,2019-05-23,11:20
91410,Branta leucopsis,species,Barnacle Goose,1,21.52466965,57.40526199,Europe,Latvia,Latvia - Ventspils,2019-05-23,11:40
91411,Mergus merganser merganser,subspecies,Common Merganser ssp merganser,7,21.52466965,57.40526199,Europe,Latvia,Latvia - Ventspils,2019-05-23,11:40
93331,Martes martes,species,Pine Marten,1,25.0,57.25,Europe,Latvia,Latvia - Gauja NP,2019-05-21,16:03
98231,Ornithogalum umbellatum,species,Garden Star-of-Bethlehem,1,24.1119289398193,56.9515113830566,Europe,Latvia,Latvia - Riga,2019-05-22,16:12
98232,Potentilla anserina,species,Silverweed,1,24.1117782592773,56.9516105651856,Europe,Latvia,Latvia - Riga,2019-05-22,16:13
98233,Corvus cornix,species,Hooded Crow,1,24.114574432373,56.9529418945313,Europe,Latvia,Latvia - Riga,2019-05-22,16:35
98234,Plantago media,species,Hoary Plantain,1,24.1150455474853,56.9535713195801,Europe,Latvia,Latvia - Riga,2019-05-22,16:42
30630,Pernis apivorus,species,European Honey Buzzard,6,23.970365524292,56.9723205566406,Europe,Latvia,Latvia - Riga,2019-05-20,09:54
36320,Acrocephalus arundinaceus,species,Great Reed Warbler,1,23.4788455963135,57.0021705627441,Europe,Latvia,Latvia - Kemeru NP,2019-05-19,20:35
73979,Lanius collurio,species,Red-backed Shrike,1,23.97076225,56.97248459,Europe,Latvia,Latvia - Riga,2019-05-13,13:47
60079,Nymphalis antiopa,species,Camberwell Beauty,1,25.0872325897217,57.3280372619629,Europe,Latvia,Latvia - Gauja NP,2019-04-26,14:19
96827,Corvus cornix,species,Hooded Crow,1,23.981803894043,56.927604675293,Europe,Latvia,Latvia - Riga,2019-04-13,14:17
986,Corvus cornix,species,Hooded Crow,1,23.97865486,56.9223671,Europe,Latvia,Latvia - Riga,2019-04-11,14:56
12894,Sturnus vulgaris,species,Common Starling,15,23.977676974631823,56.92193799191799,Europe,Latvia,Latvia - Riga,2019-04-11,16:17
12895,Corvus cornix,species,Hooded Crow,1,23.977505564711965,56.92203392279979,Europe,Latvia,Latvia - Riga,2019-04-11,16:15
38275,Circus aeruginosus,species,Western Marsh Harrier,1,21.019938,56.505808,Europe,Latvia,Latvia - Liepaja,2013-07-13,
2276,Larus argentatus,species,European Herring Gull,4,21.0136464983225,56.5944421221595,Europe,Latvia,Latvia - Kurzeme,2019-03-15,08:59
94785,Gallinago gallinago,species,Common Snipe,1,27.1652,56.5039,Europe,Latvia,Latvia - Rezekne,2013-05-14,
94787,Bucephala clangula,species,Common Goldeneye,2,27.1652,56.5039,Europe,Latvia,Latvia - Rezekne,2013-05-14,
94790,Tringa glareola,species,Wood Sandpiper,1,27.1652,56.5039,Europe,Latvia,Latvia - Rezekne,2013-05-14,
94794,Actitis hypoleucos,species,Common Sandpiper,1,27.1652,56.5039,Europe,Latvia,Latvia - Rezekne,2013-05-14,
94795,Natrix natrix,species,European Grass Snake,1,27.15,56.5,Europe,Latvia,Latvia - Rezekne,2013-05-14,
94866,Oenanthe oenanthe,species,Northern Wheatear,1,26.7206,56.4655,Europe,Latvia,Latvia - Preili,2013-05-13,
94868,Ficedula hypoleuca,species,European Pied Flycatcher,1,26.7206,56.4655,Europe,Latvia,Latvia - Preili,2013-05-13,
94869,Pyrrhula pyrrhula,species,Eurasian Bullfinch,1,26.7206,56.4655,Europe,Latvia,Latvia - Preili,2013-05-13,
94871,Circus pygargus,species,Montagu's Harrier,1,26.7206,56.4655,Europe,Latvia,Latvia - Preili,2013-05-13,
94873,Martes foina,species,Beech Marten,1,26.7206,56.4655,Europe,Latvia,Latvia - Preili,2013-05-12,
94875,Oriolus oriolus,species,Eurasian Golden Oriole,1,26.7206,56.4655,Europe,Latvia,Latvia - Preili,2013-05-11,
94878,Locustella fluviatilis,species,River Warbler,1,26.7206,56.4655,Europe,Latvia,Latvia - Preili,2013-05-10,
94881,Pandion haliaetus,species,Western Osprey,2,26.7206,56.4655,Europe,Latvia,Latvia - Preili,2013-05-10,
94882,Haliaeetus albicilla,species,White-tailed Eagle,1,26.7206,56.4655,Europe,Latvia,Latvia - Preili,2013-05-10,
94884,Tringa glareola,species,Wood Sandpiper,1,26.7206,56.4655,Europe,Latvia,Latvia - Preili,2013-05-10,
94890,Carduelis carduelis,species,European Goldfinch,1,26.7206,56.4655,Europe,Latvia,Latvia - Preili,2013-05-09,
94891,Carpodacus erythrinus,species,Common Rosefinch,1,26.7206,56.4655,Europe,Latvia,Latvia - Preili,2013-05-09,
94893,Cuculus canorus,species,Common Cuckoo,3,26.7206,56.4655,Europe,Latvia,Latvia - Preili,2013-05-09,
94894,Motacilla flava,species,Western Yellow Wagtail,1,26.7206,56.4655,Europe,Latvia,Latvia - Preili,2013-05-09,
94900,Saxicola rubetra,species,Whinchat,2,26.7206,56.4655,Europe,Latvia,Latvia - Preili,2013-05-10,
71772,Pandion haliaetus,species,Western Osprey,1,27.1652,56.5039,Europe,Latvia,Latvia - Rezekne,2013-05-11,
71773,Haliaeetus albicilla,species,White-tailed Eagle,1,27.1652,56.5039,Europe,Latvia,Latvia - Rezekne,2013-05-11,
72148,Sus scrofa,species,Wild Boar,17,27.16519309198849,56.50393850000006,Europe,Latvia,Latvia - Rezekne,2013-05-11,04:06
72152,Castor fiber,species,Eurasian Beaver,2,27.15,56.5,Europe,Latvia,Latvia - Rezekne,2013-05-10,19:36
72157,Lanius collurio,species,Red-backed Shrike,10,27.16519309198849,56.50393850000006,Europe,Latvia,Latvia - Rezekne,2013-05-10,21:43
72159,Nucifraga caryocatactes,species,Spotted Nutcracker,1,27.16519309198849,56.50393850000006,Europe,Latvia,Latvia - Rezekne,2013-05-11,21:43
72183,Caprimulgus europaeus,species,European Nightjar,1,27.16519309198849,56.50393850000006,Europe,Latvia,Latvia - Rezekne,2013-05-14,21:43
114247,Coracias garrulus,species,European Roller,2,24.593058885186156,57.6096905037,Europe,Latvia,Latvia - Limbaži,2013-05-15,09:01
114281,Crex crex,species,Corn Crake,1,26.7,56.45,Europe,Latvia,Latvia - Preili,2013-05-11,06:00
114383,Circus pygargus,species,Montagu's Harrier,1,27.16519309198849,56.50393850000006,Europe,Latvia,Latvia - Rezekne,2013-05-10,09:39
114384,Corvus cornix,species,Hooded Crow,1,27.16519309198849,56.50393850000006,Europe,Latvia,Latvia - Rezekne,2013-05-13,07:45
114386,Dryobates minor,species,Lesser Spotted Woodpecker,1,27.16519309198849,56.50393850000006,Europe,Latvia,Latvia - Rezekne,2013-05-12,07:10
114388,Lyrurus tetrix,species,Black Grouse,3,27.15,56.5,Europe,Latvia,Latvia - Rezekne,2013-05-10,05:29
114393,Oriolus oriolus,species,Eurasian Golden Oriole,1,27.16519309198849,56.50393850000006,Europe,Latvia,Latvia - Rezekne,2013-05-11,10:00
49055,Corvus cornix,species,Hooded Crow,2,24.1014995574951,56.9495010375977,Europe,Latvia,Latvia - Riga,2018-12-09,11:49
54927,Corvus cornix,species,Hooded Crow,1,21.0263271331787,56.5424270629883,Europe,Latvia,Latvia - Liepaja,2018-11-22,10:19
106362,Dendrocopos major,species,Great Spotted Woodpecker,1,24.17564421,56.40328275,Europe,Latvia,Latvia - Bauska,2018-09-15,14:15
36209,Regulus regulus,species,Goldcrest,1,24.1033744812012,56.9743804931641,Europe,Latvia,Latvia - Riga,2018-09-17,09:04
43726,Corvus cornix,species,Hooded Crow,1,24.1060314178467,56.9649505615234,Europe,Latvia,Latvia - Riga,2018-09-16,09:13
43727,Corvus cornix,species,Hooded Crow,4,24.1135940551758,56.9504203796387,Europe,Latvia,Latvia - Riga,2018-09-16,10:49
43728,Sturnus vulgaris,species,Common Starling,2,24.1137104034424,56.9506034851074,Europe,Latvia,Latvia - Riga,2018-09-16,11:09
43729,Corvus cornix,species,Hooded Crow,2,24.1067314147949,56.948902130127,Europe,Latvia,Latvia - Riga,2018-09-16,13:03
57592,Catocala fraxini,species,Clifden Nonpareil,1,21.0,56.15,Europe,Latvia,Latvia - Liepaja,2018-08-23,00:58
16813,Polyommatus icarus,species,Common Blue,1,25.23901463,57.30733862,Europe,Latvia,Latvia - Gauja NP,2018-08-21,
23213,Apatura iris,species,Purple Emperor,1,25.65,57.05,Europe,Latvia,Latvia - Cesis,2018-07-27,
112599,Thalpophila matura,species,Straw Underwing,1,21.0174999237061,56.166389465332,Europe,Latvia,Latvia - Liepaja,2018-08-14,21:58
86111,Libellula quadrimaculata,species,Four-spotted Chaser,1,25.7158265356214,57.7088149684087,Europe,Latvia,Latvia - Valka,2018-08-06,13:57
86112,Sympetrum flaveolum,species,Yellow-winged Darter,1,25.65,57.7,Europe,Latvia,Latvia - Valka,2018-08-06,12:33
86113,Lanius collurio,species,Red-backed Shrike,1,25.6693434342981,57.6979757426844,Europe,Latvia,Latvia - Valka,2018-08-06,12:27
86114,Ciconia ciconia,species,White Stork,1,25.8224513009431,57.5625466090232,Europe,Latvia,Latvia - Valka,2018-08-06,11:58
110743,Lycaena dispar,species,Large Copper,1,24.4,57.3,Europe,Latvia,Latvia - Riga,2018-06-18,10:51
111114,Coenonympha arcania,species,Pearly Heath,1,24.4,57.3,Europe,Latvia,Latvia - Riga,2018-06-18,10:51
111520,Boloria selene,species,Small Pearl-bordered Fritillary,4,24.4,57.35,Europe,Latvia,Latvia - Limbaži,2018-06-17,12:48
114735,Motacilla alba,species,White Wagtail,1,23.456611773021,56.9030888099753,Europe,Latvia,Latvia - Kemeru NP,2018-08-05,17:01
114736,Erebia aethiops,species,Scotch Argus,1,23.4,56.9,Europe,Latvia,Latvia - Kemeru NP,2018-08-05,13:15
114737,Argynnis paphia,species,Silver-washed Fritillary,1,23.4579863213221,56.9451090926835,Europe,Latvia,Latvia - Kemeru NP,2018-08-05,12:57
114738,Veronica longifolia,species,Long-leaved Speedwell,1,25.3565694485096,57.3582498729763,Europe,Latvia,Latvia - Gauja NP,2018-08-04,17:13
114739,Corvus cornix,species,Hooded Crow,1,24.3916859105457,57.2364225565058,Europe,Latvia,Latvia - Riga,2018-08-03,14:49
114740,Mergus merganser,species,Common Merganser,1,24.366986872651,57.5519338623225,Europe,Latvia,Latvia - Limbaži,2018-08-03,12:23
4661,Calliteara pudibunda,species,Pale Tussock,1,25.479625,57.371945,Europe,Latvia,Latvia - Gauja NP,2018-07-25,17:42
4663,Oxybasis glauca,species,Oak-leaved Goosefoot,1,25.4797583333333,57.3718016666667,Europe,Latvia,Latvia - Gauja NP,2018-07-26,13:38
4664,Galeopsis tetrahit,species,Common Hemp-nettle,1,25.480495,57.3723533333333,Europe,Latvia,Latvia - Gauja NP,2018-07-26,18:11
4665,Cameraria ohridella,species,Horse-chestnut leaf-miner,501,25.47952,57.3718533333333,Europe,Latvia,Latvia - Gauja NP,2018-07-29,18:02
4666,Parmelia sulcata,species,Net-marked Parmelia,1,25.4797333333333,57.3717633333333,Europe,Latvia,Latvia - Gauja NP,2018-07-29,18:23
4667,Evernia prunastri,species,Oakmoss lichen,1,25.4797333333333,57.3717633333333,Europe,Latvia,Latvia - Gauja NP,2018-07-29,18:24
4668,Xanthoria parietina,species,Common orange lichen,1,25.4793716666667,57.3719183333333,Europe,Latvia,Latvia - Gauja NP,2018-07-29,18:36
4669,Climacium dendroides,species,Northern tree moss,1,25.48004,57.3727933333333,Europe,Latvia,Latvia - Gauja NP,2018-07-30,16:56
4670,Arctium tomentosum,species,Woolly Burdock,1,25.4796333333333,57.372315,Europe,Latvia,Latvia - Gauja NP,2018-07-30,17:18
4671,Impatiens parviflora,species,Small Balsam,1,25.271845,57.3139233333333,Europe,Latvia,Latvia - Gauja NP,2018-07-30,20:47
4672,Spinulum annotinum,species,Interrupted Clubmoss,1,25.47,57.37,Europe,Latvia,Latvia - Gauja NP,2018-07-31,09:33
4673,Chrysops caecutiens,species,,1,25.476115,57.37486667,Europe,Latvia,Latvia - Gauja NP,2018-07-31,09:43
4674,Paris quadrifolia,species,Herb-Paris,1,25.4769283333333,57.3745333333333,Europe,Latvia,Latvia - Gauja NP,2018-07-31,11:10
4675,Papilio machaon,species,Swallowtail,1,25.4773133333333,57.3728983333333,Europe,Latvia,Latvia - Gauja NP,2018-07-31,15:35
4676,Anthoxanthum aristatum,species,Annual Vernal-grass,1,25.4788266666667,57.3727766666667,Europe,Latvia,Latvia - Gauja NP,2018-07-31,16:48
4677,Asarum europaeum,species,European Wild Ginger,1,24.8395433333333,57.1604716666667,Europe,Latvia,Latvia - Gauja NP,2018-08-01,14:43
4678,Cirsium oleraceum,species,Cabbage Thistle,1,24.8413083333333,57.1603516666667,Europe,Latvia,Latvia - Gauja NP,2018-08-01,16:22
4679,Roeseliana roeselii,species,Roesel's Bush-cricket,1,25.480205,57.3723366666667,Europe,Latvia,Latvia - Gauja NP,2018-08-01,20:09
4680,Succisa pratensis,species,Devil's-bit Scabious,1,25.477115,57.37423,Europe,Latvia,Latvia - Gauja NP,2018-08-02,15:19
4681,Rhytidiadelphus triquetrus,species,Electrified cat's-tail moss,1,25.475015,57.374095,Europe,Latvia,Latvia - Gauja NP,2018-08-02,16:25
4682,Gymnocarpium dryopteris,species,Oak Fern,1,25.47527167,57.373885,Europe,Latvia,Latvia - Gauja NP,2018-08-02,16:48
4683,Rubus saxatilis,species,Stone Bramble,1,25.47,57.37,Europe,Latvia,Latvia - Gauja NP,2018-08-02,17:37
4684,Cirsium arvense,species,Creeping Thistle,1,25.4753133333333,57.3734216666667,Europe,Latvia,Latvia - Gauja NP,2018-08-02,17:45
4685,Cirsium oleraceum,species,Cabbage Thistle,1,25.4800216666667,57.3721616666667,Europe,Latvia,Latvia - Gauja NP,2018-08-03,09:15
4686,Tropaeolum majus,species,Nasturtium,1,25.4322883333333,57.5189933333333,Europe,Latvia,Latvia - Valmiera,2018-08-03,16:56
4687,Atriplex prostrata,species,Spear-leaved Orache,1,25.4324883333333,57.5190966666667,Europe,Latvia,Latvia - Valmiera,2018-08-03,17:10
4688,Stachys palustris,species,Marsh Woundwort,1,25.4795066666667,57.37345,Europe,Latvia,Latvia - Gauja NP,2018-08-04,21:26
5260,Coenonympha glycerion,species,Chestnut Heath,1,24.4,57.35,Europe,Latvia,Latvia - Limbaži,2018-06-17,12:41
5301,Platanthera bifolia,species,Lesser Butterfly-orchid,1,24.4,57.35,Europe,Latvia,Latvia - Limbaži,2018-06-17,12:35
5326,Odezia atrata,species,Chimney Sweeper,5,24.40304518,57.36699888,Europe,Latvia,Latvia - Limbaži,2018-06-17,10:59
5443,Polyommatus amandus,species,Amanda's Blue,1,24.40304518,57.36699888,Europe,Latvia,Latvia - Limbaži,2018-06-17,10:29
5523,Maniola jurtina,species,Meadow Brown,1,24.40304518,57.36699888,Europe,Latvia,Latvia - Limbaži,2018-06-17,09:06
5557,Ochlodes sylvanus,species,Large Skipper,1,24.40304518,57.36699888,Europe,Latvia,Latvia - Limbaži,2018-06-17,08:55
5664,Abraxas sylvata,species,Clouded Magpie,1,24.40304518,57.36699888,Europe,Latvia,Latvia - Limbaži,2018-06-17,08:05
5835,Brenthis ino,species,Lesser Marbled Fritillary,1,24.4,57.35,Europe,Latvia,Latvia - Limbaži,2018-06-17,08:00
36455,Trifolium montanum,species,Mountain clover,1,24.33621573,57.82551331,Europe,Latvia,Latvia - Limbaži,2018-08-02,20:14
36456,Lanius collurio,species,Red-backed Shrike,1,24.3373494688648,57.8303198330643,Europe,Latvia,Latvia - Limbaži,2018-08-02,19:31
54147,Aglais io,species,Peacock,1,24.4302343670506,57.7575676376538,Europe,Latvia,Latvia - Limbaži,2018-08-01,17:23
54149,Plebejus argus,species,Silver-studded Blue,1,24.6411047782978,57.7410933003367,Europe,Latvia,Latvia - Limbaži,2018-08-01,15:19
54150,Thalasseus sandvicensis,species,Sandwich Tern,1,24.3366453889984,57.8304106509852,Europe,Latvia,Latvia - Limbaži,2018-08-01,10:57
54151,Thymelicus sylvestris,species,Small Skipper,1,24.3382781837362,57.8306197794693,Europe,Latvia,Latvia - Limbaži,2018-08-01,10:52
54152,Boloria selene,species,Small Pearl-bordered Fritillary,1,24.3,57.8,Europe,Latvia,Latvia - Limbaži,2018-08-01,10:50
54153,Aglais io,species,Peacock,1,24.3443092145252,57.8338225884902,Europe,Latvia,Latvia - Limbaži,2018-08-01,10:35
65735,Aglais io,species,Peacock,1,24.3499905376684,57.8428603174331,Europe,Latvia,Latvia - Limbaži,2018-07-31,15:38
109096,Corvus cornix,species,Hooded Crow,1,24.1069967,56.9515759,Europe,Latvia,Latvia - Riga,2018-06-29,15:57
109097,Sturnus vulgaris,species,Common Starling,1,24.1069967,56.9515759,Europe,Latvia,Latvia - Riga,2018-06-29,15:57
73478,Lanius collurio,species,Red-backed Shrike,1,23.887716941535476,56.965395687147975,Europe,Latvia,Latvia - Riga,2018-05-29,18:07
73479,Corvus cornix,species,Hooded Crow,20,24.102337919175625,56.95749306119978,Europe,Latvia,Latvia - Riga,2018-05-28,19:41
73480,Corvus cornix,species,Hooded Crow,1,24.101170571520925,56.957615772262216,Europe,Latvia,Latvia - Riga,2018-05-28,19:39
73482,Corvus cornix,species,Hooded Crow,20,24.11379992030561,56.96492487564683,Europe,Latvia,Latvia - Riga,2018-05-28,18:48
73483,Sturnus vulgaris,species,Common Starling,8,24.113817187026143,56.964657912030816,Europe,Latvia,Latvia - Riga,2018-05-28,18:45
73484,Corvus cornix,species,Hooded Crow,1,24.144898373633623,56.94470018148422,Europe,Latvia,Latvia - Riga,2018-05-28,15:48
73485,Corvus cornix,species,Hooded Crow,2,24.11365097388625,56.94419131614268,Europe,Latvia,Latvia - Riga,2018-05-28,13:40
73486,Corvus cornix,species,Hooded Crow,2,24.182357601821423,56.86444915831089,Europe,Latvia,Latvia - Riga,2018-05-28,13:21
51657,Mergus merganser,species,Common Merganser,1,24.35829162,57.633813,Europe,Latvia,Latvia - Limbaži,2018-06-06,13:20
82677,Speyeria aglaja,species,Dark Green Fritillary,4,24.4047533333333,57.36709,Europe,Latvia,Latvia - Limbaži,2018-06-17,13:37
100040,Corvus cornix,species,Hooded Crow,1,24.08794858,56.94091642,Europe,Latvia,Latvia - Riga,2018-06-10,08:34
100041,Sturnus vulgaris,species,Common Starling,2,24.08840925,56.94099311,Europe,Latvia,Latvia - Riga,2018-06-10,08:34
100042,Sturnus vulgaris,species,Common Starling,6,24.08889794,56.93932083,Europe,Latvia,Latvia - Riga,2018-06-10,08:40
100043,Sterna hirundo,species,Common Tern,1,24.08409856,56.9383059,Europe,Latvia,Latvia - Riga,2018-06-10,08:52
100044,Corvus cornix,species,Hooded Crow,1,24.08579716,56.93346839,Europe,Latvia,Latvia - Riga,2018-06-10,09:00
100045,Corvus cornix,species,Hooded Crow,4,24.08549025,56.93292291,Europe,Latvia,Latvia - Riga,2018-06-10,09:01
100046,Corvus cornix,species,Hooded Crow,2,24.08491421,56.93231118,Europe,Latvia,Latvia - Riga,2018-06-10,09:13
100047,Sturnus vulgaris,species,Common Starling,2,24.08491421,56.93231118,Europe,Latvia,Latvia - Riga,2018-06-10,09:13
100048,Corvus cornix,species,Hooded Crow,2,24.09694193,56.93876806,Europe,Latvia,Latvia - Riga,2018-06-10,09:25
100049,Corvus cornix,species,Hooded Crow,1,24.10719758,56.92660411,Europe,Latvia,Latvia - Riga,2018-06-10,09:49
100050,Corvus cornix,species,Hooded Crow,2,24.11085611,56.92752624,Europe,Latvia,Latvia - Riga,2018-06-10,09:53
100051,Sturnus vulgaris,species,Common Starling,3,24.11378508,56.92928261,Europe,Latvia,Latvia - Riga,2018-06-10,09:56
100052,Sturnus vulgaris,species,Common Starling,7,24.12022959,56.93332285,Europe,Latvia,Latvia - Riga,2018-06-10,10:10
100053,Corvus cornix,species,Hooded Crow,2,24.12418669,56.93785546,Europe,Latvia,Latvia - Riga,2018-06-10,10:18
104653,Corvus cornix,species,Hooded Crow,1,24.0848551,56.94430389,Europe,Latvia,Latvia - Riga,2018-06-09,22:11
104654,Corvus cornix,species,Hooded Crow,1,24.08592305,56.94638595,Europe,Latvia,Latvia - Riga,2018-06-09,22:16
104655,Corvus cornix,species,Hooded Crow,2,24.08793543,56.95026832,Europe,Latvia,Latvia - Riga,2018-06-09,22:39
105513,Corvus cornix,species,Hooded Crow,2,24.08949506,56.9418827,Europe,Latvia,Latvia - Riga,2018-06-09,22:00
108190,Corvus cornix,species,Hooded Crow,4,24.11605636,56.95364244,Europe,Latvia,Latvia - Riga,2018-06-09,17:49
108191,Corvus cornix,species,Hooded Crow,4,24.11679689,56.94403654,Europe,Latvia,Latvia - Riga,2018-06-09,20:09
108193,Corvus cornix,species,Hooded Crow,1,24.11705164,56.9430685,Europe,Latvia,Latvia - Riga,2018-06-09,20:12
108195,Corvus cornix,species,Hooded Crow,1,24.12165784,56.94399299,Europe,Latvia,Latvia - Riga,2018-06-09,20:54
114620,Corvus cornix,species,Hooded Crow,1,24.10933429,56.94949685,Europe,Latvia,Latvia - Riga,2018-06-09,15:54
114621,Sturnus vulgaris,species,Common Starling,2,24.11013148,56.95283938,Europe,Latvia,Latvia - Riga,2018-06-09,17:18
114622,Corvus cornix,species,Hooded Crow,1,24.11162631,56.95306724,Europe,Latvia,Latvia - Riga,2018-06-09,17:23
114623,Sturnus vulgaris,species,Common Starling,10,24.11240067,56.95171764,Europe,Latvia,Latvia - Riga,2018-06-09,17:27
114624,Corvus cornix,species,Hooded Crow,2,24.11231723,56.95160549,Europe,Latvia,Latvia - Riga,2018-06-09,17:27
122014,Corvus cornix,species,Hooded Crow,1,24.10587754,56.9494954,Europe,Latvia,Latvia - Riga,2018-06-09,13:03
122015,Corvus cornix,species,Hooded Crow,1,24.1065851,56.94790434,Europe,Latvia,Latvia - Riga,2018-06-09,13:17
369,Corvus cornix,species,Hooded Crow,2,23.99067087,56.91753868,Europe,Latvia,Latvia - Riga,2018-06-09,11:27
371,Corvus cornix,species,Hooded Crow,1,24.12523494,56.93838859,Europe,Latvia,Latvia - Riga,2018-06-09,11:47
372,Corvus cornix,species,Hooded Crow,1,24.10580885,56.9460866,Europe,Latvia,Latvia - Riga,2018-06-09,12:00
68739,Corvus cornix,species,Hooded Crow,1,24.1872093198115,56.9522225417114,Europe,Latvia,Latvia - Riga,2018-06-05,17:08
96861,Sturnus vulgaris,species,Common Starling,4,24.04130243,56.92709256,Europe,Latvia,Latvia - Riga,2018-06-03,19:39
96862,Corvus cornix,species,Hooded Crow,1,24.05300557,56.9277091,Europe,Latvia,Latvia - Riga,2018-06-03,19:40
96863,Corvus cornix,species,Hooded Crow,1,24.05947897,56.92760348,Europe,Latvia,Latvia - Riga,2018-06-03,19:41
27648,Emberiza schoeniclus,species,Common Reed Bunting,1,23.4787,57.0021,Europe,Latvia,Latvia - Kemeru NP,2018-05-16,14:18
19743,Cuculus canorus,species,Common Cuckoo,1,23.5142821,56.95334725,Europe,Latvia,Latvia - Kemeru NP,2018-05-03,11:04
4677,Acrocephalus schoenobaenus,species,Sedge Warbler,1,21.02590027,56.4944565,Europe,Latvia,Latvia - Liepaja,2018-05-03,07:41
4678,Corvus cornix,species,Hooded Crow,1,21.02626395,56.49445624,Europe,Latvia,Latvia - Liepaja,2018-05-03,07:43
4679,Larus argentatus,species,European Herring Gull,1,21.03059623,56.49313394,Europe,Latvia,Latvia - Liepaja,2018-05-03,07:57
28133,Haliaeetus albicilla,species,White-tailed Eagle,8,22.59195957,57.75737495,Europe,Latvia,Latvia - Slitere NP,2018-05-01,11:22
28134,Grus grus,species,Common Crane,2,23.4073949977755,56.8252918999398,Europe,Latvia,Latvia - Kemeru NP,2018-05-01,20:51
66238,Corvus cornix,species,Hooded Crow,3,20.99986734,56.5575995,Europe,Latvia,Latvia - Liepaja,2018-04-29,08:14
66243,Larus argentatus,species,European Herring Gull,16,20.99982308,56.55768332,Europe,Latvia,Latvia - Liepaja,2018-04-29,09:28
66262,Haliaeetus albicilla,species,White-tailed Eagle,1,22.59193107,57.75731198,Europe,Latvia,Latvia - Slitere NP,2018-04-30,10:34
108776,Sturnus vulgaris,species,Common Starling,2,24.10418987,56.95244031,Europe,Latvia,Latvia - Riga,2018-04-20,13:30
28517,Corvus cornix,species,Hooded Crow,4,24.1136763,56.9463135,Europe,Latvia,Latvia - Riga,2018-03-30,17:56
119649,Corvus cornix,species,Hooded Crow,1,23.9744916666667,56.9215183333333,Europe,Latvia,Latvia - Riga,2018-02-12,14:22
119650,Buteo buteo,species,Common Buzzard,2,23.96839142,56.92342077,Europe,Latvia,Latvia - Riga,2018-02-12,15:06
80534,Corvus cornix,species,Hooded Crow,3,27.0009774,56.1331275,Europe,Latvia,Latvia - Preili,2018-02-01,13:10
100406,Corvus cornix,species,Hooded Crow,7,24.21003647,56.89724858,Europe,Latvia,Latvia - Riga,2018-02-02,14:09
100407,Corvus cornix,species,Hooded Crow,2,24.19985491,56.90156452,Europe,Latvia,Latvia - Riga,2018-02-02,14:11
100408,Corvus cornix,species,Hooded Crow,1,24.19826213,56.90226175,Europe,Latvia,Latvia - Riga,2018-02-02,14:11
100409,Corvus cornix,species,Hooded Crow,2,24.19181909,56.90475864,Europe,Latvia,Latvia - Riga,2018-02-02,14:12
100410,Corvus cornix,species,Hooded Crow,2,24.17895564,56.91103703,Europe,Latvia,Latvia - Riga,2018-02-02,14:13
100411,Corvus cornix,species,Hooded Crow,4,24.17646399,56.91362642,Europe,Latvia,Latvia - Riga,2018-02-02,14:13
100412,Corvus cornix,species,Hooded Crow,2,24.17356484,56.91828099,Europe,Latvia,Latvia - Riga,2018-02-02,14:14
100413,Corvus cornix,species,Hooded Crow,1,24.17079734,56.92205581,Europe,Latvia,Latvia - Riga,2018-02-02,14:15
100414,Corvus cornix,species,Hooded Crow,1,24.14631017,56.93292433,Europe,Latvia,Latvia - Riga,2018-02-02,14:17
100415,Corvus cornix,species,Hooded Crow,1,24.13714635,56.93541535,Europe,Latvia,Latvia - Riga,2018-02-02,14:18
100416,Corvus cornix,species,Hooded Crow,2,24.12069849,56.94118962,Europe,Latvia,Latvia - Riga,2018-02-02,14:20
100417,Corvus cornix,species,Hooded Crow,1,24.11872108,56.94607828,Europe,Latvia,Latvia - Riga,2018-02-02,14:22
100418,Corvus cornix,species,Hooded Crow,1,24.11969203,56.9488314,Europe,Latvia,Latvia - Riga,2018-02-02,14:52
100419,Corvus cornix,species,Hooded Crow,1,24.11829167,56.95192318,Europe,Latvia,Latvia - Riga,2018-02-02,14:59
100420,Corvus cornix,species,Hooded Crow,1,24.11884642,56.953529,Europe,Latvia,Latvia - Riga,2018-02-02,15:02
100421,Corvus cornix,species,Hooded Crow,3,24.11605744,56.95369442,Europe,Latvia,Latvia - Riga,2018-02-02,15:09
100422,Corvus cornix,species,Hooded Crow,2,24.11411084,56.95412663,Europe,Latvia,Latvia - Riga,2018-02-02,15:22
100423,Corvus cornix,species,Hooded Crow,3,24.1146836,56.95493101,Europe,Latvia,Latvia - Riga,2018-02-02,15:24
100424,Corvus cornix,species,Hooded Crow,3,24.10949077,56.95524468,Europe,Latvia,Latvia - Riga,2018-02-02,15:48
100425,Corvus cornix,species,Hooded Crow,4,24.10595436,56.95376937,Europe,Latvia,Latvia - Riga,2018-02-02,15:54
100426,Corvus cornix,species,Hooded Crow,2,24.10421749,56.95091829,Europe,Latvia,Latvia - Riga,2018-02-02,16:06
104677,Corvus cornix,species,Hooded Crow,5,27.00592214,56.13051909,Europe,Latvia,Latvia - Preili,2018-02-01,12:02
104678,Corvus cornix,species,Hooded Crow,20,26.6065327450633,55.896372535953,Europe,Latvia,Latvia - Daugavpils,2018-02-01,14:31
104679,Corvus cornix,species,Hooded Crow,2,26.51603808,55.8893173,Europe,Latvia,Latvia - Daugavpils,2018-02-01,14:43
104680,Corvus cornix,species,Hooded Crow,3,26.50708063,55.88483595,Europe,Latvia,Latvia - Daugavpils,2018-02-01,14:43
104681,Corvus cornix,species,Hooded Crow,6,26.51034176,55.87628308,Europe,Latvia,Latvia - Daugavpils,2018-02-01,14:45
104682,Passer montanus,species,Eurasian Tree Sparrow,9,26.51007682,55.8738881,Europe,Latvia,Latvia - Daugavpils,2018-02-01,14:53
111674,Corvus cornix,species,Hooded Crow,6,27.01679691,56.12724832,Europe,Latvia,Latvia - Preili,2018-02-01,10:56
114711,Poecile montanus,species,Willow Tit,2,26.78912937,55.70166127,Europe,Latvia,Latvia - Daugavpils,2018-01-31,08:58
114712,Certhia familiaris,species,Eurasian Treecreeper,1,26.5103952,55.86930303,Europe,Latvia,Latvia - Daugavpils,2018-01-31,15:01
121314,Corvus cornix,species,Hooded Crow,1,26.53892353,55.85727519,Europe,Latvia,Latvia - Daugavpils,2018-01-30,09:52
121315,Alces alces,species,Elk,2,27.65505792,56.03061572,Europe,Latvia,Latvia - Kraslava,2018-01-30,15:33
4895,Poecile palustris,species,Marsh Tit,3,26.78327641,55.69096902,Europe,Latvia,Latvia - Daugavpils,2018-01-29,10:40
4896,Dendrocoptes medius,species,Middle Spotted Woodpecker,1,26.78352993,55.69104907,Europe,Latvia,Latvia - Daugavpils,2018-01-29,10:43
6674,Poecile montanus,species,Willow Tit,1,26.78316638,55.69071824,Europe,Latvia,Latvia - Daugavpils,2018-01-29,10:42
6675,Poecile montanus,species,Willow Tit,1,26.78866299,55.69322926,Europe,Latvia,Latvia - Daugavpils,2018-01-29,10:57
6676,Corvus cornix,species,Hooded Crow,2,26.60357463,55.83462547,Europe,Latvia,Latvia - Daugavpils,2018-01-29,11:36
6677,Corvus cornix,species,Hooded Crow,7,26.54230147,55.85648692,Europe,Latvia,Latvia - Daugavpils,2018-01-29,11:39
6678,Corvus cornix,species,Hooded Crow,3,26.53065476,55.85897677,Europe,Latvia,Latvia - Daugavpils,2018-01-29,11:40
6679,Corvus cornix,species,Hooded Crow,8,26.52193336,55.86084629,Europe,Latvia,Latvia - Daugavpils,2018-01-29,11:40
6680,Corvus cornix,species,Hooded Crow,3,26.51227568,55.8659703,Europe,Latvia,Latvia - Daugavpils,2018-01-29,11:42
6681,Corvus cornix,species,Hooded Crow,1,26.51627457,55.86976722,Europe,Latvia,Latvia - Daugavpils,2018-01-29,11:44
6682,Corvus cornix,species,Hooded Crow,3,26.51703058,55.87156553,Europe,Latvia,Latvia - Daugavpils,2018-01-29,11:45
6683,Passer montanus,species,Eurasian Tree Sparrow,2,26.51440859,55.87062485,Europe,Latvia,Latvia - Daugavpils,2018-01-29,12:53
6684,Corvus cornix,species,Hooded Crow,3,26.50195348,55.8788994,Europe,Latvia,Latvia - Daugavpils,2018-01-29,13:58
6685,Corvus cornix,species,Hooded Crow,1,26.50150515,55.87989574,Europe,Latvia,Latvia - Daugavpils,2018-01-29,13:58
6686,Corvus cornix,species,Hooded Crow,2,26.49572139,55.88231365,Europe,Latvia,Latvia - Daugavpils,2018-01-29,13:59
6687,Corvus cornix,species,Hooded Crow,3,26.4174077,55.93456879,Europe,Latvia,Latvia - Daugavpils,2018-01-29,14:12
6688,Castor fiber,species,Eurasian Beaver,1,26.3,55.85,Europe,Latvia,Latvia - Daugavpils,2018-01-29,15:36
6689,Passer montanus,species,Eurasian Tree Sparrow,1,26.51040207,55.86992753,Europe,Latvia,Latvia - Daugavpils,2018-01-29,16:52
6690,Corvus cornix,species,Hooded Crow,50,26.51220502,55.87024811,Europe,Latvia,Latvia - Daugavpils,2018-01-29,16:55
6806,Phalacrocorax carbo,species,Great Cormorant,1,25.00946947,57.30048986,Europe,Latvia,Latvia - Gauja NP,2013-07-26,
7709,Ciconia ciconia,species,White Stork,1,25.54324005,57.31433104,Europe,Latvia,Latvia - Gauja NP,2013-07-26,
7756,Ciconia ciconia,species,White Stork,3,24.02474613,56.4130898,Europe,Latvia,Latvia - Bauska,2013-07-23,
17382,Buteo buteo,species,Common Buzzard,1,23.8014915,58.87748719,Europe,Latvia,Latvia - Limbaži,2017-10-04,
17383,Corvus corax,species,Northern Raven,1,23.79428172,58.84828383,Europe,Latvia,Latvia - Limbaži,2017-10-04,
25301,Corvus cornix,species,Hooded Crow,2,24.16335368,56.87832265,Europe,Latvia,Latvia - Riga,2017-10-08,
101470,Sympecma paedisca,species,Siberian Winter Damsel,1,21.0294,56.1521,Europe,Latvia,Latvia - Liepaja,2017-08-22,15:21
115734,Boloria dia,species,Violet Fritillary,1,21.0241,56.1552,Europe,Latvia,Latvia - Liepaja,2017-08-22,13:37
115735,Anchusa officinalis,species,Alkanet,1,21.0233,56.155,Europe,Latvia,Latvia - Liepaja,2017-08-22,13:31
115736,Aeshna mixta,species,Migrant Hawker,1,21.0173,56.1643,Europe,Latvia,Latvia - Liepaja,2017-08-22,12:10
115737,Boloria dia,species,Violet Fritillary,1,21.0184,56.1644,Europe,Latvia,Latvia - Liepaja,2017-08-22,12:03
115738,Eupithecia icterata,species,Tawny Speckled Pug,1,21.0208,56.1631,Europe,Latvia,Latvia - Liepaja,2017-08-22,11:42
115739,Oedipoda caerulescens,species,Blue Winged Grasshopper,1,21.0188,56.164,Europe,Latvia,Latvia - Liepaja,2017-08-22,08:21
115740,Hipparchia semele,species,Grayling,1,21.0176,56.1642,Europe,Latvia,Latvia - Liepaja,2017-08-22,08:18
115741,Lycaena tityrus,species,Sooty Copper,1,21.7,57.55,Europe,Latvia,Latvia - Ventspils,2017-08-21,15:29
115742,Lycaena virgaureae,species,Scarce Copper,1,21.7,57.55,Europe,Latvia,Latvia - Ventspils,2017-08-21,15:27
115743,Lycaena phlaeas,species,Small Copper,1,21.7186,57.5695,Europe,Latvia,Latvia - Ventspils,2017-08-21,15:26
115744,Aeshna cyanea,species,Southern Hawker,1,21.7186,57.5696,Europe,Latvia,Latvia - Ventspils,2017-08-21,15:21
115745,Hipparchia semele,species,Grayling,1,21.7186,57.5696,Europe,Latvia,Latvia - Ventspils,2017-08-21,15:21
115746,Maniola jurtina,species,Meadow Brown,1,21.7185,57.5696,Europe,Latvia,Latvia - Ventspils,2017-08-21,15:18
115747,Sympetrum sanguineum,species,Ruddy Darter,1,21.7171,57.5689,Europe,Latvia,Latvia - Ventspils,2017-08-21,15:08
115748,Sphinx pinastri,species,Pine Hawk-moth,1,21.7185,57.5695,Europe,Latvia,Latvia - Ventspils,2017-08-21,14:53
115749,Maianthemum bifolium,species,May Lily,1,22.6008,57.7569,Europe,Latvia,Latvia - Slitere NP,2017-08-21,12:59
115750,Lasiommata megera,species,Wall Brown,1,23.1229,57.3652,Europe,Latvia,Latvia - Talsi,2017-08-21,10:55
115751,Larus argentatus,species,European Herring Gull,1,23.1322,57.3569,Europe,Latvia,Latvia - Talsi,2017-08-21,09:18
115752,Xanthorhoe fluctuata,species,Garden Carpet,1,23.1294,57.3573,Europe,Latvia,Latvia - Talsi,2017-08-20,19:58
14087,Hirundo rustica,species,Barn Swallow,1,23.1298,57.357,Europe,Latvia,Latvia - Talsi,2017-08-20,18:34
14088,Hirundo rustica,species,Barn Swallow,1,23.0357,57.2725,Europe,Latvia,Latvia - Talsi,2017-08-20,18:01
14089,Corvus cornix,species,Hooded Crow,1,24.0235,56.9291,Europe,Latvia,Latvia - Riga,2017-08-20,16:16
14090,Sturnus vulgaris,species,Common Starling,1,24.1863,56.9509,Europe,Latvia,Latvia - Riga,2017-08-20,15:40
120728,Argynnis paphia,species,Silver-washed Fritillary,1,25.0889,57.3624,Europe,Latvia,Latvia - Gauja NP,2017-08-12,12:37
13056,Hepatica nobilis,species,Liverleaf,1,25.18,57.2759,Europe,Latvia,Latvia - Gauja NP,2017-08-11,16:48
13057,Sympetrum vulgatum,species,Moustached Darter,1,25.1816,57.2767,Europe,Latvia,Latvia - Gauja NP,2017-08-11,16:39
13058,Lycaena phlaeas,species,Small Copper,1,25.1807,57.2779,Europe,Latvia,Latvia - Gauja NP,2017-08-11,16:31
13059,Speyeria aglaja,species,Dark Green Fritillary,1,25.1807,57.2782,Europe,Latvia,Latvia - Gauja NP,2017-08-11,16:28
13060,Pieris napi,species,Green-veined White,1,25.1755,57.2817,Europe,Latvia,Latvia - Gauja NP,2017-08-11,16:20
13061,Melampyrum pratense,species,Common Cow-wheat,1,25.1918,57.2901,Europe,Latvia,Latvia - Gauja NP,2017-08-11,15:48
13062,Spinulum annotinum,species,Interrupted Clubmoss,1,25.18,57.29,Europe,Latvia,Latvia - Gauja NP,2017-08-11,15:39
13063,Sympetrum sanguineum,species,Ruddy Darter,1,25.1825,57.2933,Europe,Latvia,Latvia - Gauja NP,2017-08-11,15:36
13064,Limenitis camilla,species,White Admiral,1,25.1766,57.2991,Europe,Latvia,Latvia - Gauja NP,2017-08-11,15:25
13065,Argynnis paphia,species,Silver-washed Fritillary,1,25.1763,57.3,Europe,Latvia,Latvia - Gauja NP,2017-08-11,15:20
13066,Aeshna cyanea,species,Southern Hawker,1,25.1698,57.304,Europe,Latvia,Latvia - Gauja NP,2017-08-11,15:03
13067,Pieris napi,species,Green-veined White,1,25.1485,57.3152,Europe,Latvia,Latvia - Gauja NP,2017-08-11,14:28
13068,Scoliopteryx libatrix,species,Herald,1,24.2045,56.813,Europe,Latvia,Latvia - Riga,2017-08-11,09:42
22402,Corvus cornix,species,Hooded Crow,1,24.14,56.8945,Europe,Latvia,Latvia - Riga,2017-08-10,19:46
22403,Sturnus vulgaris,species,Common Starling,1,24.114,56.9533,Europe,Latvia,Latvia - Riga,2017-08-10,17:11
22404,Corvus cornix,species,Hooded Crow,1,24.1129,56.9547,Europe,Latvia,Latvia - Riga,2017-08-10,17:01
22405,Corvus cornix,species,Hooded Crow,1,24.1129,56.9427,Europe,Latvia,Latvia - Riga,2017-08-10,11:48
22406,Sturnus vulgaris,species,Common Starling,1,24.1138,56.9429,Europe,Latvia,Latvia - Riga,2017-08-10,11:30
22407,Lasiommata megera,species,Wall Brown,1,24.0302,56.4161,Europe,Latvia,Latvia - Bauska,2017-08-09,12:02
22408,Sympetrum vulgatum,species,Moustached Darter,1,24.0302,56.4161,Europe,Latvia,Latvia - Bauska,2017-08-09,12:01
22409,Agrypnia spec.,multispecies,,1,23.4113,56.4974,Europe,Latvia,Latvia - Dobele,2017-08-09,10:17
22410,Glyphotaelius pellucidus,species,Mottled sedge,1,23.4112,56.4968,Europe,Latvia,Latvia - Dobele,2017-08-08,23:02
22411,Limnephilus spec.,multispecies,,1,23.4112,56.497,Europe,Latvia,Latvia - Dobele,2017-08-08,22:51
22412,Limnephilus marmoratus,species,,1,23.4111,56.497,Europe,Latvia,Latvia - Dobele,2017-08-08,22:51
22413,Stictoleptura rubra,species,,1,23.3698,56.4937,Europe,Latvia,Latvia - Dobele,2017-08-08,14:06
22414,Neottia nidus-avis,species,Bird's-nest Orchid,1,23.35,56.45,Europe,Latvia,Latvia - Dobele,2017-08-08,11:18
22415,Melampyrum nemorosum,species,Wood Cow-wheat,1,23.3703,56.487,Europe,Latvia,Latvia - Dobele,2017-08-08,09:23
22416,Bombus spec.,multispecies,Bumblebee unknown,1,23.3687,56.485,Europe,Latvia,Latvia - Dobele,2017-08-08,08:54
25002,Passer montanus,species,Eurasian Tree Sparrow,2,23.50701593,56.52849204,Europe,Latvia,Latvia - Jelgava,2017-08-10,
25004,Muscicapa striata,species,Spotted Flycatcher,5,23.50701593,56.52849204,Europe,Latvia,Latvia - Jelgava,2017-08-10,
89226,Dendrocoptes medius,species,Middle Spotted Woodpecker,2,24.85961902,57.177467,Europe,Latvia,Latvia - Gauja NP,2017-07-19,11:36
89228,Dendrocoptes medius,species,Middle Spotted Woodpecker,2,24.8570622,57.172148,Europe,Latvia,Latvia - Gauja NP,2017-07-19,12:26
96265,Passer montanus,species,Eurasian Tree Sparrow,1,27.3413094890724,56.5007310064675,Europe,Latvia,Latvia - Rezekne,2017-08-05,11:31
110146,Mergus merganser,species,Common Merganser,28,27.4476599497398,56.2888894750182,Europe,Latvia,Latvia - Rāzna NP,2017-08-04,13:06
110147,Lanius collurio,species,Red-backed Shrike,1,27.3906190798317,56.2416589589676,Europe,Latvia,Latvia - Rezekne,2017-08-04,14:58
45290,Larus argentatus,species,European Herring Gull,1,21.0063502,56.5070038,Europe,Latvia,Latvia - Liepaja,2017-07-23,19:41
45291,Corvus cornix,species,Hooded Crow,1,20.9940623466749,56.5103590062761,Europe,Latvia,Latvia - Liepaja,2017-07-24,13:33
45292,Hirundo rustica,species,Barn Swallow,12,20.9951331119788,56.5078758633279,Europe,Latvia,Latvia - Liepaja,2017-07-24,16:05
84048,Anchusa officinalis,species,Alkanet,1,24.00084279,56.93305746,Europe,Latvia,Latvia - Riga,2017-06-26,12:37
84059,Clinopodium acinos,species,Basil Thyme,1,24.00084279,56.93305746,Europe,Latvia,Latvia - Riga,2017-06-26,12:37
84071,Medicago falcata,species,Sickle Medick,1,24.00084279,56.93305746,Europe,Latvia,Latvia - Riga,2017-06-26,12:36
84084,Trifolium medium,species,Zigzag Clover,1,23.98555404,56.96917592,Europe,Latvia,Latvia - Riga,2017-06-26,10:51
84150,Vanessa atalanta,species,Red Admiral,1,23.98555404,56.96917592,Europe,Latvia,Latvia - Riga,2017-06-26,10:46
84300,Coenonympha tullia,species,Large Heath,3,23.95,56.95,Europe,Latvia,Latvia - Riga,2017-06-26,10:41
84350,Erigeron acris,species,Blue Fleabane,1,23.98183867,56.97010545,Europe,Latvia,Latvia - Riga,2017-06-26,10:31
84355,Alchemilla spec.,multispecies,,1,23.98183867,56.97010545,Europe,Latvia,Latvia - Riga,2017-06-26,10:26
84402,Campanula spec.,multispecies,,1,23.98183867,56.97010545,Europe,Latvia,Latvia - Riga,2017-06-26,10:21
84576,Rumex confertus,species,Russian Dock,1,23.98550123,56.96926296,Europe,Latvia,Latvia - Riga,2017-06-26,10:02
84592,Melampyrum pratense,species,Common Cow-wheat,1,23.98841947,56.96664289,Europe,Latvia,Latvia - Riga,2017-06-26,09:21
84605,Chelidonium majus,species,Greater Celandine,1,23.98893446,56.96355471,Europe,Latvia,Latvia - Riga,2017-06-26,08:58
84615,Silene nutans,species,Nottingham Catchfly,1,23.98893446,56.96355471,Europe,Latvia,Latvia - Riga,2017-06-26,08:58
76294,Nehalennia speciosa,species,Sedgling,101,23.8,58.55,Europe,Latvia,Latvia - Cesis,2017-06-21,
29392,Sturnus vulgaris,species,Common Starling,2,24.10433585,56.95289147,Europe,Latvia,Latvia - Riga,2017-06-12,13:18
29393,Corvus cornix,species,Hooded Crow,1,24.10180515,56.95073742,Europe,Latvia,Latvia - Riga,2017-06-12,18:23
35240,Motacilla alba,species,White Wagtail,1,23.47144078463316,57.00071451254189,Europe,Latvia,Latvia - Kemeru NP,2017-06-12,10:28
35241,Emberiza schoeniclus,species,Common Reed Bunting,1,23.47099361009896,57.000632621347904,Europe,Latvia,Latvia - Kemeru NP,2017-06-12,09:49
35242,Acrocephalus arundinaceus,species,Great Reed Warbler,1,23.47103032283485,57.00065382756293,Europe,Latvia,Latvia - Kemeru NP,2017-06-12,09:46
35244,Anas platyrhynchos,species,Mallard,1,23.481432432308797,56.99976459145546,Europe,Latvia,Latvia - Kemeru NP,2017-06-12,09:21
35245,Cuculus canorus,species,Common Cuckoo,1,23.525556111708283,56.89726137556136,Europe,Latvia,Latvia - Kemeru NP,2017-06-11,15:56
35246,Grus grus,species,Common Crane,1,23.377794222906232,56.8689642380923,Europe,Latvia,Latvia - Kemeru NP,2017-06-11,12:15
35247,Motacilla alba,species,White Wagtail,1,23.46029201522469,56.904516415670514,Europe,Latvia,Latvia - Kemeru NP,2017-06-11,09:24
35248,Cuculus canorus,species,Common Cuckoo,1,23.458555452525616,56.90786289051175,Europe,Latvia,Latvia - Kemeru NP,2017-06-11,09:11
35250,Tetrastes bonasia,species,Hazel Grouse,1,23.4,56.95,Europe,Latvia,Latvia - Kemeru NP,2017-06-10,16:42
35251,Cuculus canorus,species,Common Cuckoo,1,23.47501809708774,56.96660444140434,Europe,Latvia,Latvia - Kemeru NP,2017-06-10,15:21
35252,Cuculus canorus,species,Common Cuckoo,1,23.519727922976017,56.942800004035234,Europe,Latvia,Latvia - Kemeru NP,2017-06-10,13:34
35253,Carpodacus erythrinus,species,Common Rosefinch,1,23.47095312550664,57.00062080286443,Europe,Latvia,Latvia - Kemeru NP,2017-06-10,11:56
35254,Emberiza schoeniclus,species,Common Reed Bunting,1,23.481439808383584,57.001957297325134,Europe,Latvia,Latvia - Kemeru NP,2017-06-10,10:57
35255,Anas platyrhynchos,species,Mallard,1,23.47386139445007,57.00092179700732,Europe,Latvia,Latvia - Kemeru NP,2017-06-10,10:45
35256,Acrocephalus arundinaceus,species,Great Reed Warbler,1,23.472735369578004,57.0007864292711,Europe,Latvia,Latvia - Kemeru NP,2017-06-10,10:43
35257,Cuculus canorus,species,Common Cuckoo,1,23.510344130918384,56.95123546756804,Europe,Latvia,Latvia - Kemeru NP,2017-06-10,09:24
35258,Motacilla alba,species,White Wagtail,1,23.513071350753307,56.951970057562,Europe,Latvia,Latvia - Kemeru NP,2017-06-10,08:48
35259,Carpodacus erythrinus,species,Common Rosefinch,1,26.888839518651366,56.69598095119,Europe,Latvia,Latvia - Rezekne,2017-06-09,16:04
35260,Cygnus cygnus,species,Whooper Swan,1,26.88804659061134,56.69522792100906,Europe,Latvia,Latvia - Rezekne,2017-06-09,14:41
35261,Chlidonias niger,species,Black Tern,1,26.8875927105546,56.694869259372354,Europe,Latvia,Latvia - Rezekne,2017-06-09,14:39
35262,Cuculus canorus,species,Common Cuckoo,1,26.88997744582593,56.696462240070105,Europe,Latvia,Latvia - Rezekne,2017-06-09,14:19
35263,Spatula querquedula,species,Garganey,1,26.90371739678085,56.694657281041145,Europe,Latvia,Latvia - Rezekne,2017-06-09,13:59
35264,Acrocephalus arundinaceus,species,Great Reed Warbler,1,26.911287596449256,56.69137090444565,Europe,Latvia,Latvia - Rezekne,2017-06-09,13:53
35265,Podiceps grisegena,species,Red-necked Grebe,1,26.91176880151033,56.69118004851043,Europe,Latvia,Latvia - Rezekne,2017-06-09,13:53
35266,Pandion haliaetus,species,Western Osprey,1,26.98038674890995,56.67856117710471,Europe,Latvia,Latvia - Rezekne,2017-06-09,12:17
35267,Cygnus cygnus,species,Whooper Swan,1,26.98040426708758,56.678184578195214,Europe,Latvia,Latvia - Rezekne,2017-06-09,11:10
35268,Acrocephalus arundinaceus,species,Great Reed Warbler,1,26.98071599006653,56.6768847964704,Europe,Latvia,Latvia - Rezekne,2017-06-09,11:02
35269,Podiceps grisegena,species,Red-necked Grebe,1,26.97529742494225,56.67684816755354,Europe,Latvia,Latvia - Rezekne,2017-06-09,10:55
35270,Haliaeetus albicilla,species,White-tailed Eagle,1,26.97528703138232,56.67683752253652,Europe,Latvia,Latvia - Rezekne,2017-06-09,10:52
35271,Hirundo rustica,species,Barn Swallow,1,26.94368608295917,56.68267149478197,Europe,Latvia,Latvia - Rezekne,2017-06-09,10:48
35272,Chlidonias niger,species,Black Tern,1,26.933199148625132,56.67515837587416,Europe,Latvia,Latvia - Rezekne,2017-06-09,10:37
35273,Pandion haliaetus,species,Western Osprey,1,26.972080869600177,56.76231566816568,Europe,Latvia,Latvia - Rezekne,2017-06-09,09:15
35274,Carpodacus erythrinus,species,Common Rosefinch,1,26.970285046845675,56.76291556097567,Europe,Latvia,Latvia - Rezekne,2017-06-09,09:10
35275,Muscicapa striata,species,Spotted Flycatcher,1,26.906049409881238,56.81732316501439,Europe,Latvia,Latvia - Madona,2017-06-09,06:51
35276,Cuculus canorus,species,Common Cuckoo,1,26.905929716303945,56.81751720607281,Europe,Latvia,Latvia - Madona,2017-06-09,06:50
35277,Hirundo rustica,species,Barn Swallow,1,26.905401991680264,56.816150872036815,Europe,Latvia,Latvia - Madona,2017-06-09,06:16
35280,Saxicola rubetra,species,Whinchat,1,26.73813340254128,56.767697352916,Europe,Latvia,Latvia - Madona,2017-06-08,18:43
35281,Carpodacus erythrinus,species,Common Rosefinch,1,26.714069042354826,56.7578075453639,Europe,Latvia,Latvia - Madona,2017-06-08,18:16
35282,Lanius collurio,species,Red-backed Shrike,1,26.40006199479103,56.760981772094965,Europe,Latvia,Latvia - Madona,2017-06-08,17:41
55164,Sterna hirundo,species,Common Tern,1,24.078,56.9559,Europe,Latvia,Latvia - Riga,2017-06-09,16:22
114481,Passer montanus,species,Eurasian Tree Sparrow,2,26.723,58.385,Europe,Latvia,Latvia - Gauja NP,2017-05-15,
114490,Corvus frugilegus,species,Rook,35,26.723,58.385,Europe,Latvia,Latvia - Gauja NP,2017-05-15,
114571,Neuroterus anthracinus,species,,3,26.71406,58.38108,Europe,Latvia,Latvia - Gauja NP,2017-05-15,
113416,Dendrocoptes medius,species,Middle Spotted Woodpecker,1,24.82817184,57.16868808,Europe,Latvia,Latvia - Gauja NP,2017-04-28,12:00
110924,Corvus cornix,species,Hooded Crow,1,24.0886,56.9377,Europe,Latvia,Latvia - Riga,2017-02-25,09:13
66168,Ceratomegilla notata,species,,1,24.91416373,57.2298793,Europe,Latvia,Latvia - Gauja NP,2016-07-13,14:05
51239,Corvus cornix,species,Hooded Crow,1,23.9788919,56.9232251,Europe,Latvia,Latvia - Riga,2016-09-17,07:52
36997,Ficedula hypoleuca,species,European Pied Flycatcher,1,26.403308058034,56.693884450621,Europe,Latvia,Latvia - Madona,2013-05-10,12:36
96445,Corvus cornix,species,Hooded Crow,1,23.9788919,56.9232251,Europe,Latvia,Latvia - Riga,2016-09-17,07:52
41321,Melampyrum nemorosum,species,Wood Cow-wheat,101,21.12664415,56.09102692,Europe,Latvia,Latvia - Liepaja,2016-08-09,15:54
41322,Hirundo rustica,species,Barn Swallow,1,21.0673393152411,56.3424955867325,Europe,Latvia,Latvia - Liepaja,2016-08-09,16:21
41323,Corvus cornix,species,Hooded Crow,1,21.0060240502052,56.4846578017204,Europe,Latvia,Latvia - Liepaja,2016-08-09,16:37
41324,Veronica longifolia,species,Long-leaved Speedwell,1,23.94457233,56.63495185,Europe,Latvia,Latvia - Jelgava,2016-08-11,12:41
41325,Asarum europaeum,species,European Wild Ginger,1,25.2129716202928,57.2318562648842,Europe,Latvia,Latvia - Gauja NP,2016-08-14,15:02
41326,Sympetrum sanguineum,species,Ruddy Darter,1,25.2109237459269,57.2337296328597,Europe,Latvia,Latvia - Gauja NP,2016-08-14,15:11
41327,Pieris napi,species,Green-veined White,1,25.2078292955312,57.2338885183047,Europe,Latvia,Latvia - Gauja NP,2016-08-14,15:40
41328,Argynnis paphia,species,Silver-washed Fritillary,1,25.2048732446876,57.2352536078743,Europe,Latvia,Latvia - Gauja NP,2016-08-14,15:45
41329,Polyommatus icarus,species,Common Blue,2,25.2003247017179,57.2372403595212,Europe,Latvia,Latvia - Gauja NP,2016-08-14,15:56
41330,Castor fiber,species,Eurasian Beaver,1,25.3627974539995,57.2753813164934,Europe,Latvia,Latvia - Gauja NP,2016-08-14,19:42
41331,Polyommatus icarus,species,Common Blue,1,25.3599214066204,57.275490956626,Europe,Latvia,Latvia - Gauja NP,2016-08-14,19:48
41332,Pieris napi,species,Green-veined White,1,25.2713502933512,57.3139291244394,Europe,Latvia,Latvia - Gauja NP,2016-08-15,14:05
41333,Monotropa hypopitys,species,Yellow Bird's-nest,1,25.09,56.5,Europe,Latvia,Latvia - Aizkraukle,2016-08-18,15:05
41335,Sympetrum depressiusculum,species,Spotted Darter,1,26.9,56.7,Europe,Latvia,Latvia - Rezekne,2016-08-19,13:49
41336,Haliaeetus albicilla,species,White-tailed Eagle,1,26.9490538537502,56.7231798849721,Europe,Latvia,Latvia - Rezekne,2016-08-19,14:15
41337,Certhia familiaris,species,Eurasian Treecreeper,1,26.9467934221029,56.7158179706543,Europe,Latvia,Latvia - Rezekne,2016-08-19,15:48
41338,Pelophylax spec.,multispecies,Green Frog spec.,1,26.9469627913049,56.7506768638078,Europe,Latvia,Latvia - Rezekne,2016-08-19,19:14
17356,Mergus merganser,species,Common Merganser,1,27.41706459,56.30855631,Europe,Latvia,Latvia - Rāzna NP,2016-08-18,15:02
23863,Grus grus,species,Common Crane,1,24.3848,57.0646,Europe,Latvia,Latvia - Riga,2016-07-30,10:14
23864,Grus grus,species,Common Crane,2,24.4415,57.0869,Europe,Latvia,Latvia - Riga,2016-07-30,07:10
89601,Euthrix potatoria,species,Drinker,1,24.81778985,57.15439051,Europe,Latvia,Latvia - Gauja NP,2016-07-16,00:50
91921,Pernis apivorus,species,European Honey Buzzard,3,24.817253407091,57.154215940163,Europe,Latvia,Latvia - Gauja NP,2016-07-16,08:34
95220,Dendrocoptes medius,species,Middle Spotted Woodpecker,1,24.807829968631,57.149854219796,Europe,Latvia,Latvia - Gauja NP,2016-07-09,07:25
95370,Martes martes,species,Pine Marten,2,24.8,57.1,Europe,Latvia,Latvia - Gauja NP,2016-07-09,06:44
97478,Leucorrhinia dubia,species,Small Whiteface,1,25.018759220839,57.163010150645,Europe,Latvia,Latvia - Cesis,2016-07-12,14:58
98080,Dendrocoptes medius,species,Middle Spotted Woodpecker,1,24.81842706,57.15486167,Europe,Latvia,Latvia - Gauja NP,2016-07-10,12:12
98081,Lanius collurio,species,Red-backed Shrike,3,24.81981533,57.15481758,Europe,Latvia,Latvia - Gauja NP,2016-07-11,08:10
98082,Corvus cornix,species,Hooded Crow,6,24.39324113,57.23355115,Europe,Latvia,Latvia - Riga,2016-07-15,14:40
93202,Lasiommata maera,species,Large Wall Brown,3,26.8,57.55,Europe,Latvia,Latvia - Aluksne,2016-06-23,15:11
96414,Anas platyrhynchos,species,Mallard,1,23.465052098036,57.00206879756,Europe,Latvia,Latvia - Kemeru NP,2016-06-17,18:00
96463,Hydroprogne caspia,species,Caspian Tern,3,23.118211627007,57.258157366784,Europe,Latvia,Latvia - Tukums,2016-06-17,11:00
106641,Pandion haliaetus,species,Western Osprey,1,26.894080638885,56.695075070028,Europe,Latvia,Latvia - Rezekne,2016-06-15,11:00
106645,Chlidonias niger,species,Black Tern,1,26.894080638885,56.695075070028,Europe,Latvia,Latvia - Rezekne,2016-06-15,11:00
106647,Podiceps grisegena,species,Red-necked Grebe,1,26.894080638885,56.695075070028,Europe,Latvia,Latvia - Rezekne,2016-06-15,11:00
106650,Cygnus cygnus,species,Whooper Swan,1,26.894080638885,56.695075070028,Europe,Latvia,Latvia - Rezekne,2016-06-15,11:00
106653,Carpodacus erythrinus,species,Common Rosefinch,1,26.938712596893,56.735019397173,Europe,Latvia,Latvia - Rezekne,2016-06-15,11:00
106656,Hirundo rustica,species,Barn Swallow,1,26.90506696701,56.691304547399,Europe,Latvia,Latvia - Rezekne,2016-06-15,11:00
106766,Carpodacus erythrinus,species,Common Rosefinch,1,26.953818798065,56.741421616398,Europe,Latvia,Latvia - Rezekne,2016-06-14,14:00
106777,Hirundo rustica,species,Barn Swallow,1,26.902320384979,56.69733720234,Europe,Latvia,Latvia - Rezekne,2016-06-14,14:00
106779,Pandion haliaetus,species,Western Osprey,1,26.826102733612,56.730122846536,Europe,Latvia,Latvia - Rezekne,2016-06-14,14:00
106880,Streptopelia turtur,species,European Turtle Dove,1,26.951072216034,56.728616087245,Europe,Latvia,Latvia - Rezekne,2016-06-14,14:00
106887,Chlidonias niger,species,Black Tern,1,26.979793310165,56.686216689056,Europe,Latvia,Latvia - Rezekne,2016-06-14,14:00
106890,Cygnus cygnus,species,Whooper Swan,1,26.979793310165,56.686216689056,Europe,Latvia,Latvia - Rezekne,2016-06-14,14:00
106891,Podiceps grisegena,species,Red-necked Grebe,1,26.979793310165,56.686216689056,Europe,Latvia,Latvia - Rezekne,2016-06-14,14:00
106984,Hirundo rustica,species,Barn Swallow,1,26.810309886932,56.79598446913,Europe,Latvia,Latvia - Madona,2016-06-13,16:00
106994,Pandion haliaetus,species,Western Osprey,1,26.850135326385,56.78583049814,Europe,Latvia,Latvia - Madona,2016-06-13,16:00
106996,Cygnus cygnus,species,Whooper Swan,1,26.884467601776,56.747446238235,Europe,Latvia,Latvia - Rezekne,2016-06-13,21:00
7915,Grus grus,species,Common Crane,2,23.4547,56.9027,Europe,Latvia,Latvia - Kemeru NP,2016-06-15,13:00
19149,Calidris alpina,species,Dunlin,1,22.580573558807,57.719179994734,Europe,Latvia,Latvia - Slitere NP,2016-06-16,17:00
19250,Phylloscopus sibilatrix,species,Wood Warbler,1,22.371146678925,57.694234692747,Europe,Latvia,Latvia - Slitere NP,2016-06-16,11:00
37847,Remiz pendulinus,species,Eurasian Penduline Tit,1,26.95,56.75,Europe,Latvia,Latvia - Madona,2016-06-14,21:00
78750,Haliaeetus albicilla,species,White-tailed Eagle,5,26.98046906,56.69076762,Europe,Latvia,Latvia - Rezekne,2016-05-02,16:51
78751,Chlidonias niger,species,Black Tern,10,26.98046906,56.69076762,Europe,Latvia,Latvia - Rezekne,2016-05-02,16:51
78752,Remiz pendulinus,species,Eurasian Penduline Tit,3,26.95,56.65,Europe,Latvia,Latvia - Rezekne,2016-05-02,17:27
89335,Dendrocoptes medius,species,Middle Spotted Woodpecker,2,26.71457188,56.90625158,Europe,Latvia,Latvia - Madona,2016-05-02,10:53
89336,Pandion haliaetus,species,Western Osprey,1,26.81644013,56.71982419,Europe,Latvia,Latvia - Rezekne,2016-05-02,12:00
89337,Podiceps grisegena,species,Red-necked Grebe,4,26.8795453,56.70820834,Europe,Latvia,Latvia - Rezekne,2016-05-02,12:13
89338,Remiz pendulinus,species,Eurasian Penduline Tit,1,26.85,56.7,Europe,Latvia,Latvia - Rezekne,2016-05-02,12:21
89339,Cygnus cygnus,species,Whooper Swan,101,26.88958321,56.69677781,Europe,Latvia,Latvia - Rezekne,2016-05-02,12:57
89340,Motacilla citreola citreola,subspecies,Citrine Wagtail ssp citreola,2,26.8915573,56.69369712,Europe,Latvia,Latvia - Rezekne,2016-05-02,13:40
89341,Podiceps grisegena,species,Red-necked Grebe,4,26.89760639,56.69722529,Europe,Latvia,Latvia - Rezekne,2016-05-02,14:34
10447,Tetrao urogallus,species,Western Capercaillie,1,25.91,57.51,Europe,Latvia,Latvia - Valka,2016-04-30,13:56
14489,Clangula hyemalis,species,Long-tailed Duck,1,22.5891953,57.73648083,Europe,Latvia,Latvia - Slitere NP,2016-04-29,14:15
14490,Lepus timidus,species,Mountain Hare,1,26.17557164,57.13624701,Europe,Latvia,Latvia - Gulbene,2016-04-29,22:19
22748,Clangula hyemalis,species,Long-tailed Duck,250,22.60486584,57.75893138,Europe,Latvia,Latvia - Slitere NP,2016-04-29,09:25
23964,Phylloscopus sibilatrix,species,Wood Warbler,1,22.59578782,57.7477014,Europe,Latvia,Latvia - Slitere NP,2016-04-29,05:46
26787,Anas platyrhynchos,species,Mallard,1,23.51221221,56.953901,Europe,Latvia,Latvia - Kemeru NP,2016-04-28,14:52
18116,Sturnus vulgaris,species,Common Starling,4,23.971996307373,56.919310265915,Europe,Latvia,Latvia - Riga,2016-04-11,
118083,Corvus cornix,species,Hooded Crow,2,23.9785,56.9212,Europe,Latvia,Latvia - Riga,2016-04-11,14:31
78653,Castor fiber,species,Eurasian Beaver,1,24.8,57.1,Europe,Latvia,Latvia - Gauja NP,2016-02-07,11:47
96537,Corvus cornix,species,Hooded Crow,100,24.15930824,57.00793915,Europe,Latvia,Latvia - Riga,2016-02-05,14:21
105281,Castor fiber,species,Eurasian Beaver,1,24.25,56.95,Europe,Latvia,Latvia - Riga,2016-02-03,11:17
3275,Corvus cornix,species,Hooded Crow,50,24.10838903,56.94856436,Europe,Latvia,Latvia - Riga,2016-02-02,10:41
78946,Vespertilio murinus,species,Particoloured Bat,2,21.0865870899,56.5499889064,Europe,Latvia,Latvia - Liepaja,2015-10-25,20:00
101813,Corvus cornix,species,Hooded Crow,1,23.9778485521674,56.9219142690547,Europe,Latvia,Latvia - Riga,2015-10-23,14:12
68992,Corvus cornix cornix,subspecies,Hooded Crow ssp cornix,1,24.1004,56.9577,Europe,Latvia,Latvia - Riga,2015-09-09,12:37
32683,Castor fiber,species,Eurasian Beaver,1,25.2,57.3,Europe,Latvia,Latvia - Gauja NP,2015-07-08,21:10
34730,Coenonympha glycerion,species,Chestnut Heath,1,25.2,57.3,Europe,Latvia,Latvia - Gauja NP,2015-07-06,
35291,Erythromma najas,species,Large Redeye,2,24.8393063889,57.1719997222,Europe,Latvia,Latvia - Gauja NP,2015-07-08,15:31
85213,Corvus cornix,species,Hooded Crow,1,24.1133913889,56.9512197222,Europe,Latvia,Latvia - Riga,2015-07-11,17:28
85222,Limenitis camilla,species,White Admiral,1,25.2224730556,57.2992213889,Europe,Latvia,Latvia - Gauja NP,2015-07-09,10:54
86423,Brenthis ino,species,Lesser Marbled Fritillary,1,24.8,57.15,Europe,Latvia,Latvia - Gauja NP,2015-07-08,16:23
86425,Speyeria aglaja,species,Dark Green Fritillary,1,25.243755,57.3146180556,Europe,Latvia,Latvia - Gauja NP,2015-07-06,13:49
86560,Brenthis ino,species,Lesser Marbled Fritillary,1,25.2,57.3,Europe,Latvia,Latvia - Gauja NP,2015-07-06,13:41
86570,Boloria selene,species,Small Pearl-bordered Fritillary,1,25.2,57.3,Europe,Latvia,Latvia - Gauja NP,2015-07-06,13:23
86579,Dianthus deltoides,species,Maiden Pink,1,25.243785,57.3146547222,Europe,Latvia,Latvia - Gauja NP,2015-07-06,13:08
38922,Leucorrhinia albifrons,species,Dark Whiteface,1,23.45,56.9,Europe,Latvia,Latvia - Kemeru NP,2015-07-12,14:36
38949,Apodemus agrarius,species,Striped Field Mouse,2,23.4947366081,57.0276468959,Europe,Latvia,Latvia - Kemeru NP,2015-07-14,
43344,Clanga pomarina,species,Lesser Spotted Eagle,1,27.20039092,57.3736419622,Europe,Latvia,Latvia - Aluksne,2015-06-29,12:00
8545,Hylobius abietis,species,Large pine weevil,1,23.4494027495,56.9052056,Europe,Latvia,Latvia - Kemeru NP,2015-05-07,
45379,Brachycentrus subnubilus,species,Grannom or Greentail,5,21.9773843139,56.9680119813,Europe,Latvia,Latvia - Kuldiga,2015-05-06,
63983,Leucorrhinia rubicunda,species,Ruby Whiteface,1,23.5,56.85,Europe,Latvia,Latvia - Kemeru NP,2015-05-08,16:51
76473,Grus grus,species,Common Crane,8,24.31900273,57.10954687,Europe,Latvia,Latvia - Riga,2015-05-07,13:43
79464,Grus grus,species,Common Crane,2,23.45031329,56.90205656,Europe,Latvia,Latvia - Kemeru NP,2015-05-07,16:09
79467,Oligostomis reticulata,species,,2,23.46157731,56.91434371,Europe,Latvia,Latvia - Kemeru NP,2015-05-07,17:19
79468,Tetrastes bonasia,species,Hazel Grouse,1,23.45,56.9,Europe,Latvia,Latvia - Kemeru NP,2015-05-07,17:46
83931,Ciconia ciconia,species,White Stork,2,24.1818466410041,56.4303302064484,Europe,Latvia,Latvia - Bauska,2015-05-07,11:30
84808,Luscinia luscinia,species,Thrush Nightingale,1,23.76320552,56.93739566,Europe,Latvia,Latvia - Riga,2015-05-07,08:45
88986,Clangula hyemalis,species,Long-tailed Duck,1,22.60468329,57.75891456,Europe,Latvia,Latvia - Slitere NP,2015-05-04,16:36
88987,Certhia familiaris,species,Eurasian Treecreeper,1,22.35875198,57.70073936,Europe,Latvia,Latvia - Slitere NP,2015-05-04,18:26
88988,Clangula hyemalis,species,Long-tailed Duck,1000,22.59190861,57.75857866,Europe,Latvia,Latvia - Slitere NP,2015-05-05,06:44
88989,Bombycilla garrulus,species,Bohemian Waxwing,50,22.36076357,57.69746738,Europe,Latvia,Latvia - Slitere NP,2015-05-05,10:20
88991,Certhia familiaris,species,Eurasian Treecreeper,1,22.35861915,57.70063586,Europe,Latvia,Latvia - Slitere NP,2015-05-06,08:34
88992,Lathyrus japonicus,species,Sea Pea,1,21.53279838,57.3973404,Europe,Latvia,Latvia - Ventspils,2015-05-06,12:33
88993,Chondrostoma nasus,species,Sneep,1,21.97789304,56.96808096,Europe,Latvia,Latvia - Kuldiga,2015-05-06,14:31
19668,Corvus cornix,species,Hooded Crow,1,24.07215521,56.94491662,Europe,Latvia,Latvia - Riga,2015-05-02,17:16
