,scientificName,taxonRank,vernacularName,individualCount,longitudeDecimal,latitudeDecimal,continent,country,locality,eventDate,eventTime
72425,Anthus hoeschi,species,Mountain Pipit,1,29.2630076408,-29.5740635942,Africa,Lesotho,Lesotho,2015-02-11,
72433,Prinia maculosa,species,Karoo Prinia,1,29.2582011223,-29.5692859751,Africa,Lesotho,Lesotho,2015-02-11,
72529,Monticola explorator,species,Sentinel Rock Thrush,1,29.2735433578,-29.5770588221,Africa,Lesotho,Lesotho,2015-02-11,
72617,Geronticus calvus,species,Southern Bald Ibis,1,29.2712420225,-29.5755495556,Africa,Lesotho,Lesotho,2015-02-11,
47808,Nectarinia famosa,species,Malachite Sunbird,1,29.2885458474,-29.5846836555,Africa,Lesotho,Lesotho,2014-12-20,
47837,Crithagra symonsi,species,Drakensberg Siskin,3,29.2884600167,-29.5845374839,Africa,Lesotho,Lesotho,2014-12-20,
48047,Chaetops aurantius,species,Drakensberg Rockjumper,2,29.2887818818,-29.5849480074,Africa,Lesotho,Lesotho,2014-12-20,
64081,Anthus hoeschi,species,Mountain Pipit,1,29.2720556329,-29.5721706092,Africa,Lesotho,Lesotho,2014-12-20,
64086,Gypaetus barbatus,species,Bearded Vulture,1,29.1826200555,-29.5025355645,Africa,Lesotho,Lesotho,2014-12-20,
64094,Geocolaptes olivaceus,species,Ground Woodpecker,4,29.2120742938,-29.5378830492,Africa,Lesotho,Lesotho,2014-12-20,
64097,Emarginata sinuata,species,Sickle-winged Chat,2,29.2120742938,-29.5378830492,Africa,Lesotho,Lesotho,2014-12-20,
64107,Geronticus calvus,species,Southern Bald Ibis,12,29.2781066964,-29.5791128142,Africa,Lesotho,Lesotho,2014-12-20,
64112,Crithagra symonsi,species,Drakensberg Siskin,4,29.288395645,-29.5844255215,Africa,Lesotho,Lesotho,2014-12-20,
64122,Chaetops aurantius,species,Drakensberg Rockjumper,2,29.2884922045,-29.5849293462,Africa,Lesotho,Lesotho,2014-12-20,
74370,Monticola explorator,species,Sentinel Rock Thrush,1,29.2492961884,-29.4922436893,Africa,Lesotho,Lesotho,2009-09-30,
58283,Geronticus calvus,species,Southern Bald Ibis,1,29.2502993345,-29.5628586944,Africa,Lesotho,Lesotho,2014-11-10,
58498,Crithagra symonsi,species,Drakensberg Siskin,25,29.2863535881,-29.5824238836,Africa,Lesotho,Lesotho,2014-11-10,
58500,Crithagra flaviventris guillarmodi,subspecies,Yellow Canary ssp guillarmodi,2,29.2568278313,-29.5734664041,Africa,Lesotho,Lesotho,2014-11-10,
58506,Anthus hoeschi,species,Mountain Pipit,4,29.2527079582,-29.5668970808,Africa,Lesotho,Lesotho,2014-11-10,
72115,Helichrysum confertum,species,,1,29.2406702,-29.57633102,Africa,Lesotho,Lesotho,2014-10-28,
72116,Emberiza capensis,species,Cape Bunting,2,29.2406702042,-29.5763310179,Africa,Lesotho,Lesotho,2014-10-28,
72123,Crithagra flaviventris guillarmodi,subspecies,Yellow Canary ssp guillarmodi,5,29.2406702042,-29.5763310179,Africa,Lesotho,Lesotho,2014-10-28,
72147,Passer melanurus,species,Cape Sparrow,3,29.2841863632,-29.5824891956,Africa,Lesotho,Lesotho,2014-10-28,
72171,Anthus hoeschi,species,Mountain Pipit,2,29.2599391937,-29.5741662358,Africa,Lesotho,Lesotho,2014-10-28,
72307,Emarginata sinuata,species,Sickle-winged Chat,4,29.2700242996,-29.5719267573,Africa,Lesotho,Lesotho,2014-10-28,
72343,Monticola explorator,species,Sentinel Rock Thrush,5,29.2700242996,-29.5719267573,Africa,Lesotho,Lesotho,2014-10-28,
72370,Galerida magnirostris harei,subspecies,Large-billed Lark ssp harei,3,29.254360199,-29.5719640824,Africa,Lesotho,Lesotho,2014-10-28,
72446,Geocolaptes olivaceus,species,Ground Woodpecker,2,29.2759895325,-29.5775253605,Africa,Lesotho,Lesotho,2014-10-28,
72460,Buteo rufofuscus,species,Jackal Buzzard,1,29.2300701141,-29.5616991741,Africa,Lesotho,Lesotho,2014-10-28,
72464,Columba guinea,species,Speckled Pigeon,3,29.2837357521,-29.5822652685,Africa,Lesotho,Lesotho,2014-10-28,
72475,Geronticus calvus,species,Southern Bald Ibis,2,29.2750239372,-29.5742035601,Africa,Lesotho,Lesotho,2014-10-28,
103827,Onychognathus morio,species,Red-winged Starling,1,29.2822625488,-29.5830119819,Africa,Lesotho,Lesotho,2014-02-15,14:13
47610,Galerida magnirostris harei,subspecies,Large-billed Lark ssp harei,1,29.2346191406,-29.5065494428,Africa,Lesotho,Lesotho,2014-02-20,
47770,Anthus hoeschi,species,Mountain Pipit,1,29.2346191406,-29.5065494428,Africa,Lesotho,Lesotho,2014-02-20,
48940,Emarginata sinuata,species,Sickle-winged Chat,1,29.2346191406,-29.4969875965,Africa,Lesotho,Lesotho,2014-02-20,
49855,Geronticus calvus,species,Southern Bald Ibis,1,29.2346191406,-29.4969875965,Africa,Lesotho,Lesotho,2014-02-20,
50064,Buteo rufofuscus,species,Jackal Buzzard,1,29.2346191406,-29.4969875965,Africa,Lesotho,Lesotho,2014-02-20,
51700,Crithagra flaviventris guillarmodi,subspecies,Yellow Canary ssp guillarmodi,1,29.2346191406,-29.4969875965,Africa,Lesotho,Lesotho,2014-02-20,
7285,Cecropis abyssinica,species,Lesser Striped Swallow,2,29.2914390564,-29.5794288148,Africa,Lesotho,Lesotho,2014-02-15,14:20
67885,Cecropis abyssinica,species,Lesser Striped Swallow,2,29.2846021056,-29.5841313129,Africa,Lesotho,Lesotho,2014-02-15,12:06
72116,Ciconia ciconia,species,White Stork,1,29.2843446136,-29.5840566718,Africa,Lesotho,Lesotho,2014-02-15,14:17
75897,Corvus albicollis,species,White-necked Raven,3,29.2755040526,-29.5752486327,Africa,Lesotho,Lesotho,2014-02-15,13:24
75923,Buteo rufofuscus,species,Jackal Buzzard,1,29.2790224403,-29.5789996077,Africa,Lesotho,Lesotho,2014-02-15,13:33
76985,Geronticus calvus,species,Southern Bald Ibis,1,29.2800530791,-29.579802037,Africa,Lesotho,Lesotho,2014-02-15,13:28
1797,Passer melanurus,species,Cape Sparrow,1,29.284171,-29.584079,Africa,Lesotho,Lesotho,2014-02-01,10:35
1798,Anthus hoeschi,species,Mountain Pipit,1,29.27445,-29.575556,Africa,Lesotho,Lesotho,2014-02-01,10:42
1799,Monticola explorator,species,Sentinel Rock Thrush,15,29.274217,-29.575316,Africa,Lesotho,Lesotho,2014-02-01,10:43
1800,Buteo rufofuscus,species,Jackal Buzzard,1,29.273669,-29.574736,Africa,Lesotho,Lesotho,2014-02-01,10:45
1801,Emarginata sinuata,species,Sickle-winged Chat,4,29.273449,-29.574533,Africa,Lesotho,Lesotho,2014-02-01,10:45
1802,Geronticus calvus,species,Southern Bald Ibis,5,29.27177,-29.572929,Africa,Lesotho,Lesotho,2014-02-01,10:47
1803,Anthus hoeschi,species,Mountain Pipit,1,29.270596,-29.571785,Africa,Lesotho,Lesotho,2014-02-01,10:47
1805,Galerida magnirostris,species,Large-billed Lark,3,29.222236,-29.549599,Africa,Lesotho,Lesotho,2014-02-01,11:57
1806,Geocolaptes olivaceus,species,Ground Woodpecker,4,29.2159,-29.543036,Africa,Lesotho,Lesotho,2014-02-01,12:19
1807,Stenostira scita,species,Fairy Flycatcher,2,29.216573,-29.543275,Africa,Lesotho,Lesotho,2014-02-01,12:35
1808,Gyps coprotheres,species,Cape Vulture,4,29.217701,-29.545732,Africa,Lesotho,Lesotho,2014-02-01,12:50
1809,Chaetops aurantius,species,Drakensberg Rockjumper,1,29.211209,-29.532954,Africa,Lesotho,Lesotho,2014-02-01,13:10
1810,Corvus albicollis,species,White-necked Raven,3,29.210283,-29.527848,Africa,Lesotho,Lesotho,2014-02-01,13:13
1811,Melaniparus afer,species,Grey Tit,1,29.178614,-29.506121,Africa,Lesotho,Lesotho,2014-02-01,13:39
1812,Crithagra symonsi,species,Drakensberg Siskin,9,29.288279,-29.584765,Africa,Lesotho,Lesotho,2014-02-01,15:08
41143,Xanthium orientale + Xanthium strumarium,multispecies,,1,27.601754665328,-29.831244065693,Africa,Lesotho,Lesotho - Malealea,2007-03-24,
82507,Crithagra symonsi,species,Drakensberg Siskin,1,29.285430908203,-29.581817412664,Africa,Lesotho,Lesotho,2013-02-19,12:00
82510,Galerida magnirostris,species,Large-billed Lark,1,29.285430908203,-29.581817412664,Africa,Lesotho,Lesotho,2013-02-19,12:00
82514,Geronticus calvus,species,Southern Bald Ibis,30,29.285430908203,-29.581817412664,Africa,Lesotho,Lesotho,2013-02-19,12:00
82518,Buteo rufofuscus,species,Jackal Buzzard,2,29.285430908203,-29.581817412664,Africa,Lesotho,Lesotho,2013-02-19,12:00
82519,Anthus hoeschi,species,Mountain Pipit,1,29.285430908203,-29.581817412664,Africa,Lesotho,Lesotho,2013-02-19,12:00
82523,Monticola explorator,species,Sentinel Rock Thrush,1,29.285430908203,-29.581817412664,Africa,Lesotho,Lesotho,2013-02-19,12:00
77193,Leonotis spec.,multispecies,,1,28.650054924656,-28.590113945285,Africa,Lesotho,Lesotho,2012-03-14,
77526,Chlorolestes fasciatus,species,Mountain Malachite,1,28.650054924656,-28.590113945285,Africa,Lesotho,Lesotho,2012-03-14,
103847,Buteo rufofuscus,species,Jackal Buzzard,1,29.288308,-29.584869,Africa,Lesotho,Lesotho,2013-02-19,11:49
103852,Passer melanurus,species,Cape Sparrow,4,29.288308,-29.584869,Africa,Lesotho,Lesotho,2013-02-19,11:50
103853,Monticola explorator,species,Sentinel Rock Thrush,1,29.28161,-29.582892,Africa,Lesotho,Lesotho,2013-02-19,12:01
103854,Anthus hoeschi,species,Mountain Pipit,2,29.272983,-29.575226,Africa,Lesotho,Lesotho,2013-02-19,12:35
103855,Corvus albicollis,species,White-necked Raven,2,29.273218,-29.574987,Africa,Lesotho,Lesotho,2013-02-19,12:35
103856,Geronticus calvus,species,Southern Bald Ibis,30,29.190673828125,-29.516110386062,Africa,Lesotho,Lesotho,2013-02-19,14:46
103857,Galerida magnirostris,species,Large-billed Lark,2,29.242858886719,-29.556734316911,Africa,Lesotho,Lesotho,2013-02-19,14:46
103858,Buteo rufofuscus,species,Jackal Buzzard,1,29.294979,-29.588125,Africa,Lesotho,Lesotho,2013-02-19,14:47
103860,Crithagra symonsi,species,Drakensberg Siskin,25,29.294965,-29.588127,Africa,Lesotho,Lesotho,2013-02-19,14:47
103861,Anthus hoeschi,species,Mountain Pipit,1,29.294956,-29.588131,Africa,Lesotho,Lesotho,2013-02-19,14:48
103862,Chaetops aurantius,species,Drakensberg Rockjumper,2,29.294583,-29.58809,Africa,Lesotho,Lesotho,2013-02-19,14:50
103863,Passer diffusus,species,Southern Grey-headed Sparrow,2,29.294635,-29.588115,Africa,Lesotho,Lesotho,2013-02-19,14:51
103864,Passer melanurus,species,Cape Sparrow,10,29.294654,-29.588101,Africa,Lesotho,Lesotho,2013-02-19,14:51
102018,Nectarinia famosa,species,Malachite Sunbird,2,28.6547389627,-28.5884384781,Africa,Lesotho,Lesotho,2012-03-14,
102020,Nectarinia famosa,species,Malachite Sunbird,2,28.6264148355,-28.6050930827,Africa,Lesotho,Lesotho,2012-03-14,
94933,Monticola explorator,species,Sentinel Rock Thrush,1,29.2775961757,-29.5779965621,Africa,Lesotho,Lesotho,2010-11-30,
95703,Buteo rufofuscus,species,Jackal Buzzard,1,29.2393612861,-29.5578588971,Africa,Lesotho,Lesotho,2010-11-30,
95706,Geronticus calvus,species,Southern Bald Ibis,7,29.2393612861,-29.5578588971,Africa,Lesotho,Lesotho,2010-11-30,
95732,Crithagra symonsi,species,Drakensberg Siskin,1,29.2886227369,-29.5846911195,Africa,Lesotho,Lesotho,2010-11-30,
95737,Passer melanurus,species,Cape Sparrow,4,29.2886227369,-29.5846911195,Africa,Lesotho,Lesotho,2010-11-30,
95744,Ciconia nigra,species,Black Stork,1,29.2874747514,-29.584887051,Africa,Lesotho,Lesotho,2010-11-30,
18570,Buteo rufofuscus,species,Jackal Buzzard,2,29.276676178,-29.5771148068,Africa,Lesotho,Lesotho,2008-10-03,
33489,Tagetes minuta,species,Southern Marigold,1,27.601561546279,-29.831150993606,Africa,Lesotho,Lesotho - Malealea,2007-03-24,
36539,Zehneria scabra,species,,1,28.439655304,-28.9129538598,Africa,Lesotho,Lesotho - Tšehlanyane NP,2007-04-08,
1938,Hibiscus trionum,species,Flower-of-an-Hour,1,28.454290514628,-28.885750919498,Africa,Lesotho,Lesotho - Tšehlanyane NP,2007-04-08,
4307,Xanthium spinosum,species,Spiny Cocklebur,1,27.4867703766,-29.335345777,Africa,Lesotho,Lesotho - Maseru,2007-04-09,
4309,Lanius collaris,species,Southern Fiscal,1,27.48716365546,-29.336730164774,Africa,Lesotho,Lesotho - Maseru,2007-03-21,
87971,Geocolaptes olivaceus,species,Ground Woodpecker,10,29.19368161671537,-29.52497553572136,Africa,Lesotho,Lesotho,2018-12-14,12:27
87972,Geronticus calvus,species,Southern Bald Ibis,6,29.240090051923723,-29.55969156144095,Africa,Lesotho,Lesotho,2018-12-14,12:07
109979,Geronticus calvus,species,Southern Bald Ibis,11,28.0241451263428,-29.7785663604736,Africa,Lesotho,Lesotho,2020-01-23,16:57
109980,Cossypha caffra,species,Cape Robin-Chat,1,28.0427398681641,-29.8430595397949,Africa,Lesotho,Lesotho,2020-01-23,18:09
109981,Passer melanurus,species,Cape Sparrow,1,28.0427570343018,-29.8430423736572,Africa,Lesotho,Lesotho,2020-01-24,05:34
109982,Pycnonotus nigricans,species,African Red-eyed Bulbul,1,28.0426635742187,-29.8430976867676,Africa,Lesotho,Lesotho,2020-01-24,06:53
109983,Geronticus calvus,species,Southern Bald Ibis,50,28.0444259643555,-29.8544979095459,Africa,Lesotho,Lesotho,2020-01-24,11:20
109984,Cossypha caffra,species,Cape Robin-Chat,1,28.0426597595215,-29.8430061340332,Africa,Lesotho,Lesotho,2020-01-25,07:56
76059,Monticola explorator,species,Sentinel Rock Thrush,2,29.27267801,-29.57453024,Africa,Lesotho,Lesotho,2019-11-12,12:35
76060,Passer melanurus,species,Cape Sparrow,2,29.28844833,-29.58451843,Africa,Lesotho,Lesotho,2019-11-12,11:43
56437,Lanius collaris,species,Southern Fiscal,1,27.5742721557617,-29.4054794311523,Africa,Lesotho,Lesotho,2019-10-12,15:38
56438,Motacilla capensis,species,Cape Wagtail,1,27.8307189941406,-29.6553840637207,Africa,Lesotho,Lesotho,2019-10-12,16:50
56439,Geronticus calvus,species,Southern Bald Ibis,9,28.043514251709,-29.8432502746582,Africa,Lesotho,Lesotho,2019-10-12,18:20
56440,Passer melanurus,species,Cape Sparrow,1,28.0437622070313,-29.8441677093506,Africa,Lesotho,Lesotho,2019-10-13,06:38
56441,Ploceus velatus,species,Southern Masked Weaver,1,28.0439414978027,-29.844310760498,Africa,Lesotho,Lesotho,2019-10-13,06:46
56442,Cossypha caffra,species,Cape Robin-Chat,1,28.0437602996826,-29.8428211212158,Africa,Lesotho,Lesotho,2019-10-13,06:54
56443,Serinus canicollis,species,Cape Canary,1,28.0432891845703,-29.8423480987549,Africa,Lesotho,Lesotho,2019-10-13,06:58
56444,Turdus olivaceus,species,Olive Thrush,1,28.0435066223145,-29.843843460083,Africa,Lesotho,Lesotho,2019-10-13,07:35
56445,Falco rupicolus,species,Rock Kestrel,1,28.0430431365967,-29.8418483734131,Africa,Lesotho,Lesotho,2019-10-13,07:59
56446,Pycnonotus nigricans,species,African Red-eyed Bulbul,1,28.0434341430664,-29.8433456420898,Africa,Lesotho,Lesotho,2019-10-13,08:59
56447,Emberiza capensis,species,Cape Bunting,1,28.0477447509766,-29.8473224639893,Africa,Lesotho,Lesotho,2019-10-13,09:36
56448,Calandrella cinerea,species,Red-capped Lark,1,28.0460720062256,-29.8511180877686,Africa,Lesotho,Lesotho,2019-10-13,09:46
56449,Cecropis cucullata,species,Greater Striped Swallow,1,28.0441398620605,-29.8445777893066,Africa,Lesotho,Lesotho,2019-10-13,14:12
56450,Ploceus capensis,species,Cape Weaver,1,28.0439414978027,-29.8439331054688,Africa,Lesotho,Lesotho,2019-10-14,07:59
95656,Passer melanurus,species,Cape Sparrow,10,28.787915,-29.48340822,Africa,Lesotho,Lesotho,2014-09-16,
35729,Euplectes ardens ardens,subspecies,Red-collared Widowbird ssp ardens,1,27.49517441,-29.28168259,Africa,Lesotho,Lesotho,2019-04-21,
35737,Amadina erythrocephala,species,Red-headed Finch,1,28.06002617,-29.83115099,Africa,Lesotho,Lesotho,2019-04-21,
35742,Falco rupicolus,species,Rock Kestrel,1,28.06002617,-29.83115099,Africa,Lesotho,Lesotho,2019-04-21,
35745,Geronticus calvus,species,Southern Bald Ibis,1,28.06002617,-29.83115099,Africa,Lesotho,Lesotho,2019-04-21,
35747,Monticola explorator,species,Sentinel Rock Thrush,1,28.06002617,-29.83115099,Africa,Lesotho,Lesotho,2019-04-21,
35753,Emberiza capensis,species,Cape Bunting,1,29.10325527,-29.89425257,Africa,Lesotho,Lesotho - Sehlabathebe NP,2019-04-21,
35790,Pelea capreolus,species,Grey Rhebok,1,29.10325527,-29.89425257,Africa,Lesotho,Lesotho - Sehlabathebe NP,2019-04-21,
35794,Balearica regulorum,species,Grey Crowned Crane,1,29.10325527,-29.89425257,Africa,Lesotho,Lesotho - Sehlabathebe NP,2019-04-21,
35800,Buteo rufofuscus,species,Jackal Buzzard,1,29.10325527,-29.89425257,Africa,Lesotho,Lesotho - Sehlabathebe NP,2019-04-21,
35806,Saxicola torquatus oreobates,subspecies,African Stonechat ssp oreobates,1,29.10325527,-29.89425257,Africa,Lesotho,Lesotho - Sehlabathebe NP,2019-04-21,
35825,Scleroptila afra,species,Grey-winged Francolin,1,29.10325527,-29.89425257,Africa,Lesotho,Lesotho - Sehlabathebe NP,2019-04-21,
35838,Geronticus calvus,species,Southern Bald Ibis,1,29.10325527,-29.89425257,Africa,Lesotho,Lesotho - Sehlabathebe NP,2019-04-21,
20516,Monticola explorator,species,Sentinel Rock Thrush,1,29.2789936065674,-29.5800189971924,Africa,Lesotho,Lesotho,2018-12-14,11:43
20517,Myrmecocichla monticola,species,Mountain Wheatear,1,29.2733783721924,-29.5744514465332,Africa,Lesotho,Lesotho,2018-12-14,11:46
20518,Myrmecocichla monticola,species,Mountain Wheatear,1,29.2634124755859,-29.5704803466797,Africa,Lesotho,Lesotho,2018-12-14,12:15
20519,Chaetops aurantius,species,Drakensberg Rockjumper,2,29.2895240783691,-29.5849132537842,Africa,Lesotho,Lesotho,2018-12-14,14:33
21404,Crithagra symonsi,species,Drakensberg Siskin,1,29.2861423492432,-29.5847225189209,Africa,Lesotho,Lesotho,2018-12-14,11:33
21405,Monticola explorator,species,Sentinel Rock Thrush,1,29.2789440155029,-29.579870223999,Africa,Lesotho,Lesotho,2018-12-14,11:43
21406,Myrmecocichla monticola,species,Mountain Wheatear,1,29.2735347747803,-29.5745277404785,Africa,Lesotho,Lesotho,2018-12-14,11:47
21407,Monticola explorator,species,Sentinel Rock Thrush,1,29.2649517059326,-29.5708026885986,Africa,Lesotho,Lesotho,2018-12-14,12:04
21408,Myrmecocichla monticola,species,Mountain Wheatear,1,29.263391494751,-29.5702114105225,Africa,Lesotho,Lesotho,2018-12-14,12:16
21409,Emberiza capensis,species,Cape Bunting,1,29.2633457183838,-29.5716724395752,Africa,Lesotho,Lesotho,2018-12-14,12:32
21410,Emberiza capensis,species,Cape Bunting,1,29.2179164886475,-29.5439491271973,Africa,Lesotho,Lesotho,2018-12-14,13:40
21411,Crithagra flaviventris,species,Yellow Canary,2,29.2126522064209,-29.5386981964111,Africa,Lesotho,Lesotho,2018-12-14,14:10
21412,Passer melanurus,species,Cape Sparrow,2,29.2336235046387,-29.5543155670166,Africa,Lesotho,Lesotho,2018-12-14,14:13
21413,Chaetops aurantius,species,Drakensberg Rockjumper,2,29.2895755767822,-29.5849514007568,Africa,Lesotho,Lesotho,2018-12-14,14:31
21414,Crithagra symonsi,species,Drakensberg Siskin,2,29.2883071899414,-29.5848197937012,Africa,Lesotho,Lesotho,2018-12-14,14:45
21415,Monticola explorator,species,Sentinel Rock Thrush,2,29.2868595123291,-29.5842266082764,Africa,Lesotho,Lesotho,2018-12-14,14:57
63943,Tragelaphus oryx,species,Common Eland,4,27.95660019,-28.97776028,Africa,Lesotho,Lesotho,2014-07-16,
79854,Passer melanurus,species,Cape Sparrow,1,29.28575701,-29.58447632,Africa,Lesotho,Lesotho,2018-07-30,11:53
71937,Gyps coprotheres,species,Cape Vulture,2,29.1906249616567,-29.5215875096894,Africa,Lesotho,Lesotho,2018-05-21,09:25
71938,Monticola rupestris,species,Cape Rock Thrush,1,29.2638474237446,-29.5700484048851,Africa,Lesotho,Lesotho,2018-05-21,08:38
71939,Gyps coprotheres,species,Cape Vulture,1,29.2638345156137,-29.57000469326,Africa,Lesotho,Lesotho,2018-05-21,08:33
71940,Geocolaptes olivaceus,species,Ground Woodpecker,1,29.2639308236812,-29.5700107701398,Africa,Lesotho,Lesotho,2018-05-21,08:33
83284,Passer melanurus,species,Cape Sparrow,1,29.28935594,-29.58506104,Africa,Lesotho,Lesotho,2017-11-20,11:58
83285,Crithagra symonsi,species,Drakensberg Siskin,1,29.28935253,-29.58504851,Africa,Lesotho,Lesotho,2017-11-20,11:58
83286,Chaetops aurantius,species,Drakensberg Rockjumper,1,29.28943435,-29.58501453,Africa,Lesotho,Lesotho,2017-11-20,12:02
83287,Emberiza capensis,species,Cape Bunting,1,29.28939823,-29.58503444,Africa,Lesotho,Lesotho,2017-11-20,12:03
83288,Monticola explorator,species,Sentinel Rock Thrush,1,29.28935303,-29.58503254,Africa,Lesotho,Lesotho,2017-11-20,12:12
83289,Geronticus calvus,species,Southern Bald Ibis,4,29.27831908,-29.58337452,Africa,Lesotho,Lesotho,2017-11-20,13:36
85951,Serinus canicollis,species,Cape Canary,1,28.08289493,-29.848315,Africa,Lesotho,Lesotho,2016-12-23,
59355,Cossypha caffra,species,Cape Robin-Chat,1,28.04412603,-29.84408299,Africa,Lesotho,Lesotho,2016-12-23,
59453,Nectarinia famosa,species,Malachite Sunbird,1,28.04367585,-29.84346889,Africa,Lesotho,Lesotho,2016-12-23,
59462,Passer melanurus,species,Cape Sparrow,1,28.04367585,-29.84346889,Africa,Lesotho,Lesotho,2016-12-23,
70908,Pycnonotus nigricans,species,African Red-eyed Bulbul,1,28.04409027,-29.84304118,Africa,Lesotho,Lesotho,2016-12-22,
70926,Onychognathus morio,species,Red-winged Starling,1,28.04409027,-29.84304118,Africa,Lesotho,Lesotho,2016-12-22,
70948,Crithagra flaviventris,species,Yellow Canary,1,28.04409027,-29.84304118,Africa,Lesotho,Lesotho,2016-12-22,
70977,Aves indet.,multispecies,Unidentified bird,1,28.04409027,-29.84304118,Africa,Lesotho,Lesotho,2016-12-22,
71072,Euplectes orix,species,Southern Red Bishop,1,28.04409027,-29.84304118,Africa,Lesotho,Lesotho,2016-12-22,
71096,Passer domesticus,species,House Sparrow,1,28.04409027,-29.84304118,Africa,Lesotho,Lesotho,2016-12-22,
71147,Serinus canicollis,species,Cape Canary,1,28.04409027,-29.84304118,Africa,Lesotho,Lesotho,2016-12-22,
71333,Motacilla capensis,species,Cape Wagtail,1,28.04409027,-29.84304118,Africa,Lesotho,Lesotho,2016-12-22,
71663,Geronticus calvus,species,Southern Bald Ibis,8,28.04409027,-29.84304118,Africa,Lesotho,Lesotho,2016-12-22,
71687,Cossypha caffra,species,Cape Robin-Chat,1,28.04409027,-29.84304118,Africa,Lesotho,Lesotho,2016-12-22,
71736,Passer melanurus,species,Cape Sparrow,1,28.04409027,-29.84304118,Africa,Lesotho,Lesotho,2016-12-22,
56486,Melaniparus afer,species,Grey Tit,1,29.2181,-29.545,Africa,Lesotho,Lesotho,2017-01-31,13:22
56487,Gypaetus barbatus,species,Bearded Vulture,1,29.2176,-29.5458,Africa,Lesotho,Lesotho,2017-01-31,13:03
56488,Myrmecocichla monticola,species,Mountain Wheatear,1,29.2352,-29.5545,Africa,Lesotho,Lesotho,2017-01-31,12:07
56489,Anthus hoeschi,species,Mountain Pipit,1,29.2642,-29.5708,Africa,Lesotho,Lesotho,2017-01-31,11:32
56490,Emarginata sinuata,species,Sickle-winged Chat,1,29.2856,-29.5838,Africa,Lesotho,Lesotho,2017-01-31,11:05
56491,Monticola explorator,species,Sentinel Rock Thrush,1,29.2883,-29.5849,Africa,Lesotho,Lesotho,2017-01-31,10:55
56492,Passer melanurus,species,Cape Sparrow,1,29.2859,-29.5845,Africa,Lesotho,Lesotho,2017-01-31,10:51
103949,Geronticus calvus,species,Southern Bald Ibis,2,29.28361288,-29.58377517,Africa,Lesotho,Lesotho,2017-01-12,09:28
103950,Gyps coprotheres,species,Cape Vulture,17,29.28094345,-29.58258405,Africa,Lesotho,Lesotho,2017-01-12,09:29
103951,Anthus hoeschi,species,Mountain Pipit,3,29.27173429,-29.57623148,Africa,Lesotho,Lesotho,2017-01-12,09:36
103952,Emarginata sinuata,species,Sickle-winged Chat,3,29.27173436,-29.57623555,Africa,Lesotho,Lesotho,2017-01-12,09:37
103953,Passer melanurus,species,Cape Sparrow,3,29.27173681,-29.57624938,Africa,Lesotho,Lesotho,2017-01-12,09:37
103954,Buteo rufofuscus,species,Jackal Buzzard,3,29.25131041,-29.56306937,Africa,Lesotho,Lesotho,2017-01-12,09:57
103955,Geocolaptes olivaceus,species,Ground Woodpecker,4,29.21696274,-29.54332858,Africa,Lesotho,Lesotho,2017-01-12,10:28
103956,Melaniparus afer,species,Grey Tit,8,29.21660996,-29.54344751,Africa,Lesotho,Lesotho,2017-01-12,10:28
103957,Monticola explorator,species,Sentinel Rock Thrush,1,29.21611711,-29.54317768,Africa,Lesotho,Lesotho,2017-01-12,10:33
103958,Crithagra symonsi,species,Drakensberg Siskin,1,29.21787667,-29.54349971,Africa,Lesotho,Lesotho,2017-01-12,10:47
103959,Chaetops aurantius,species,Drakensberg Rockjumper,1,29.17759868,-29.50714174,Africa,Lesotho,Lesotho,2017-01-12,11:15
103960,Gypaetus barbatus,species,Bearded Vulture,1,29.16783806,-29.49001272,Africa,Lesotho,Lesotho,2017-01-12,11:32
53866,Passer melanurus,species,Cape Sparrow,1,29.2858306655897,-29.5845931373352,Africa,Lesotho,Lesotho,2016-12-06,10:20
53867,Crithagra symonsi,species,Drakensberg Siskin,4,29.2855772618902,-29.5838976345719,Africa,Lesotho,Lesotho,2016-12-06,10:23
53868,Crithagra symonsi,species,Drakensberg Siskin,9,29.2881494101057,-29.5845192018853,Africa,Lesotho,Lesotho,2016-12-06,10:37
53869,Emarginata sinuata,species,Sickle-winged Chat,1,29.288142318401,-29.5845141072914,Africa,Lesotho,Lesotho,2016-12-06,10:37
53870,Nectarinia famosa,species,Malachite Sunbird,4,29.287949096015,-29.5845119091435,Africa,Lesotho,Lesotho,2016-12-06,10:38
53871,Passer melanurus,species,Cape Sparrow,3,29.2874834480456,-29.5845156360389,Africa,Lesotho,Lesotho,2016-12-06,10:38
53872,Geocolaptes olivaceus,species,Ground Woodpecker,1,29.2636190597113,-29.5702879587599,Africa,Lesotho,Lesotho,2016-12-06,10:48
53873,Anthus hoeschi,species,Mountain Pipit,3,29.2634696420223,-29.5702970125,Africa,Lesotho,Lesotho,2016-12-06,10:51
53874,Gyps coprotheres,species,Cape Vulture,1,29.2634663749693,-29.5702928482678,Africa,Lesotho,Lesotho,2016-12-06,10:51
53875,Geocolaptes olivaceus,species,Ground Woodpecker,2,29.2632525712003,-29.5701462833996,Africa,Lesotho,Lesotho,2016-12-06,10:53
53876,Melaniparus afer,species,Grey Tit,1,29.2632437441335,-29.5701317015616,Africa,Lesotho,Lesotho,2016-12-06,10:54
53877,Myrmecocichla monticola,species,Mountain Wheatear,2,29.2346255553801,-29.5545048615898,Africa,Lesotho,Lesotho,2016-12-06,11:17
53878,Crithagra symonsi,species,Drakensberg Siskin,3,29.2118812158184,-29.5339684783082,Africa,Lesotho,Lesotho,2016-12-06,11:24
53879,Chaetops aurantius,species,Drakensberg Rockjumper,2,29.151116847077,-29.4639544069705,Africa,Lesotho,Lesotho,2016-12-06,12:33
53880,Crithagra flaviventris,species,Yellow Canary,1,29.1511058422205,-29.4639052412919,Africa,Lesotho,Lesotho,2016-12-06,12:38
53881,Crithagra flaviventris,species,Yellow Canary,5,29.1552638741864,-29.4663763309172,Africa,Lesotho,Lesotho,2016-12-06,12:49
53882,Gypaetus barbatus,species,Bearded Vulture,1,29.1619269342174,-29.4731702730235,Africa,Lesotho,Lesotho,2016-12-06,13:07
53883,Monticola explorator,species,Sentinel Rock Thrush,1,29.2152220538338,-29.5430581685539,Africa,Lesotho,Lesotho,2016-12-06,13:35
53884,Nectarinia famosa,species,Malachite Sunbird,1,29.2151794775262,-29.5430818560765,Africa,Lesotho,Lesotho,2016-12-06,13:36
53885,Crithagra symonsi,species,Drakensberg Siskin,2,29.2151747204646,-29.5430876878706,Africa,Lesotho,Lesotho,2016-12-06,13:36
53886,Emberiza capensis,species,Cape Bunting,2,29.2151720453527,-29.5430910389463,Africa,Lesotho,Lesotho,2016-12-06,13:36
53888,Geronticus calvus,species,Southern Bald Ibis,9,29.2840622536919,-29.5840370913369,Africa,Lesotho,Lesotho,2016-12-06,14:10
18508,Monticola explorator,species,Sentinel Rock Thrush,2,29.2884,-29.5843,Africa,Lesotho,Lesotho,2016-08-08,13:58
94827,Emberiza capensis,species,Cape Bunting,1,29.2884,-29.5843,Africa,Lesotho,Lesotho,2016-08-08,13:58
94856,Chaetops aurantius,species,Drakensberg Rockjumper,2,29.2879,-29.5843,Africa,Lesotho,Lesotho,2016-08-08,14:29
94857,Passer melanurus,species,Cape Sparrow,15,29.2884,-29.5843,Africa,Lesotho,Lesotho,2016-08-08,13:58
94858,Gyps coprotheres,species,Cape Vulture,1,29.236,-29.5567,Africa,Lesotho,Lesotho,2016-08-08,12:16
33031,Geronticus calvus,species,Southern Bald Ibis,11,27.7423,-29.0428,Africa,Lesotho,Lesotho,2016-08-07,10:10
33032,Pycnonotus nigricans superior,subspecies,African Red-eyed Bulbul ssp superior,2,27.4731,-29.3217,Africa,Lesotho,Lesotho - Maseru,2016-08-07,08:29
1183,Prinia maculosa,species,Karoo Prinia,2,29.2523,-29.5668,Africa,Lesotho,Lesotho,2016-06-08,11:18
1184,Geocolaptes olivaceus,species,Ground Woodpecker,2,29.2565,-29.5658,Africa,Lesotho,Lesotho,2016-06-08,11:01
103270,Passer melanurus,species,Cape Sparrow,2,29.2854801099747,-29.5843992289156,Africa,Lesotho,Lesotho,2015-11-04,11:09
103285,Crithagra symonsi,species,Drakensberg Siskin,4,29.2856494244188,-29.5847363071516,Africa,Lesotho,Lesotho,2015-11-04,11:12
103288,Crithagra symonsi,species,Drakensberg Siskin,2,29.2854801099747,-29.5843992289156,Africa,Lesotho,Lesotho,2015-11-04,11:11
103292,Emberiza capensis,species,Cape Bunting,1,29.2882940825,-29.5847707568,Africa,Lesotho,Lesotho,2015-11-04,15:08
103293,Emberiza capensis,species,Cape Bunting,2,29.2533417139,-29.5674691675,Africa,Lesotho,Lesotho,2015-11-04,12:20
103296,Anthus hoeschi,species,Mountain Pipit,1,29.252310320735,-29.5662799431011,Africa,Lesotho,Lesotho,2015-11-04,12:09
103298,Anthus hoeschi,species,Mountain Pipit,1,29.2720750998706,-29.5765739679337,Africa,Lesotho,Lesotho,2015-11-04,11:32
103304,Onychognathus morio,species,Red-winged Starling,2,29.28548011,-29.5843992289,Africa,Lesotho,Lesotho,2015-11-04,11:11
103308,Emarginata sinuata,species,Sickle-winged Chat,1,29.2720750998706,-29.5765739679337,Africa,Lesotho,Lesotho,2015-11-04,11:30
103309,Emarginata sinuata,species,Sickle-winged Chat,3,29.2789817042649,-29.579797773622,Africa,Lesotho,Lesotho,2015-11-04,11:23
103310,Emarginata sinuata,species,Sickle-winged Chat,1,29.285462172702,-29.584363270551,Africa,Lesotho,Lesotho,2015-11-04,11:08
103314,Monticola explorator,species,Sentinel Rock Thrush,1,29.2882940825075,-29.5847707567737,Africa,Lesotho,Lesotho,2015-11-04,15:07
103315,Monticola explorator,species,Sentinel Rock Thrush,1,29.2532549612224,-29.5675043715164,Africa,Lesotho,Lesotho,2015-11-04,12:17
103316,Monticola explorator,species,Sentinel Rock Thrush,1,29.2720410693437,-29.5768648618832,Africa,Lesotho,Lesotho,2015-11-04,11:36
103317,Prinia maculosa,species,Karoo Prinia,1,29.2534511816,-29.5670416066,Africa,Lesotho,Lesotho,2015-11-04,12:22
103318,Melaniparus afer,species,Grey Tit,1,29.1614894662052,-29.4776486931369,Africa,Lesotho,Lesotho,2015-11-04,14:10
103320,Melaniparus afer,species,Grey Tit,1,29.1459282115102,-29.4582672603428,Africa,Lesotho,Lesotho,2015-11-04,13:51
103322,Galerida magnirostris,species,Large-billed Lark,2,29.2594229523,-29.5670499466,Africa,Lesotho,Lesotho,2015-11-04,11:58
103323,Corvus albicollis,species,White-necked Raven,1,29.213309744373,-29.539688732475,Africa,Lesotho,Lesotho,2015-11-04,12:38
103324,Corvus albicollis,species,White-necked Raven,6,29.27535510621965,-29.576161494478583,Africa,Lesotho,Lesotho,2015-11-04,11:27
103363,Geronticus calvus,species,Southern Bald Ibis,1,29.288197020068765,-29.584780102595687,Africa,Lesotho,Lesotho,2015-11-04,15:11
103365,Geronticus calvus,species,Southern Bald Ibis,2,29.2811431456357,-29.5827450603247,Africa,Lesotho,Lesotho,2015-11-04,11:21
40241,Emberiza capensis,species,Cape Bunting,2,29.2533417139,-29.5674691675,Africa,Lesotho,Lesotho,2015-11-04,12:20
40260,Onychognathus morio,species,Red-winged Starling,2,29.28548011,-29.5843992289,Africa,Lesotho,Lesotho,2015-11-04,11:11
40320,Prinia maculosa,species,Karoo Prinia,1,29.2534511816,-29.5670416066,Africa,Lesotho,Lesotho,2015-11-04,12:22
46571,Emarginata sinuata,species,Sickle-winged Chat,1,29.285462172702,-29.584363270551,Africa,Lesotho,Lesotho,2015-11-04,11:08
46572,Passer melanurus,species,Cape Sparrow,2,29.2854801099747,-29.5843992289156,Africa,Lesotho,Lesotho,2015-11-04,11:09
46573,Crithagra symonsi,species,Drakensberg Siskin,2,29.2854801099747,-29.5843992289156,Africa,Lesotho,Lesotho,2015-11-04,11:11
46574,Crithagra symonsi,species,Drakensberg Siskin,4,29.2856494244188,-29.5847363071516,Africa,Lesotho,Lesotho,2015-11-04,11:12
46575,Geronticus calvus,species,Southern Bald Ibis,2,29.2811431456357,-29.5827450603247,Africa,Lesotho,Lesotho,2015-11-04,11:21
46576,Emarginata sinuata,species,Sickle-winged Chat,3,29.2789817042649,-29.579797773622,Africa,Lesotho,Lesotho,2015-11-04,11:23
46577,Corvus albicollis,species,White-necked Raven,4,29.2766107153,-29.5774093084,Africa,Lesotho,Lesotho,2015-11-04,11:27
46578,Emarginata sinuata,species,Sickle-winged Chat,1,29.2720750998706,-29.5765739679337,Africa,Lesotho,Lesotho,2015-11-04,11:30
46579,Anthus hoeschi,species,Mountain Pipit,1,29.2720750998706,-29.5765739679337,Africa,Lesotho,Lesotho,2015-11-04,11:32
46580,Monticola explorator,species,Sentinel Rock Thrush,1,29.2720410693437,-29.5768648618832,Africa,Lesotho,Lesotho,2015-11-04,11:36
46581,Galerida magnirostris,species,Large-billed Lark,2,29.2594229523,-29.5670499466,Africa,Lesotho,Lesotho,2015-11-04,11:58
46582,Anthus hoeschi,species,Mountain Pipit,1,29.252310320735,-29.5662799431011,Africa,Lesotho,Lesotho,2015-11-04,12:09
46583,Monticola explorator,species,Sentinel Rock Thrush,1,29.2532549612224,-29.5675043715164,Africa,Lesotho,Lesotho,2015-11-04,12:17
46584,Corvus albicollis,species,White-necked Raven,1,29.213309744373,-29.539688732475,Africa,Lesotho,Lesotho,2015-11-04,12:38
46585,Melaniparus afer,species,Grey Tit,1,29.1459282115102,-29.4582672603428,Africa,Lesotho,Lesotho,2015-11-04,13:51
46586,Melaniparus afer,species,Grey Tit,1,29.1614894662052,-29.4776486931369,Africa,Lesotho,Lesotho,2015-11-04,14:10
46587,Monticola explorator,species,Sentinel Rock Thrush,1,29.2882940825075,-29.5847707567737,Africa,Lesotho,Lesotho,2015-11-04,15:07
46588,Emberiza capensis,species,Cape Bunting,1,29.2882940825,-29.5847707568,Africa,Lesotho,Lesotho,2015-11-04,15:08
37277,Crithagra symonsi,species,Drakensberg Siskin,1,29.28826566,-29.58474533,Africa,Lesotho,Lesotho,2015-11-22,15:39
37278,Emarginata sinuata,species,Sickle-winged Chat,1,29.28827798,-29.58486179,Africa,Lesotho,Lesotho,2015-11-22,16:03
37279,Columba guinea,species,Speckled Pigeon,10,29.28827798,-29.58486179,Africa,Lesotho,Lesotho,2015-11-22,16:03
37280,Monticola explorator,species,Sentinel Rock Thrush,4,29.28828443,-29.58486497,Africa,Lesotho,Lesotho,2015-11-22,16:04
37281,Emberiza capensis,species,Cape Bunting,6,29.28828454,-29.58486505,Africa,Lesotho,Lesotho,2015-11-22,16:04
37282,Passer melanurus,species,Cape Sparrow,4,29.28828474,-29.58486502,Africa,Lesotho,Lesotho,2015-11-22,16:04
74400,Emarginata sinuata,species,Sickle-winged Chat,1,29.285462172702,-29.584363270551,Africa,Lesotho,Lesotho,2015-11-04,11:08
74401,Passer melanurus,species,Cape Sparrow,2,29.2854801099747,-29.5843992289156,Africa,Lesotho,Lesotho,2015-11-04,11:09
74402,Crithagra symonsi,species,Drakensberg Siskin,2,29.2854801099747,-29.5843992289156,Africa,Lesotho,Lesotho,2015-11-04,11:11
74403,Crithagra symonsi,species,Drakensberg Siskin,4,29.2856494244188,-29.5847363071516,Africa,Lesotho,Lesotho,2015-11-04,11:12
74404,Geronticus calvus,species,Southern Bald Ibis,2,29.2811431456357,-29.5827450603247,Africa,Lesotho,Lesotho,2015-11-04,11:21
74405,Emarginata sinuata,species,Sickle-winged Chat,3,29.2789817042649,-29.579797773622,Africa,Lesotho,Lesotho,2015-11-04,11:23
74406,Corvus albicollis,species,White-necked Raven,2,29.2766107153147,-29.5774093084037,Africa,Lesotho,Lesotho,2015-11-04,11:27
74407,Emarginata sinuata,species,Sickle-winged Chat,1,29.2720750998706,-29.5765739679337,Africa,Lesotho,Lesotho,2015-11-04,11:30
74408,Anthus hoeschi,species,Mountain Pipit,1,29.2720750998706,-29.5765739679337,Africa,Lesotho,Lesotho,2015-11-04,11:32
74409,Monticola explorator,species,Sentinel Rock Thrush,1,29.2720410693437,-29.5768648618832,Africa,Lesotho,Lesotho,2015-11-04,11:36
74410,Galerida magnirostris,species,Large-billed Lark,1,29.2594229523093,-29.567049946636,Africa,Lesotho,Lesotho,2015-11-04,11:58
74411,Anthus hoeschi,species,Mountain Pipit,1,29.252310320735,-29.5662799431011,Africa,Lesotho,Lesotho,2015-11-04,12:09
74412,Monticola explorator,species,Sentinel Rock Thrush,1,29.2532549612224,-29.5675043715164,Africa,Lesotho,Lesotho,2015-11-04,12:17
74413,Corvus albicollis,species,White-necked Raven,1,29.213309744373,-29.539688732475,Africa,Lesotho,Lesotho,2015-11-04,12:38
74414,Melaniparus afer,species,Grey Tit,1,29.1459282115102,-29.4582672603428,Africa,Lesotho,Lesotho,2015-11-04,13:51
74415,Melaniparus afer,species,Grey Tit,1,29.1614894662052,-29.4776486931369,Africa,Lesotho,Lesotho,2015-11-04,14:10
74416,Monticola explorator,species,Sentinel Rock Thrush,1,29.2882940825075,-29.5847707567737,Africa,Lesotho,Lesotho,2015-11-04,15:07
74417,Emberiza capensis,species,Cape Bunting,1,29.2882940825075,-29.5847707567737,Africa,Lesotho,Lesotho,2015-11-04,15:08
20951,Geronticus calvus,species,Southern Bald Ibis,1,29.288197020068765,-29.584780102595687,Africa,Lesotho,Lesotho,2015-11-04,15:11
20952,Monticola explorator,species,Sentinel Rock Thrush,1,29.288197020068765,-29.584780102595687,Africa,Lesotho,Lesotho,2015-11-04,15:11
20953,Emberiza capensis,species,Cape Bunting,1,29.288197020068765,-29.584780102595687,Africa,Lesotho,Lesotho,2015-11-04,15:11
20954,Onychognathus morio,species,Red-winged Starling,1,29.28515992127359,-29.58433225750923,Africa,Lesotho,Lesotho,2015-11-04,14:47
20955,Melaniparus afer,species,Grey Tit,1,29.160896446555853,-29.47862782515585,Africa,Lesotho,Lesotho,2015-11-04,14:11
20956,Melaniparus afer,species,Grey Tit,1,29.146025106310844,-29.458264326676726,Africa,Lesotho,Lesotho,2015-11-04,14:02
20957,Gypaetus barbatus,species,Bearded Vulture,3,29.16079510934651,-29.469858091324568,Africa,Lesotho,Lesotho,2015-11-04,13:03
20958,Anthus hoeschi,species,Mountain Pipit,1,29.25222985446453,-29.56623086705804,Africa,Lesotho,Lesotho,2015-11-04,12:28
20959,Emberiza capensis,species,Cape Bunting,1,29.25222985446453,-29.56623086705804,Africa,Lesotho,Lesotho,2015-11-04,12:28
20960,Gyps coprotheres,species,Cape Vulture,2,29.27329600788653,-29.574425099417567,Africa,Lesotho,Lesotho,2015-11-04,11:49
20961,Anthus hoeschi,species,Mountain Pipit,1,29.27348082885146,-29.574439264833927,Africa,Lesotho,Lesotho,2015-11-04,11:42
20962,Corvus albicollis,species,White-necked Raven,6,29.27535510621965,-29.576161494478583,Africa,Lesotho,Lesotho,2015-11-04,11:27
20963,Emarginata sinuata,species,Sickle-winged Chat,5,29.2774885520339,-29.57814850844443,Africa,Lesotho,Lesotho,2015-11-04,11:25
20964,Geronticus calvus,species,Southern Bald Ibis,2,29.28108179010451,-29.58275143057108,Africa,Lesotho,Lesotho,2015-11-04,11:21
20965,Passer melanurus,species,Cape Sparrow,4,29.28569938056171,-29.584236536175013,Africa,Lesotho,Lesotho,2015-11-04,11:13
20966,Crithagra symonsi,species,Drakensberg Siskin,4,29.285698626190424,-29.58422882482409,Africa,Lesotho,Lesotho,2015-11-04,11:13
20967,Emarginata sinuata,species,Sickle-winged Chat,1,29.28537458181381,-29.58435815759003,Africa,Lesotho,Lesotho,2015-11-04,11:08
21457,Crithagra symonsi,species,Drakensberg Siskin,2,29.2854801099747,-29.5843992289156,Africa,Lesotho,Lesotho,2015-11-04,11:11
21458,Crithagra symonsi,species,Drakensberg Siskin,4,29.2856494244188,-29.5847363071516,Africa,Lesotho,Lesotho,2015-11-04,11:12
21459,Geronticus calvus,species,Southern Bald Ibis,2,29.2811431456357,-29.5827450603247,Africa,Lesotho,Lesotho,2015-11-04,11:21
21460,Corvus albicollis,species,White-necked Raven,2,29.2766107153147,-29.5774093084037,Africa,Lesotho,Lesotho,2015-11-04,11:27
21461,Anthus hoeschi,species,Mountain Pipit,1,29.2720750998706,-29.5765739679337,Africa,Lesotho,Lesotho,2015-11-04,11:32
21462,Galerida magnirostris harei,subspecies,Large-billed Lark ssp harei,1,29.25942295,-29.56704995,Africa,Lesotho,Lesotho,2015-11-04,11:58
21463,Anthus hoeschi,species,Mountain Pipit,1,29.252310320735,-29.5662799431011,Africa,Lesotho,Lesotho,2015-11-04,12:09
21464,Corvus albicollis,species,White-necked Raven,1,29.213309744373,-29.539688732475,Africa,Lesotho,Lesotho,2015-11-04,12:38
28681,Pycnonotus nigricans,species,African Red-eyed Bulbul,5,27.381362915,-29.8233698606,Africa,Lesotho,Lesotho,2001-07-31,
114877,Geronticus calvus,species,Southern Bald Ibis,1,29.2712420225,-29.5755495556,Africa,Lesotho,Lesotho,2015-02-11,
