,scientificName,taxonRank,vernacularName,individualCount,longitudeDecimal,latitudeDecimal,continent,country,locality,eventDate,eventTime
6432,Tarentola mauritanica,species,Moorish Gecko,1,14.3610008061,35.961160277,Europe,Malta,Malta - Malta Island,2015-03-13,
6437,Podarcis filfolensis,species,Maltese Wall Lizard,1,14.4982387125,35.8493279402,Europe,Malta,Malta - Malta Island,2015-03-13,
6441,Podarcis filfolensis,species,Maltese Wall Lizard,6,14.4976043701,35.8493620009,Europe,Malta,Malta - Malta Island,2015-03-13,
75077,Ischnura genei,species,Island Bluetail,10,14.4083547592,35.9182845886,Europe,Malta,Malta - Malta Island,2007-04-30,
75099,Ischnura genei,species,Island Bluetail,10,14.3863928318,35.8922139064,Europe,Malta,Malta - Malta Island,2007-04-26,
73001,Cisticola juncidis,species,Zitting Cisticola,1,14.4122600555,35.8934654953,Europe,Malta,Malta - Malta Island,2014-04-28,
73020,Lanius senator,species,Woodchat Shrike,1,14.4122600555,35.8934654953,Europe,Malta,Malta - Malta Island,2014-04-25,
73022,Sylvia melanocephala,species,Sardinian Warbler,1,14.4122600555,35.8934654953,Europe,Malta,Malta - Malta Island,2014-04-25,
73024,Muscicapa striata,species,Spotted Flycatcher,1,14.4122600555,35.8934654953,Europe,Malta,Malta - Malta Island,2014-04-25,
73026,Ficedula hypoleuca,species,European Pied Flycatcher,1,14.4122600555,35.8934654953,Europe,Malta,Malta - Malta Island,2014-04-25,
73028,Passer hispaniolensis,species,Spanish Sparrow,100,14.4122600555,35.8934654953,Europe,Malta,Malta - Malta Island,2014-04-25,
73055,Falco naumanni,species,Lesser Kestrel,1,14.4122600555,35.8934654953,Europe,Malta,Malta - Malta Island,2014-04-24,
73062,Muscicapa striata,species,Spotted Flycatcher,3,14.4122600555,35.8934654953,Europe,Malta,Malta - Malta Island,2014-04-23,
73064,Himantopus himantopus,species,Black-winged Stilt,4,14.4122600555,35.8934654953,Europe,Malta,Malta - Malta Island,2014-04-23,
73068,Ficedula hypoleuca,species,European Pied Flycatcher,1,14.4122600555,35.8934654953,Europe,Malta,Malta - Malta Island,2014-04-23,
11019,Podarcis filfolensis,species,Maltese Wall Lizard,10,14.4905953109,35.9144956398,Europe,Malta,Malta - Malta Island,1998-08-15,
83190,Crocothemis erythraea,species,Broad Scarlet,1,14.3866288662,35.8924529266,Europe,Malta,Malta - Malta Island,2007-04-30,
89569,Anax imperator,species,Blue Emperor,1,14.4082689285,35.9183019662,Europe,Malta,Malta - Malta Island,2007-04-30,
46828,Pyrgomorpha conica,species,,1,14.3713582121,35.991974586,Europe,Malta,Malta - Malta Island,2014-12-17,
52673,Leptotes pirithous,species,Lang’s Short-tailed Blue,5,14.5100060385,35.8937153422,Europe,Malta,Malta - Malta Island,2014-12-17,
52685,Chamaeleo chamaeleon,species,Common Chameleon,5,14.3698508106,35.9903773222,Europe,Malta,Malta - Malta Island,2014-12-17,
52686,Chalcides ocellatus,species,Ocellated Skink,1,14.3704087101,35.9914884657,Europe,Malta,Malta - Malta Island,2014-12-17,
52687,Zamenis situla,species,European Ratsnake,1,14.36,35.99,Europe,Malta,Malta - Malta Island,2014-12-17,
52692,Discoglossus pictus,species,Painted Frog,5,14.403169211,35.8998317109,Europe,Malta,Malta - Malta Island,2014-12-17,
52695,Chalcides ocellatus,species,Ocellated Skink,10,14.507126268,35.8978849427,Europe,Malta,Malta - Malta Island,2014-12-17,
52699,Tarentola mauritanica,species,Moorish Gecko,20,14.5102751814,35.8936175289,Europe,Malta,Malta - Malta Island,2014-12-17,
52700,Chalcides ocellatus,species,Ocellated Skink,20,14.5102751814,35.8936175289,Europe,Malta,Malta - Malta Island,2014-12-17,
52701,Podarcis filfolensis,species,Maltese Wall Lizard,40,14.5102751814,35.8936175289,Europe,Malta,Malta - Malta Island,2014-12-17,
52702,Chamaeleo chamaeleon,species,Common Chameleon,1,14.5102751814,35.8936175289,Europe,Malta,Malta - Malta Island,2014-12-17,
52705,Chalcides ocellatus,species,Ocellated Skink,20,14.4987381622,35.8918921785,Europe,Malta,Malta - Malta Island,2014-12-17,
52706,Tarentola mauritanica,species,Moorish Gecko,50,14.4987381622,35.8918921785,Europe,Malta,Malta - Malta Island,2014-12-17,
52708,Chalcides ocellatus,species,Ocellated Skink,1,14.4290258735,35.9597711189,Europe,Malta,Malta - Malta Island,2014-12-17,
52709,Podarcis filfolensis,species,Maltese Wall Lizard,20,14.4290258735,35.9597711189,Europe,Malta,Malta - Malta Island,2014-12-17,
52735,Erithacus rubecula,species,European Robin,1,14.5097492169589,35.8937056409195,Europe,Malta,Malta - Malta Island,2014-12-14,10:38
50797,Podarcis filfolensis,species,Maltese Wall Lizard,5,14.2690552399,36.047139283,Europe,Malta,Malta - Gozo Island,2014-10-28,
50799,Sylvia melanocephala,species,Sardinian Warbler,1,14.2679179832,36.0475816873,Europe,Malta,Malta - Gozo Island,2014-10-28,
50801,Larus michahellis,species,Yellow-legged Gull,40,14.3214243755,36.0073873008,Europe,Malta,Malta - Comino Island,2014-10-28,
50804,Cisticola juncidis,species,Zitting Cisticola,1,14.3492211032,35.9001845217,Europe,Malta,Malta - Malta Island,2014-10-28,
50805,Saxicola rubicola,species,European Stonechat,1,14.3492211032,35.9001845217,Europe,Malta,Malta - Malta Island,2014-10-28,
50815,Turdus philomelos,species,Song Thrush,1,14.3422347866,35.9190322041,Europe,Malta,Malta - Malta Island,2014-10-25,
103653,Convolvulus althaeoides subsp. tenuissimus,synonym,,1,14.4422753155,35.8278651633,Europe,Malta,Malta - Malta Island,2014-06-24,
103669,Ceratonia siliqua,species,Carob,1,14.4429928064,35.8275041657,Europe,Malta,Malta - Malta Island,2014-06-24,
103685,Opuntia ficus-indica,species,Indian-fig,1,14.3083512783,36.0302038413,Europe,Malta,Malta - Gozo Island,2014-06-23,
103691,Prasium majus,species,White hedge-nettle,1,14.2394453287,36.0468739431,Europe,Malta,Malta - Gozo Island,2014-06-23,
103701,Nicotiana glauca,species,Tree Tobacco,1,14.2394654453,36.0470571949,Europe,Malta,Malta - Gozo Island,2014-06-23,
103713,Opuntia ficus-indica,species,Indian-fig,1,14.2394855618,36.0471450254,Europe,Malta,Malta - Gozo Island,2014-06-23,
103729,Antirrhinum siculum,species,,1,14.239949584,36.0472079164,Europe,Malta,Malta - Gozo Island,2014-06-23,
103739,Podarcis filfolensis,species,Maltese Wall Lizard,1,14.1898150742,36.052564307,Europe,Malta,Malta - Gozo Island,2014-06-23,
103744,Capparis spinosa s.l.,species,Caper,1,14.1898150742,36.052564307,Europe,Malta,Malta - Gozo Island,2014-06-23,
103754,Crithmum maritimum,species,Rock Samphire,1,14.1898150742,36.052564307,Europe,Malta,Malta - Gozo Island,2014-06-23,
103800,Opuntia ficus-indica,species,Indian-fig,25,14.4173669815,35.9441034742,Europe,Malta,Malta - Malta Island,2014-06-22,
103838,Agave americana,species,Centuryplant,10,14.5058101416,35.9021521944,Europe,Malta,Malta - Malta Island,2014-06-22,
103932,Antirrhinum siculum,species,,1,14.5172551274,35.897235353,Europe,Malta,Malta - Malta Island,2014-06-21,
103939,Capparis spinosa s.l.,species,Caper,1,14.518006146,35.8971484419,Europe,Malta,Malta - Malta Island,2014-06-21,
104399,Sylvia melanocephala,species,Sardinian Warbler,2,14.56318962,35.84312956,Europe,Malta,Malta - Malta Island,2014-11-01,06:50
104400,Sylvia melanocephala,species,Sardinian Warbler,1,14.56247793,35.83409974,Europe,Malta,Malta - Malta Island,2014-11-01,09:05
104401,Sylvia melanocephala,species,Sardinian Warbler,1,14.55910125,35.83795914,Europe,Malta,Malta - Malta Island,2014-11-01,12:24
104402,Sylvia melanocephala,species,Sardinian Warbler,1,14.56396668,35.84411479,Europe,Malta,Malta - Malta Island,2014-11-01,16:32
104403,Sylvia melanocephala,species,Sardinian Warbler,1,14.56846656,35.84351236,Europe,Malta,Malta - Malta Island,2014-11-02,09:06
104404,Sylvia melanocephala,species,Sardinian Warbler,2,14.55295453,35.8391498,Europe,Malta,Malta - Malta Island,2014-11-02,10:25
2216,Cisticola juncidis,species,Zitting Cisticola,1,14.34408683,35.92236739,Europe,Malta,Malta - Malta Island,2014-10-25,14:58
2217,Erithacus rubecula,species,European Robin,2,14.34210078,35.92742897,Europe,Malta,Malta - Malta Island,2014-10-26,09:36
2218,Vanessa atalanta,species,Red Admiral,1,14.34212625,35.92743474,Europe,Malta,Malta - Malta Island,2014-10-26,09:47
2219,Cisticola juncidis,species,Zitting Cisticola,2,14.34554709,35.92085426,Europe,Malta,Malta - Malta Island,2014-10-26,18:17
2220,Erithacus rubecula,species,European Robin,5,14.28651737,36.06237032,Europe,Malta,Malta - Gozo Island,2014-10-29,07:24
2221,Sylvia melanocephala,species,Sardinian Warbler,1,14.28651737,36.06237032,Europe,Malta,Malta - Gozo Island,2014-10-29,07:25
2222,Sylvia melanocephala,species,Sardinian Warbler,1,14.28765591,36.06315972,Europe,Malta,Malta - Gozo Island,2014-10-29,14:36
2223,Erithacus rubecula,species,European Robin,1,14.28990257,36.06340527,Europe,Malta,Malta - Gozo Island,2014-10-29,14:57
2224,Erithacus rubecula,species,European Robin,4,14.28964976,36.05860283,Europe,Malta,Malta - Gozo Island,2014-10-29,15:23
2226,Sylvia melanocephala,species,Sardinian Warbler,2,14.29003715,36.05804861,Europe,Malta,Malta - Gozo Island,2014-10-29,15:24
2227,Erithacus rubecula,species,European Robin,2,14.29623287,36.05564322,Europe,Malta,Malta - Gozo Island,2014-10-29,15:39
2228,Erithacus rubecula,species,European Robin,5,14.2991177,36.05738046,Europe,Malta,Malta - Gozo Island,2014-10-29,16:17
2229,Sylvia melanocephala,species,Sardinian Warbler,1,14.2991177,36.05738046,Europe,Malta,Malta - Gozo Island,2014-10-29,16:17
2230,Erithacus rubecula,species,European Robin,1,14.30020308,36.05706294,Europe,Malta,Malta - Gozo Island,2014-10-29,16:55
2231,Sylvia melanocephala,species,Sardinian Warbler,1,14.30047604,36.05683754,Europe,Malta,Malta - Gozo Island,2014-10-30,13:33
2232,Xylocopa violacea,species,Violet Carpenter Bee,1,14.30047604,36.05683754,Europe,Malta,Malta - Gozo Island,2014-10-30,13:34
2233,Podarcis filfolensis,species,Maltese Wall Lizard,5,14.30127255,36.05622452,Europe,Malta,Malta - Gozo Island,2014-10-30,13:43
2234,Xylocopa violacea,species,Violet Carpenter Bee,1,14.30187844,36.05493242,Europe,Malta,Malta - Gozo Island,2014-10-30,13:51
2235,Erithacus rubecula,species,European Robin,3,14.30150037,36.05385998,Europe,Malta,Malta - Gozo Island,2014-10-30,13:55
2236,Sylvia melanocephala,species,Sardinian Warbler,2,14.3005082,36.05270033,Europe,Malta,Malta - Gozo Island,2014-10-30,13:59
2237,Sylvia melanocephala,species,Sardinian Warbler,3,14.29916011,36.04284497,Europe,Malta,Malta - Gozo Island,2014-10-30,14:39
2238,Erithacus rubecula,species,European Robin,3,14.30187503,36.04401917,Europe,Malta,Malta - Gozo Island,2014-10-30,14:43
2239,Erithacus rubecula,species,European Robin,3,14.30325387,36.04423414,Europe,Malta,Malta - Gozo Island,2014-10-30,14:46
2240,Sylvia melanocephala,species,Sardinian Warbler,2,14.30687319,36.04559743,Europe,Malta,Malta - Gozo Island,2014-10-30,14:53
2241,Sylvia melanocephala,species,Sardinian Warbler,2,14.30951451,36.0469171,Europe,Malta,Malta - Gozo Island,2014-10-30,14:58
2242,Sylvia melanocephala,species,Sardinian Warbler,1,14.31391934,36.0493287,Europe,Malta,Malta - Gozo Island,2014-10-30,15:12
2243,Sympetrum fonscolombii,species,Red-veined Darter,1,14.31761365,36.04982033,Europe,Malta,Malta - Gozo Island,2014-10-30,15:24
2244,Podarcis filfolensis,species,Maltese Wall Lizard,2,14.3177245,36.04974013,Europe,Malta,Malta - Gozo Island,2014-10-30,15:25
2245,Erithacus rubecula,species,European Robin,2,14.31780678,36.04911232,Europe,Malta,Malta - Gozo Island,2014-10-30,15:34
2246,Sylvia melanocephala,species,Sardinian Warbler,2,14.31780678,36.04911232,Europe,Malta,Malta - Gozo Island,2014-10-30,15:35
2247,Sylvia melanocephala,species,Sardinian Warbler,2,14.32060756,36.0489656,Europe,Malta,Malta - Gozo Island,2014-10-31,06:28
2248,Erithacus rubecula,species,European Robin,2,14.32177637,36.04786841,Europe,Malta,Malta - Gozo Island,2014-10-31,06:39
2249,Sylvia communis,species,Common Whitethroat,1,14.32090729,36.0484673,Europe,Malta,Malta - Gozo Island,2014-10-31,06:48
2250,Sylvia melanocephala,species,Sardinian Warbler,2,14.51129051,35.86898378,Europe,Malta,Malta - Malta Island,2014-10-31,13:03
2251,Erithacus rubecula,species,European Robin,1,14.51172138,35.86927983,Europe,Malta,Malta - Malta Island,2014-10-31,13:08
2252,Erithacus rubecula,species,European Robin,2,14.51245737,35.86935114,Europe,Malta,Malta - Malta Island,2014-10-31,13:15
2253,Leptotes pirithous,species,Lang’s Short-tailed Blue,20,14.51140426,35.86904369,Europe,Malta,Malta - Malta Island,2014-10-31,13:40
109783,Motacilla flava,species,Western Yellow Wagtail,1,12.0117185265,37.0313545115,Europe,Malta,Malta - Gozo Island,2014-09-15,
105724,Cisticola juncidis,species,Zitting Cisticola,1,14.4676208496,35.8896063658,Europe,Malta,Malta - Malta Island,2014-04-14,08:04
105730,Passer hispaniolensis,species,Spanish Sparrow,1,14.4676208496,35.8896063658,Europe,Malta,Malta - Malta Island,2014-04-14,08:04
105749,Lanius senator,species,Woodchat Shrike,8,14.4676208496,35.8896063658,Europe,Malta,Malta - Malta Island,2014-04-16,06:03
106029,Himantopus himantopus,species,Black-winged Stilt,1,14.4676208496,35.8896063658,Europe,Malta,Malta - Malta Island,2014-04-19,10:37
93490,Larus michahellis,species,Yellow-legged Gull,6,14.32278861,36.00892562,Europe,Malta,Malta - Comino Island,2014-05-01,15:33
93690,Egretta garzetta,species,Little Egret,1,14.4240262359,35.9474211694,Europe,Malta,Malta - Malta Island,2014-05-01,
117435,Cisticola juncidis,species,Zitting Cisticola,1,14.4177532196,35.8823743373,Europe,Malta,Malta - Malta Island,2014-04-28,
119672,Podarcis filfolensis,species,Maltese Wall Lizard,4,14.4948471151,35.9212560331,Europe,Malta,Malta - Malta Island,2014-04-29,
119677,Pieris rapae,species,Small White,1,14.4939531013,35.9136879463,Europe,Malta,Malta - Malta Island,2014-04-29,
6111,Passer hispaniolensis,species,Spanish Sparrow,20,14.4967567,35.9084808,Europe,Malta,Malta - Malta Island,2014-04-28,16:28
40547,Oenanthe oenanthe,species,Northern Wheatear,3,14.4177532196,35.9090739288,Europe,Malta,Malta - Malta Island,2014-04-26,
41378,Lanius senator,species,Woodchat Shrike,1,14.4067668915,35.8890500794,Europe,Malta,Malta - Malta Island,2014-04-25,
41384,Sylvia melanocephala,species,Sardinian Warbler,1,14.4067668915,35.8890500794,Europe,Malta,Malta - Malta Island,2014-04-25,
41387,Muscicapa striata,species,Spotted Flycatcher,1,14.4067668915,35.8890500794,Europe,Malta,Malta - Malta Island,2014-04-25,
41389,Ficedula hypoleuca,species,European Pied Flycatcher,1,14.4067668915,35.8890500794,Europe,Malta,Malta - Malta Island,2014-04-25,
41519,Passer hispaniolensis,species,Spanish Sparrow,100,14.4067668915,35.8890500794,Europe,Malta,Malta - Malta Island,2014-04-25,
41573,Muscicapa striata,species,Spotted Flycatcher,3,14.4067668915,35.8890500794,Europe,Malta,Malta - Malta Island,2014-04-23,
52941,Muraena helena,species,Mediterranean moray,1,14.5455694196,35.8405268762,Europe,Malta,Malta - Malta Island,1997-11-19,
57239,Himantopus himantopus,species,Black-winged Stilt,4,14.3696665764,35.9635576266,Europe,Malta,Malta - Malta Island,2014-04-23,
57246,Ficedula hypoleuca,species,European Pied Flycatcher,1,14.3607401848,35.9524415547,Europe,Malta,Malta - Malta Island,2014-04-23,
57248,Monticola solitarius,species,Blue Rock Thrush,1,14.3422007561,35.9529973955,Europe,Malta,Malta - Malta Island,2014-04-23,
111333,Egretta garzetta,species,Little Egret,1,14.3469,35.9692,Europe,Malta,Malta - Malta Island,2014-04-19,11:13
111334,Lanius senator,species,Woodchat Shrike,1,14.4057,35.8525,Europe,Malta,Malta - Malta Island,2014-04-16,06:03
111335,Passer hispaniolensis,species,Spanish Sparrow,1,14.4059,35.8529,Europe,Malta,Malta - Malta Island,2014-04-14,08:04
100302,Sylvia melanocephala,species,Sardinian Warbler,1,14.3490028381,35.9700875892,Europe,Malta,Malta - Malta Island,2014-03-02,13:42
100348,Podiceps nigricollis,species,Black-necked Grebe,3,14.347307682,35.9705217431,Europe,Malta,Malta - Malta Island,2014-03-02,13:23
112555,Saxicola rubicola,species,European Stonechat,1,14.334705574438,35.9815193619579,Europe,Malta,Malta - Malta Island,2014-03-06,12:09
23694,Passer hispaniolensis,species,Spanish Sparrow,2,14.4421840365976,35.8275722153485,Europe,Malta,Malta - Malta Island,2014-03-03,12:12
31497,Gallinula chloropus,species,Common Moorhen,2,14.3490397185087,35.9702951973304,Europe,Malta,Malta - Malta Island,2014-03-02,13:03
31498,Erithacus rubecula,species,European Robin,1,14.3490413948894,35.9703100752085,Europe,Malta,Malta - Malta Island,2014-03-02,13:03
109575,Hedysarum coronarium,synonym,Italian Sainfoin,1,14.4077503821,35.8407077633,Europe,Malta,Malta - Malta Island,2009-04-19,
109595,Hedysarum coronarium,synonym,Italian Sainfoin,1,14.3024455151,36.0576221663,Europe,Malta,Malta - Gozo Island,2009-05-01,
109598,Lavatera arborea,synonym,Tree-mallow,1,14.3024455151,36.0576221663,Europe,Malta,Malta - Gozo Island,2009-05-01,
56060,Cacyreus marshalli,species,Geranium Bronze,1,14.3947822290895,35.951342250709466,Europe,Malta,Malta,2012-07-17,
72520,Anax imperator,species,Blue Emperor,2,14.382061958095,35.945613658802,Europe,Malta,Malta - Malta Island,2013-04-28,
43917,Podarcis filfolensis,species,Maltese Wall Lizard,1,14.530845880508,35.831222797183,Europe,Malta,Malta - Malta Island,1997-11-19,
119856,Podarcis filfolensis,species,Maltese Wall Lizard,10,14.3244767189,36.0146366893,Europe,Malta,Malta - Comino Island,2012-08-27,
44732,Henosepilachna argus,species,Bryony ladybird,11,14.3893057108,35.8917445554,Europe,Malta,Malta - Malta Island,2012-04-12,
47108,Anax parthenope,species,Lesser Emperor,4,14.3894559145,35.8917793223,Europe,Malta,Malta - Malta Island,2012-04-12,
47110,Anax imperator,species,Blue Emperor,2,14.3894559145,35.8917793223,Europe,Malta,Malta - Malta Island,2012-04-12,
47111,Sympetrum fonscolombii,species,Red-veined Darter,1,14.194432497,36.0466440646,Europe,Malta,Malta - Gozo Island,2012-04-05,
48165,Sympetrum fonscolombii,species,Red-veined Darter,1,14.194432497,36.0466440646,Europe,Malta,Malta - Gozo Island,2012-04-05,
55941,Anax imperator,species,Blue Emperor,2,14.3894559145,35.8917793223,Europe,Malta,Malta - Malta Island,2012-04-12,
55946,Anax parthenope,species,Lesser Emperor,4,14.3894559145,35.8917793223,Europe,Malta,Malta - Malta Island,2012-04-12,
56093,Chilocorus bipustulatus,species,Heather ladybird,1,14.3859261274,35.9551859804,Europe,Malta,Malta - Malta Island,2012-04-04,
4328,Merops apiaster,species,European Bee-eater,1,14.2615199089,36.0127968895,Europe,Malta,Malta - Gozo Island,2009-09-11,
43544,Chroicocephalus ridibundus,species,Black-headed Gull,15,14.5119094848,35.9023998751,Europe,Malta,Malta - Malta Island,2011-02-15,11:00
43567,Passer hispaniolensis,species,Spanish Sparrow,1,14.3986129761,35.8857122787,Europe,Malta,Malta - Malta Island,2011-02-14,11:00
43581,Passer hispaniolensis,species,Spanish Sparrow,1,14.4919967651,35.9168596132,Europe,Malta,Malta - Malta Island,2011-02-13,11:00
43586,Motacilla alba,species,White Wagtail,1,14.4919967651,35.9168596132,Europe,Malta,Malta - Malta Island,2011-02-13,11:00
43618,Columba livia domestica,forma,Feral Pigeon,10,14.4919967651,35.9168596132,Europe,Malta,Malta - Malta Island,2011-02-13,11:00
50077,Columba livia domestica,forma,Feral Pigeon,10,14.4933700562,35.9154693686,Europe,Malta,Malta - Malta Island,2011-02-13,
26057,Leptotes pirithous,species,Lang’s Short-tailed Blue,1,14.5083045959,35.8978673388,Europe,Malta,Malta,2009-06-25,
97881,Chamaeleo chamaeleon,species,Common Chameleon,1,14.3685436266,35.9951233675,Europe,Malta,Malta,2009-06-25,
98024,Telescopus fallax,species,Mediterranean Cat Snake,1,14.3697166478,35.9906187182,Europe,Malta,Malta,2009-06-25,
1715,Merops apiaster,species,European Bee-eater,12,14.4045735844,35.9203665147,Europe,Malta,Malta,2009-05-25,
77621,Columba livia domestica,forma,Feral Pigeon,100,14.5194625854,35.8998969599,Europe,Malta,Malta,2009-06-24,
51832,Podarcis filfolensis,species,Maltese Wall Lizard,1,14.44831477,35.90067911,Europe,Malta,Malta - Malta Island,2016-09-22,17:20
30315,Larus michahellis,species,Yellow-legged Gull,3,14.3966,35.9598,Europe,Malta,Malta - Malta Island,2020-03-11,17:38
30316,Passer hispaniolensis,species,Spanish Sparrow,40,14.4868,35.8512,Europe,Malta,Malta - Malta Island,2020-03-10,11:38
30317,Saxicola rubicola,species,European Stonechat,1,14.4112,35.8989,Europe,Malta,Malta - Malta Island,2020-03-10,09:54
30318,Passer hispaniolensis,species,Spanish Sparrow,25,14.4203,35.941,Europe,Malta,Malta - Malta Island,2020-03-09,17:49
30319,Motacilla alba,species,White Wagtail,1,14.5123,35.8977,Europe,Malta,Malta - Malta Island,2020-03-09,16:56
3484,Cairina moschata,species,Muscovy Duck,2,14.4238478690386,35.9458270753984,Europe,Malta,Malta - Salina Saltpans,2016-12-08,15:34
4122,Chamaeleo chamaeleon,species,Common Chameleon,1,14.5674037188292,35.8430837409827,Europe,Malta,Malta - Malta Island,2017-08-28,18:19
106440,Acherontia atropos,species,Death's Head Hawkmoth,1,14.344591,35.888255,Europe,Malta,Malta - Malta Island,2018-09-09,
110014,Passer hispaniolensis,species,Spanish Sparrow,2,14.28007,36.060306,Europe,Malta,Malta - Gozo Island,2020-02-05,14:03
110026,Motacilla alba,species,White Wagtail,1,14.425328,35.909251,Europe,Malta,Malta - Malta Island,2020-02-05,16:43
84613,Crocothemis erythraea,species,Broad Scarlet,1,14.21586782,36.06141259,Europe,Malta,Malta - Gozo Island,2006-10-10,
89385,Chamaeleo chamaeleon,species,Common Chameleon,1,14.28407907,36.05850463,Europe,Malta,Malta - Gozo Island,2006-10-09,13:09
89475,Podarcis filfolensis,species,Maltese Wall Lizard,1,14.2690748,36.04722895,Europe,Malta,Malta - Gozo Island,2006-10-05,13:09
89641,Vanessa cardui,species,Painted Lady,1,14.29159641,36.04874678,Europe,Malta,Malta - Gozo Island,2006-10-02,
89644,Macroglossum stellatarum,species,Humming-bird Hawk Moth,1,14.29159641,36.04874678,Europe,Malta,Malta - Gozo Island,2006-10-02,
89694,Pancratium maritimum,species,Sea Daffodil,1,14.28,36.06,Europe,Malta,Malta - Gozo Island,2006-10-08,12:00
89699,Anax parthenope,species,Lesser Emperor,2,14.28367138,36.05232895,Europe,Malta,Malta - Gozo Island,2006-10-07,12:00
89703,Papilio machaon,species,Swallowtail,1,14.26932335,36.04742637,Europe,Malta,Malta - Gozo Island,2006-10-05,13:30
89716,Papilio machaon,species,Swallowtail,1,14.2924118,36.05410162,Europe,Malta,Malta - Gozo Island,2006-10-02,12:55
63410,Passer hispaniolensis,species,Spanish Sparrow,100,14.501654624939,35.9041290283203,Europe,Malta,Malta - Malta Island,2020-01-04,12:54
63411,Motacilla alba,species,White Wagtail,1,14.5021362304688,35.9035110473633,Europe,Malta,Malta - Malta Island,2020-01-04,12:59
81687,Numida meleagris,species,Helmeted Guineafowl,4,14.51648711,35.83473772,Europe,Malta,Malta - Malta Island,2017-06-02,
81712,Podarcis filfolensis,species,Maltese Wall Lizard,1,14.47454452,35.83086877,Europe,Malta,Malta - Malta Island,2017-06-02,
81713,Tarentola mauritanica,species,Moorish Gecko,1,14.45840835,35.8307296,Europe,Malta,Malta - Malta Island,2017-06-02,
81717,Chamaeleo chamaeleon,species,Common Chameleon,1,14.44104194,35.82719449,Europe,Malta,Malta - Malta Island,2017-06-02,
81720,Cettia cetti,species,Cetti's Warbler,1,14.46475982,35.8269718,Europe,Malta,Malta - Malta Island,2017-06-02,
81724,Chalcides ocellatus,species,Ocellated Skink,1,14.48776245,35.8244665,Europe,Malta,Malta - Malta Island,2017-06-02,
81737,Anacamptis pyramidalis,species,Pyramidal Orchid,1,14.3,35.9,Europe,Malta,Malta - Malta Island,2017-05-30,
81741,Pontia daplidice/edusa,multispecies,,1,14.34808731,35.92752661,Europe,Malta,Malta - Malta Island,2017-05-30,
81744,Chamaeleo chamaeleon,species,Common Chameleon,1,14.33232307,36.00889035,Europe,Malta,Malta - Comino Island,2017-05-28,
81746,Alectoris chukar,species,Chukar Partridge,2,14.33232307,36.00889035,Europe,Malta,Malta - Comino Island,2017-05-28,
81750,Podarcis filfolensis,species,Maltese Wall Lizard,1,14.33077812,36.00796461,Europe,Malta,Malta - Comino Island,2017-05-28,
81752,Podarcis filfolensis,species,Maltese Wall Lizard,1,14.32826042,36.01211187,Europe,Malta,Malta - Comino Island,2017-05-28,
81754,Podarcis filfolensis,species,Maltese Wall Lizard,1,14.32542801,36.01366241,Europe,Malta,Malta - Comino Island,2017-05-28,
81759,Chalcides ocellatus,species,Ocellated Skink,1,14.38156128,35.95365513,Europe,Malta,Malta - Malta Island,2017-05-25,
81762,Sympetrum fonscolombii,species,Red-veined Darter,1,14.38053131,35.95854169,Europe,Malta,Malta - Malta Island,2017-05-25,
109196,Passer italiae,species,Italian Sparrow,80,14.204687762382022,36.04431436298209,Europe,Malta,Malta - Gozo Island,2019-12-15,11:16
109197,Monticola solitarius,species,Blue Rock Thrush,1,14.225635818663116,36.03845234010476,Europe,Malta,Malta - Gozo Island,2019-12-13,11:25
109198,Sylvia melanocephala,species,Sardinian Warbler,1,14.270463179587258,36.020270549709714,Europe,Malta,Malta - Gozo Island,2019-12-13,10:45
109199,Sylvia melanocephala,species,Sardinian Warbler,1,14.363844494374568,35.953660671401494,Europe,Malta,Malta - Malta Island,2019-12-11,08:26
96782,Passer hispaniolensis,species,Spanish Sparrow,1,14.254655046401782,36.07132466513298,Europe,Malta,Malta - Gozo Island,2019-11-02,10:41
87530,Passer hispaniolensis,species,Spanish Sparrow,10,14.5279884338379,35.8287658691406,Europe,Malta,Malta - Malta Island,2019-10-19,07:56
101699,Passer hispaniolensis,species,Spanish Sparrow,5,14.401913,35.886102,Europe,Malta,Malta - Malta Island,2019-10-06,10:30
101706,Passer hispaniolensis,species,Spanish Sparrow,10,14.545503,35.84125,Europe,Malta,Malta - Malta Island,2019-10-03,14:37
101862,Passer hispaniolensis,species,Spanish Sparrow,15,14.324906,36.01415,Europe,Malta,Malta - Comino Island,2019-10-04,12:08
101877,Bubulcus ibis,species,Western Cattle Egret,1,14.401772,35.971088,Europe,Malta,Malta - Malta Island,2019-10-04,17:17
101887,Larus michahellis,species,Yellow-legged Gull,30,14.401772,35.971088,Europe,Malta,Malta - Malta Island,2019-10-04,10:35
74677,Chamaeleo chamaeleon,species,Common Chameleon,3,14.4855127334595,35.9032859802246,Europe,Malta,Malta - Malta Island,2019-08-28,22:48
74678,Atelerix algirus,species,Algerian Hedgehog,1,14.4855194091797,35.9033126831055,Europe,Malta,Malta - Malta Island,2019-08-28,22:49
92156,Agave americana,species,Centuryplant,1,14.4932694733143,35.924981465992,Europe,Malta,Malta - Malta Island,2019-08-26,13:09
103057,Cacyreus marshalli,species,Geranium Bronze,1,14.5027219131589,35.9166364154455,Europe,Malta,Malta - Malta Island,2019-08-27,12:14
104836,Diplodus vulgaris,species,Common two-banded seabream,20,14.5053716003895,35.9156550980286,Europe,Malta,Malta - Malta Island,2019-08-26,18:54
19847,Cettia cetti,species,Cetti's Warbler,1,14.4018459320068,35.8862648010254,Europe,Malta,Malta - Malta Island,2019-08-20,13:38
19848,Sylvia melanocephala,species,Sardinian Warbler,2,14.4004925340414,35.8854626442044,Europe,Malta,Malta - Malta Island,2019-08-20,22:09
21865,Monticola solitarius,species,Blue Rock Thrush,1,14.2403907775879,36.0468521118164,Europe,Malta,Malta - Gozo Island,2019-08-18,15:16
21866,Passer hispaniolensis,species,Spanish Sparrow,5,14.2843112945557,36.0577735900879,Europe,Malta,Malta - Gozo Island,2019-08-18,18:20
67122,Ficedula hypoleuca,species,European Pied Flycatcher,1,14.33304571,36.01623877,Europe,Malta,Malta - Comino Island,2019-04-27,15:46
69374,Sylvia melanocephala,species,Sardinian Warbler,2,14.4847888946533,35.9275283813477,Europe,Malta,Malta - Malta Island,2019-05-26,19:45
69375,Cisticola juncidis,species,Zitting Cisticola,2,14.4798469543457,35.9326591491699,Europe,Malta,Malta - Malta Island,2019-05-27,12:03
69376,Passer hispaniolensis,species,Spanish Sparrow,4,14.4798183441162,35.9323959350586,Europe,Malta,Malta - Malta Island,2019-05-27,12:04
69377,Apus pallidus,species,Pallid Swift,2,14.484751701355,35.9275093078613,Europe,Malta,Malta - Malta Island,2019-05-27,12:24
69378,Larus michahellis,species,Yellow-legged Gull,2,14.3518972396851,36.0099792480469,Europe,Malta,Malta - Comino Island,2019-05-28,11:02
68951,Chalcides ocellatus,species,Ocellated Skink,1,14.42177,35.82893,Europe,Malta,Malta - Malta Island,2019-05-25,
61096,Passer hispaniolensis,species,Spanish Sparrow,8,14.4963445663452,35.8470268249512,Europe,Malta,Malta - Malta Island,2019-04-13,07:39
101845,Hyles livornica,species,Striped Hawk-moth,1,14.48564898,35.85501622,Europe,Malta,Malta - Malta Island,2019-04-29,
64078,Cettia cetti,species,Cetti's Warbler,1,14.403290329514446,35.857227975536006,Europe,Malta,Malta - Malta Island,2019-04-13,14:11
64079,Cisticola juncidis,species,Zitting Cisticola,1,14.395612673847372,35.8772797510362,Europe,Malta,Malta - Malta Island,2019-04-13,13:05
64080,Sylvia melanocephala,species,Sardinian Warbler,1,14.32686958463334,36.012403573874394,Europe,Malta,Malta - Comino Island,2019-04-12,15:52
64081,Passer hispaniolensis,species,Spanish Sparrow,15,14.425704292966447,35.95739117361229,Europe,Malta,Malta - Malta Island,2019-04-09,17:47
10806,Egretta garzetta,species,Little Egret,2,14.42248128,35.94541167,Europe,Malta,Malta - Salina Saltpans,2019-04-26,11:12
15289,Columba livia domestica,forma,Feral Pigeon,2,14.34041977,36.01703184,Europe,Malta,Malta - Comino Island,2019-04-27,12:49
16484,Chromis chromis,species,Damselfish,20,14.32394765,36.01403452,Europe,Malta,Malta - Comino Island,2019-04-27,13:11
18859,Podarcis filfolensis,species,Maltese Wall Lizard,1,14.33537018,36.01266937,Europe,Malta,Malta - Comino Island,2019-04-27,14:06
19205,Saxicola rubetra,species,Whinchat,1,14.33570646,36.01393038,Europe,Malta,Malta - Comino Island,2019-04-27,14:00
19275,Lanius senator,species,Woodchat Shrike,1,14.33652185,36.01384359,Europe,Malta,Malta - Comino Island,2019-04-27,13:55
69287,Tarentola mauritanica,species,Moorish Gecko,1,14.42050697,35.95718921,Europe,Malta,Malta - Malta Island,2019-04-24,14:36
90512,Lanius senator,species,Woodchat Shrike,1,14.42167645,35.95795769,Europe,Malta,Malta - Malta Island,2019-04-24,15:47
112791,Passer italiae,species,Italian Sparrow,1,14.26843649,36.05669002,Europe,Malta,Malta - Gozo Island,2019-04-23,10:06
113224,Passer hispaniolensis,species,Spanish Sparrow,2,14.23922187,36.04465019,Europe,Malta,Malta - Gozo Island,2019-04-23,14:10
113788,Cydnus aterrimus,species,,1,14.26842039,36.05670303,Europe,Malta,Malta - Gozo Island,2019-04-23,19:54
114659,Passer hispaniolensis,species,Spanish Sparrow,10,14.3252258300781,36.0135116577148,Europe,Malta,Malta - Comino Island,2019-04-12,15:37
114660,Sylvia melanocephala,species,Sardinian Warbler,1,14.3267936706543,36.0123863220215,Europe,Malta,Malta - Comino Island,2019-04-12,15:53
114661,Sylvia melanocephala,species,Sardinian Warbler,1,14.3276014328003,36.0143852233887,Europe,Malta,Malta - Comino Island,2019-04-12,16:29
26464,Podarcis filfolensis,species,Maltese Wall Lizard,18,14.4180459976196,35.9546432495117,Europe,Malta,Malta - Malta Island,2019-04-10,14:00
40907,Vanessa atalanta,species,Red Admiral,1,14.397274017334,35.8562126159668,Europe,Malta,Malta - Malta Island,2019-04-08,16:56
40908,Podarcis filfolensis,species,Maltese Wall Lizard,2,14.4211168289185,35.9579734802246,Europe,Malta,Malta - Malta Island,2019-04-09,11:23
40909,Egretta garzetta,species,Little Egret,1,14.4217367172241,35.9466972351074,Europe,Malta,Malta - Malta Island,2019-04-09,13:39
83992,Sylvia melanocephala,species,Sardinian Warbler,1,14.5088005065918,35.8951873779297,Europe,Malta,Malta - Malta Island,2019-04-07,13:33
83993,Larus michahellis,species,Yellow-legged Gull,20,14.4384803771973,35.9523849487305,Europe,Malta,Malta - Malta Island,2019-04-07,18:39
83994,Sylvia melanocephala,species,Sardinian Warbler,1,14.4181880950928,35.9541130065918,Europe,Malta,Malta - Malta Island,2019-04-07,19:25
106294,Monticola solitarius,species,Blue Rock Thrush,1,14.2916488647461,36.0202026367187,Europe,Malta,Malta - Gozo Island,2019-04-06,13:11
106295,Papilio machaon,species,Swallowtail,1,14.28382015,36.0179863,Europe,Malta,Malta - Gozo Island,2019-04-06,13:54
106296,Sylvia communis,species,Common Whitethroat,1,14.2838201522827,36.0179862976074,Europe,Malta,Malta - Gozo Island,2019-04-06,13:54
106297,Monticola solitarius,species,Blue Rock Thrush,1,14.2387952804565,36.0467681884766,Europe,Malta,Malta - Gozo Island,2019-04-06,17:20
68595,Cettia cetti,species,Cetti's Warbler,1,14.39839327,35.85706467,Europe,Malta,Malta - Malta Island,2019-03-26,
91922,Monticola solitarius,species,Blue Rock Thrush,1,14.22585588,36.0384787,Europe,Malta,Malta - Gozo Island,2019-03-24,
91927,Monticola solitarius,species,Blue Rock Thrush,1,14.20770221,36.04625708,Europe,Malta,Malta - Gozo Island,2019-03-24,
15712,Erithacus rubecula,species,European Robin,1,14.25413718,36.02087168,Europe,Malta,Malta - Gozo Island,2019-03-22,
9789,Passer hispaniolensis,species,Spanish Sparrow,1,14.51158058,35.89503851,Europe,Malta,Malta - Malta Island,2017-07-08,
9799,Sylvia melanocephala,species,Sardinian Warbler,1,14.51038968,35.89374349,Europe,Malta,Malta - Malta Island,2017-07-08,
107108,Discoglossus pictus,species,Painted Frog,1,14.39,35.85,Europe,Malta,Malta - Malta Island,2019-01-14,
107196,Discoglossus pictus,species,Painted Frog,1,14.41,35.93,Europe,Malta,Malta - Malta Island,2019-01-09,13:20
107197,Tarentola mauritanica,species,Moorish Gecko,17,14.45,35.85,Europe,Malta,Malta - Malta Island,2019-01-13,09:44
107198,Chamaeleo chamaeleon,species,Common Chameleon,1,14.45,35.86,Europe,Malta,Malta - Malta Island,2019-01-13,11:55
107199,Podarcis filfolensis,species,Maltese Wall Lizard,100,14.25,36.04,Europe,Malta,Malta - Gozo Island,2019-01-15,10:45
107200,Podarcis filfolensis,species,Maltese Wall Lizard,60,14.28,36.01,Europe,Malta,Malta - Gozo Island,2019-01-16,10:14
107201,Pelophylax cf. bedriagae,species,,30,14.28,36.02,Europe,Malta,Malta - Gozo Island,2019-01-16,11:08
107202,Tarentola mauritanica,species,Moorish Gecko,1,14.26,36.01,Europe,Malta,Malta - Gozo Island,2019-01-16,13:35
107203,Podarcis filfolensis,species,Maltese Wall Lizard,35,14.19,36.05,Europe,Malta,Malta - Gozo Island,2019-01-18,09:53
107204,Chalcides ocellatus,species,Ocellated Skink,1,14.18,36.06,Europe,Malta,Malta - Gozo Island,2019-01-18,10:43
107205,Trachemys scripta,species,Pond Slider,6,14.19,36.03,Europe,Malta,Malta - Gozo Island,2019-01-18,14:14
107206,Podarcis filfolensis,species,Maltese Wall Lizard,17,14.5,35.89,Europe,Malta,Malta - Malta Island,2019-01-19,11:41
107207,Tarentola mauritanica,species,Moorish Gecko,5,14.5,35.89,Europe,Malta,Malta - Malta Island,2019-01-19,11:48
115594,Podarcis filfolensis,species,Maltese Wall Lizard,1,14.25704956,36.0720608,Europe,Malta,Malta - Gozo Island,2014-07-17,
6903,Alcedo atthis,species,Common Kingfisher,1,14.3816137313843,35.9450759887695,Europe,Malta,Malta - Simar Natural reserve,2018-12-16,10:28
6904,Sturnus vulgaris,species,Common Starling,5,14.3816137313843,35.9450759887695,Europe,Malta,Malta - Simar Natural reserve,2018-12-16,10:29
6905,Tarentola mauritanica,species,Moorish Gecko,3,14.3810081481934,35.9461631774902,Europe,Malta,Malta - Simar Natural reserve,2018-12-16,11:14
6906,Colias crocea,species,Clouded Yellow,1,14.3815517425537,35.9480819702148,Europe,Malta,Malta - Malta Island,2018-12-16,11:36
6907,Vanessa cardui,species,Painted Lady,1,14.3815460205078,35.9480972290039,Europe,Malta,Malta - Malta Island,2018-12-16,11:36
6908,Pieris rapae,species,Small White,1,14.3815479278564,35.9480972290039,Europe,Malta,Malta - Malta Island,2018-12-16,11:37
6909,Vanessa atalanta,species,Red Admiral,1,14.3807582855225,35.9486045837402,Europe,Malta,Malta - Malta Island,2018-12-16,11:48
6910,Saxicola rubicola,species,European Stonechat,5,14.3807525634766,35.9496650695801,Europe,Malta,Malta - Malta Island,2018-12-16,11:57
6911,Colias crocea,species,Clouded Yellow,2,14.3802890777588,35.9482803344727,Europe,Malta,Malta - Malta Island,2018-12-16,12:13
9215,Erithacus rubecula,species,European Robin,3,14.3806457519531,35.9448318481445,Europe,Malta,Malta - Simar Natural reserve,2018-12-15,09:02
9216,Alcedo atthis,species,Common Kingfisher,1,14.381965637207,35.9463996887207,Europe,Malta,Malta - Simar Natural reserve,2018-12-15,09:37
9217,Gallinula chloropus,species,Common Moorhen,2,14.381875038147,35.9463272094727,Europe,Malta,Malta - Simar Natural reserve,2018-12-15,09:42
9218,Passer hispaniolensis,species,Spanish Sparrow,11,14.3819131851196,35.9462966918945,Europe,Malta,Malta - Simar Natural reserve,2018-12-15,09:43
9219,Gallinula chloropus,species,Common Moorhen,2,14.3485832214355,35.9694480895996,Europe,Malta,Malta - Ghadir Natural reserve,2018-12-15,10:31
9220,Podiceps nigricollis,species,Black-necked Grebe,1,14.3465242385864,35.9694747924805,Europe,Malta,Malta - Ghadir Natural reserve,2018-12-15,10:50
9221,Saxicola rubicola,species,European Stonechat,1,14.3466730117798,35.9694290161133,Europe,Malta,Malta - Ghadir Natural reserve,2018-12-15,11:01
9222,Passer hispaniolensis,species,Spanish Sparrow,12,14.346643447876,35.9694480895996,Europe,Malta,Malta - Ghadir Natural reserve,2018-12-15,11:10
9223,Sturnus vulgaris,species,Common Starling,4,14.346565246582,35.9693374633789,Europe,Malta,Malta - Ghadir Natural reserve,2018-12-15,11:34
21834,Podiceps nigricollis,species,Black-necked Grebe,3,14.544046,35.83846193,Europe,Malta,Malta - Malta Island,2018-12-14,
21836,Passer hispaniolensis,species,Spanish Sparrow,21,14.544046,35.83846193,Europe,Malta,Malta - Malta Island,2018-12-14,
21842,Tarentola mauritanica,species,Moorish Gecko,1,14.50939186,35.89648817,Europe,Malta,Malta - Malta Island,2018-12-14,16:26
28205,Colias crocea,species,Clouded Yellow,4,14.3445615768433,35.9319229125977,Europe,Malta,Malta - Malta Island,2018-12-13,10:19
28206,Pieris rapae,species,Small White,1,14.3787250518799,35.8542175292969,Europe,Malta,Malta - Malta Island,2018-12-13,11:15
28207,Lasiommata megera,species,Wall Brown,1,14.3992309570313,35.8417053222656,Europe,Malta,Malta - Malta Island,2018-12-13,12:21
122138,Passer hispaniolensis,species,Spanish Sparrow,1,14.34997916,35.9693886,Europe,Malta,Malta - Malta Island,2016-06-09,17:58
12452,Podiceps nigricollis,species,Black-necked Grebe,1,14.4517402648926,35.8200607299805,Europe,Malta,Malta - Malta Island,2018-09-13,12:57
12453,Anax imperator,species,Blue Emperor,1,14.4189605712891,35.9439277648926,Europe,Malta,Malta - Malta Island,2018-09-08,14:26
12454,Himantopus himantopus,species,Black-winged Stilt,1,14.3463668823242,35.9689025878906,Europe,Malta,Malta - Malta Island,2018-09-08,18:48
12455,Cacyreus marshalli,species,Geranium Bronze,1,14.3991259485483,35.8849386537402,Europe,Malta,Malta - Malta Island,2018-09-09,11:32
12456,Podarcis filfolensis,species,Maltese Wall Lizard,1,14.4031314849854,35.8845634460449,Europe,Malta,Malta - Malta Island,2018-09-09,11:50
12457,Podarcis filfolensis,species,Maltese Wall Lizard,1,14.2197270691395,36.0536718632988,Europe,Malta,Malta - Gozo Island,2018-09-10,14:37
12458,Discoglossus pictus,species,Painted Frog,1,14.2328222841024,36.039882950305,Europe,Malta,Malta - Gozo Island,2018-09-10,18:09
12459,Hierophis viridiflavus,species,Western Whip Snake,1,14.37081825,35.94656143,Europe,Malta,Malta - Malta Island,2018-09-11,17:55
12460,Passer hispaniolensis,species,Spanish Sparrow,1,14.3445682525635,35.9300880432129,Europe,Malta,Malta - Malta Island,2018-09-12,13:34
12461,Monticola solitarius,species,Blue Rock Thrush,1,14.3445692062378,35.9300880432129,Europe,Malta,Malta - Malta Island,2018-09-12,13:34
12462,Sylvia melanocephala,species,Sardinian Warbler,1,14.3445682525635,35.9300880432129,Europe,Malta,Malta - Malta Island,2018-09-12,13:34
12463,Cisticola juncidis,species,Zitting Cisticola,1,14.3368162214756,35.8947004965833,Europe,Malta,Malta - Malta Island,2018-09-12,14:15
12464,Monticola solitarius,species,Blue Rock Thrush,1,14.3368162214756,35.8947004965833,Europe,Malta,Malta - Malta Island,2018-09-12,14:15
12465,Oenanthe oenanthe,species,Northern Wheatear,1,14.3403377532959,35.891284942627,Europe,Malta,Malta - Malta Island,2018-09-12,14:15
12466,Discoglossus pictus,species,Painted Frog,1,14.3377734348178,35.8951404967672,Europe,Malta,Malta - Malta Island,2018-09-12,14:34
12467,Larus michahellis,species,Yellow-legged Gull,1,14.4239611923695,35.9471549012321,Europe,Malta,Malta - Salina Saltpans,2018-09-05,11:42
12468,Egretta garzetta,species,Little Egret,1,14.4239611923695,35.9471549012321,Europe,Malta,Malta - Salina Saltpans,2018-09-05,11:46
12469,Vanessa atalanta,species,Red Admiral,2,14.3896731734276,35.9578920449237,Europe,Malta,Malta - Malta Island,2018-09-06,12:07
12470,Podarcis filfolensis,species,Maltese Wall Lizard,2,14.3719968795776,35.9544258117676,Europe,Malta,Malta - Malta Island,2018-09-06,12:56
12471,Podarcis filfolensis,species,Maltese Wall Lizard,5,14.4311133027077,35.9097009502119,Europe,Malta,Malta - Malta Island,2018-09-07,12:54
12472,Cettia cetti,species,Cetti's Warbler,2,14.3895874023438,35.889778137207,Europe,Malta,Malta - Malta Island,2018-09-07,19:39
12473,Discoglossus pictus,species,Painted Frog,5,14.3901485949755,35.8899947861391,Europe,Malta,Malta - Malta Island,2018-09-07,19:55
12474,Leptotes pirithous,species,Lang’s Short-tailed Blue,1,14.4837318733335,35.9037186536688,Europe,Malta,Malta - Malta Island,2018-09-02,12:26
12475,Podarcis filfolensis,species,Maltese Wall Lizard,1,14.4833721220493,35.9027863316706,Europe,Malta,Malta - Malta Island,2018-09-02,12:29
12476,Cisticola juncidis,species,Zitting Cisticola,1,14.3473640084267,35.9709955107827,Europe,Malta,Malta - Ghadir Natural reserve,2018-09-02,18:32
12477,Tarentola mauritanica,species,Moorish Gecko,1,14.3473640084267,35.9709955107827,Europe,Malta,Malta - Ghadir Natural reserve,2018-09-02,18:33
12478,Crocothemis erythraea,species,Broad Scarlet,1,14.3478209897876,35.9705874086355,Europe,Malta,Malta - Ghadir Natural reserve,2018-09-02,18:45
12479,Chalcides ocellatus,species,Ocellated Skink,1,14.3461731076241,35.9691747728126,Europe,Malta,Malta - Malta Island,2018-09-02,18:45
12480,Trithemis annulata,species,Violet Dropwing,3,14.3478209897876,35.9705874086355,Europe,Malta,Malta - Ghadir Natural reserve,2018-09-02,18:53
12481,Eyprepocnemis plorans,species,,1,14.3448933586478,35.9696718845747,Europe,Malta,Malta - Ghadir Natural reserve,2018-09-02,19:30
12482,Anax parthenope,species,Lesser Emperor,1,14.3455320596695,35.969052665187,Europe,Malta,Malta - Malta Island,2018-09-02,19:47
12483,Hemidactylus turcicus,species,Mediterranean House Gecko,1,14.3607341498137,35.9658794288009,Europe,Malta,Malta - Malta Island,2018-09-02,21:22
12484,Chamaeleo chamaeleon,species,Common Chameleon,1,14.4839553833008,35.9039497375488,Europe,Malta,Malta - Malta Island,2018-09-03,22:19
12485,Discoglossus pictus,species,Painted Frog,1,14.3817367553711,35.8776550292969,Europe,Malta,Malta - Malta Island,2018-09-04,17:28
12486,Sylvia melanocephala,species,Sardinian Warbler,1,14.3808000907302,35.875654565127,Europe,Malta,Malta - Malta Island,2018-09-04,19:12
12487,Crocothemis erythraea,species,Broad Scarlet,2,14.381685256958,35.8777656555176,Europe,Malta,Malta - Malta Island,2018-09-04,19:13
12488,Orthetrum trinacria,species,Long Skimmer,1,14.3805904388428,35.876350402832,Europe,Malta,Malta - Malta Island,2018-09-04,20:34
12489,Gryllus bimaculatus,species,Two-spotted Cricket,1,14.3806257247925,35.8763542175293,Europe,Malta,Malta - Malta Island,2018-09-04,23:50
12490,Tarentola mauritanica,species,Moorish Gecko,1,14.3806730210781,35.8762343092073,Europe,Malta,Malta - Malta Island,2018-09-05,00:15
55985,Trithemis annulata,species,Violet Dropwing,1,14.3501815795898,35.9677925109863,Europe,Malta,Malta - Malta Island,2018-09-08,17:46
55986,Acherontia atropos,species,Death's Head Hawkmoth,1,14.3450519442558,35.8878394366306,Europe,Malta,Malta - Malta Island,2018-09-09,22:42
73362,Podiceps nigricollis,species,Black-necked Grebe,1,14.4517402648926,35.8200607299805,Europe,Malta,Malta - Malta Island,2018-09-13,12:57
103681,Anax imperator,species,Blue Emperor,1,14.4189605712891,35.9439277648926,Europe,Malta,Malta - Malta Island,2018-09-08,14:26
103682,Himantopus himantopus,species,Black-winged Stilt,1,14.3463668823242,35.9689025878906,Europe,Malta,Malta - Malta Island,2018-09-08,18:48
103683,Cacyreus marshalli,species,Geranium Bronze,1,14.3991259485483,35.8849386537402,Europe,Malta,Malta - Malta Island,2018-09-09,11:32
103684,Podarcis filfolensis,species,Maltese Wall Lizard,1,14.4031314849854,35.8845634460449,Europe,Malta,Malta - Malta Island,2018-09-09,11:50
103685,Podarcis filfolensis,species,Maltese Wall Lizard,1,14.2197270691395,36.0536718632988,Europe,Malta,Malta - Gozo Island,2018-09-10,14:37
103686,Discoglossus pictus,species,Painted Frog,1,14.2328222841024,36.039882950305,Europe,Malta,Malta - Gozo Island,2018-09-10,18:09
103687,Hierophis viridiflavus,species,Western Whip Snake,1,14.37081825,35.94656143,Europe,Malta,Malta - Malta Island,2018-09-11,17:55
103689,Monticola solitarius,species,Blue Rock Thrush,1,14.3445692062378,35.9300880432129,Europe,Malta,Malta - Malta Island,2018-09-12,13:34
103690,Sylvia melanocephala,species,Sardinian Warbler,1,14.3445682525635,35.9300880432129,Europe,Malta,Malta - Malta Island,2018-09-12,13:34
103691,Cisticola juncidis,species,Zitting Cisticola,1,14.3368162214756,35.8947004965833,Europe,Malta,Malta - Malta Island,2018-09-12,14:15
103692,Monticola solitarius,species,Blue Rock Thrush,1,14.3368162214756,35.8947004965833,Europe,Malta,Malta - Malta Island,2018-09-12,14:15
103693,Oenanthe oenanthe,species,Northern Wheatear,1,14.3403377532959,35.891284942627,Europe,Malta,Malta - Malta Island,2018-09-12,14:15
103694,Discoglossus pictus,species,Painted Frog,1,14.3377734348178,35.8951404967672,Europe,Malta,Malta - Malta Island,2018-09-12,14:34
38569,Larus michahellis,species,Yellow-legged Gull,1,14.4239611923695,35.9471549012321,Europe,Malta,Malta - Salina Saltpans,2018-09-05,11:42
38570,Egretta garzetta,species,Little Egret,1,14.4239611923695,35.9471549012321,Europe,Malta,Malta - Salina Saltpans,2018-09-05,11:46
38571,Vanessa atalanta,species,Red Admiral,2,14.3896731734276,35.9578920449237,Europe,Malta,Malta - Malta Island,2018-09-06,12:07
38572,Podarcis filfolensis,species,Maltese Wall Lizard,2,14.3719968795776,35.9544258117676,Europe,Malta,Malta - Malta Island,2018-09-06,12:56
38573,Podarcis filfolensis,species,Maltese Wall Lizard,5,14.4311133027077,35.9097009502119,Europe,Malta,Malta - Malta Island,2018-09-07,12:54
38574,Cettia cetti,species,Cetti's Warbler,2,14.3895874023438,35.889778137207,Europe,Malta,Malta - Malta Island,2018-09-07,19:39
38575,Discoglossus pictus,species,Painted Frog,5,14.3901485949755,35.8899947861391,Europe,Malta,Malta - Malta Island,2018-09-07,19:55
38578,Atelerix algirus,species,Algerian Hedgehog,1,14.39030483,35.89011539,Europe,Malta,Malta - Malta Island,2018-09-07,23:20
71100,Leptotes pirithous,species,Lang’s Short-tailed Blue,1,14.4837318733335,35.9037186536688,Europe,Malta,Malta - Malta Island,2018-09-02,12:26
71101,Podarcis filfolensis,species,Maltese Wall Lizard,1,14.4833721220493,35.9027863316706,Europe,Malta,Malta - Malta Island,2018-09-02,12:29
71102,Cisticola juncidis,species,Zitting Cisticola,1,14.3473640084267,35.9709955107827,Europe,Malta,Malta - Ghadir Natural reserve,2018-09-02,18:32
71103,Tarentola mauritanica,species,Moorish Gecko,1,14.3473640084267,35.9709955107827,Europe,Malta,Malta - Ghadir Natural reserve,2018-09-02,18:33
71104,Crocothemis erythraea,species,Broad Scarlet,1,14.3478209897876,35.9705874086355,Europe,Malta,Malta - Ghadir Natural reserve,2018-09-02,18:45
71105,Chalcides ocellatus,species,Ocellated Skink,1,14.3461731076241,35.9691747728126,Europe,Malta,Malta - Malta Island,2018-09-02,18:45
71106,Trithemis annulata,species,Violet Dropwing,3,14.3478209897876,35.9705874086355,Europe,Malta,Malta - Ghadir Natural reserve,2018-09-02,18:53
71107,Eyprepocnemis plorans,species,,1,14.3448933586478,35.9696718845747,Europe,Malta,Malta - Ghadir Natural reserve,2018-09-02,19:30
71108,Anax parthenope,species,Lesser Emperor,1,14.3455320596695,35.969052665187,Europe,Malta,Malta - Malta Island,2018-09-02,19:47
71109,Hemidactylus turcicus,species,Mediterranean House Gecko,1,14.3607341498137,35.9658794288009,Europe,Malta,Malta - Malta Island,2018-09-02,21:22
71110,Chamaeleo chamaeleon,species,Common Chameleon,1,14.4839553833008,35.9039497375488,Europe,Malta,Malta - Malta Island,2018-09-03,22:19
71111,Discoglossus pictus,species,Painted Frog,1,14.3817367553711,35.8776550292969,Europe,Malta,Malta - Malta Island,2018-09-04,17:28
71112,Sylvia melanocephala,species,Sardinian Warbler,1,14.3808000907302,35.875654565127,Europe,Malta,Malta - Malta Island,2018-09-04,19:12
71113,Crocothemis erythraea,species,Broad Scarlet,2,14.381685256958,35.8777656555176,Europe,Malta,Malta - Malta Island,2018-09-04,19:13
71114,Orthetrum trinacria,species,Long Skimmer,1,14.3805904388428,35.876350402832,Europe,Malta,Malta - Malta Island,2018-09-04,20:34
71115,Gryllus bimaculatus,species,Two-spotted Cricket,1,14.3806257247925,35.8763542175293,Europe,Malta,Malta - Malta Island,2018-09-04,23:50
71116,Tarentola mauritanica,species,Moorish Gecko,1,14.3806730210781,35.8762343092073,Europe,Malta,Malta - Malta Island,2018-09-05,00:15
75649,Larus michahellis,species,Yellow-legged Gull,1,14.3771900979037,35.9868511630463,Europe,Malta,Malta - Malta Island,2018-07-13,14:49
7277,Passer hispaniolensis,species,Spanish Sparrow,4,14.4525001628129,35.8196533062483,Europe,Malta,Malta - Malta Island,2018-07-07,08:29
52852,Chamaeleo chamaeleon,species,Common Chameleon,1,14.28369465,36.06090824,Europe,Malta,Malta - Gozo Island,2015-10-24,
52856,Sympetrum fonscolombii,species,Red-veined Darter,4,14.28372952,36.05884401,Europe,Malta,Malta - Gozo Island,2015-10-24,
53248,Podarcis filfolensis,species,Maltese Wall Lizard,10,14.23280464,36.03742124,Europe,Malta,Malta - Gozo Island,2015-10-23,
53255,Chamaeleo chamaeleon,species,Common Chameleon,2,14.23270674,36.04112026,Europe,Malta,Malta - Gozo Island,2015-10-20,
53306,Chalcides ocellatus,species,Ocellated Skink,4,14.23228295,36.04099338,Europe,Malta,Malta - Gozo Island,2015-10-20,
53315,Podarcis filfolensis,species,Maltese Wall Lizard,35,14.23228295,36.04099338,Europe,Malta,Malta - Gozo Island,2015-10-20,
53378,Podarcis filfolensis,species,Maltese Wall Lizard,10,14.1908028,36.05055597,Europe,Malta,Malta - Gozo Island,2015-10-22,
53669,Crocothemis erythraea,species,Broad Scarlet,6,14.23197638,36.04110929,Europe,Malta,Malta - Gozo Island,2015-10-20,
53718,Crocothemis erythraea,species,Broad Scarlet,6,14.23076214,36.03419274,Europe,Malta,Malta - Gozo Island,2015-10-17,
54048,Crocothemis erythraea,species,Broad Scarlet,7,14.23282476,36.03987643,Europe,Malta,Malta - Gozo Island,2015-10-18,
54229,Crocothemis erythraea,species,Broad Scarlet,3,14.1991443,36.03658073,Europe,Malta,Malta - Gozo Island,2015-10-19,
54261,Sympetrum fonscolombii,species,Red-veined Darter,10,14.2967713,36.02552923,Europe,Malta,Malta - Gozo Island,2015-10-19,
54266,Anax parthenope,species,Lesser Emperor,1,14.2967713,36.02552923,Europe,Malta,Malta - Gozo Island,2015-10-19,
92158,Passer hispaniolensis,species,Spanish Sparrow,6,14.4196380181699,35.9474318896072,Europe,Malta,Malta - Malta Island,2018-06-24,11:52
92159,Cisticola juncidis,species,Zitting Cisticola,6,14.4217649470339,35.9459275351522,Europe,Malta,Malta - Malta Island,2018-06-23,20:07
92160,Sylvia melanocephala,species,Sardinian Warbler,5,14.4219448645769,35.9465177939416,Europe,Malta,Malta - Malta Island,2018-06-23,19:49
76370,Anacridium aegyptium,species,Egyptian Grasshopper,1,14.2877101711929,36.0634234640747,Europe,Malta,Malta - Gozo Island,2018-04-02,12:39
76371,Eyprepocnemis plorans,species,,1,14.3446565698832,35.9285321552306,Europe,Malta,Malta - Malta Island,2018-04-04,12:53
29783,Anacridium aegyptium,species,Egyptian Grasshopper,1,14.3661728315055,35.9951546648517,Europe,Malta,Malta - Malta Island,2018-03-31,14:20
29784,Anacridium aegyptium,species,Egyptian Grasshopper,1,14.3689435534179,35.9947612183169,Europe,Malta,Malta - Malta Island,2018-03-31,15:27
45604,Eyprepocnemis plorans,species,,1,14.3846104200929,35.9192446712404,Europe,Malta,Malta - Malta Island,2018-03-31,10:34
48756,Gryllus bimaculatus,species,Two-spotted Cricket,1,14.38,35.91,Europe,Malta,Malta - Malta Island,2018-03-29,20:05
48757,Anacridium aegyptium,species,Egyptian Grasshopper,1,14.362318161875,35.9911179402843,Europe,Malta,Malta - Malta Island,2018-03-30,14:46
48758,Anacridium aegyptium,species,Egyptian Grasshopper,1,14.3626146,35.991444,Europe,Malta,Malta - Malta Island,2018-03-30,14:49
69937,Anacridium aegyptium,species,Egyptian Grasshopper,1,14.3678064644337,35.9344161255285,Europe,Malta,Malta - Malta Island,2018-03-28,12:54
29693,Passer hispaniolensis,species,Spanish Sparrow,3,14.5452587950497,35.8413440158502,Europe,Malta,Malta - Malta Island,2018-01-05,10:34
90364,Podiceps nigricollis,species,Black-necked Grebe,1,14.54568788,35.84101869,Europe,Malta,Malta - Malta Island,2017-12-30,
90555,Saxicola rubicola,species,European Stonechat,1,14.37727332,35.97023507,Europe,Malta,Malta - Malta Island,2017-12-28,
90561,Sylvia melanocephala,species,Sardinian Warbler,1,14.37783122,35.95951073,Europe,Malta,Malta - Malta Island,2017-12-28,
9216,Passer hispaniolensis,species,Spanish Sparrow,7,14.3497324,35.97053884,Europe,Malta,Malta - Malta Island,2017-12-26,
5774,Phoenicurus ochruros,species,Black Redstart,1,14.38015938,35.84920007,Europe,Malta,Malta - Malta Island,2015-12-04,
120182,Passer hispaniolensis,species,Spanish Sparrow,1,14.3447,35.9338,Europe,Malta,Malta - Malta Island,2017-05-30,09:11
24260,Passer hispaniolensis,species,Spanish Sparrow,2,14.51318228,35.89565188,Europe,Malta,Malta - Malta Island,2017-10-11,08:24
24613,Passer hispaniolensis,species,Spanish Sparrow,2,14.51322251,35.89576922,Europe,Malta,Malta - Malta Island,2017-10-09,07:47
25552,Pontia daplidice,species,Bath White,2,14.19017726,36.05285145,Europe,Malta,Malta - Gozo Island,2017-10-08,11:51
25560,Larus michahellis,species,Yellow-legged Gull,2,14.31873679,36.00494688,Europe,Malta,Malta - Comino Island,2017-10-08,10:45
25589,Passer hispaniolensis,species,Spanish Sparrow,2,14.51322251,35.89576922,Europe,Malta,Malta - Malta Island,2017-10-08,07:47
25612,Larus michahellis,species,Yellow-legged Gull,3,14.2993927,36.02536221,Europe,Malta,Malta - Gozo Island,2017-10-08,11:11
25613,Monticola solitarius,species,Blue Rock Thrush,1,14.1902136337012,36.0528434906155,Europe,Malta,Malta - Gozo Island,2017-10-08,11:51
25614,Colias crocea,species,Clouded Yellow,2,14.1901772562414,36.0528514534235,Europe,Malta,Malta - Gozo Island,2017-10-08,11:51
25615,Podarcis filfolensis,species,Maltese Wall Lizard,20,14.1901772562414,36.0528514534235,Europe,Malta,Malta - Gozo Island,2017-10-08,11:51
25616,Sylvia melanocephala,species,Sardinian Warbler,1,14.2376979,36.0336206,Europe,Malta,Malta - Gozo Island,2017-10-08,15:13
25617,Passer hispaniolensis,species,Spanish Sparrow,2,14.5131822768599,35.8956518769264,Europe,Malta,Malta - Malta Island,2017-10-10,08:24
25618,Sylvia melanocephala,species,Sardinian Warbler,1,14.517720490694,35.9016229351982,Europe,Malta,Malta - Malta Island,2017-10-11,10:00
25619,Passer hispaniolensis,species,Spanish Sparrow,1,14.5182668231428,35.9033140679821,Europe,Malta,Malta - Malta Island,2017-10-11,10:24
25620,Larus michahellis,species,Yellow-legged Gull,8,14.5181866083294,35.9034026646987,Europe,Malta,Malta - Malta Island,2017-10-11,11:11
25621,Sylvia melanocephala,species,Sardinian Warbler,1,14.5094581972808,35.8941957307979,Europe,Malta,Malta - Malta Island,2017-10-11,13:25
25622,Passer hispaniolensis,species,Spanish Sparrow,1,14.4870847184211,35.8810916310176,Europe,Malta,Malta - Malta Island,2017-10-11,13:46
32176,Thalassoma pavo,species,Ornate wrasse,1,14.32305163,36.0131049,Europe,Malta,Malta - Comino Island,2017-09-30,13:00
41056,Chrysolina americana,species,Rosemary Beetle,1,14.42298935,35.89210416,Europe,Malta,Malta - Malta Island,2017-10-02,13:40
41185,Leptotes pirithous,species,Lang’s Short-tailed Blue,3,14.42298667,35.89210307,Europe,Malta,Malta - Malta Island,2017-10-02,13:30
41425,Hierophis viridiflavus,species,Western Whip Snake,1,14.42474218,35.95587857,Europe,Malta,Malta - Malta Island,2017-09-26,11:00
41486,Columbella rustica,species,Rustic dovesnail,15,14.42544227,35.95665362,Europe,Malta,Malta - Malta Island,2017-10-01,12:50
41698,Podarcis filfolensis,species,Maltese Wall Lizard,10,14.42406492,35.95208002,Europe,Malta,Malta - Malta Island,2017-09-30,10:25
41732,Podarcis filfolensis,species,Maltese Wall Lizard,10,14.32426931,36.01462908,Europe,Malta,Malta - Comino Island,2017-09-27,11:40
99981,Leptotes pirithous,species,Lang’s Short-tailed Blue,1,14.51353669,35.89610101,Europe,Malta,Malta - Malta Island,2017-09-29,
99991,Passer hispaniolensis,species,Spanish Sparrow,1,14.40248251,35.88763269,Europe,Malta,Malta - Malta Island,2017-09-30,
99992,Sylvia melanocephala,species,Sardinian Warbler,1,14.45837974,35.8236917,Europe,Malta,Malta - Malta Island,2017-09-30,
99995,Sylvia melanocephala,species,Sardinian Warbler,1,14.50816154,35.89700924,Europe,Malta,Malta - Malta Island,2017-09-29,
114984,Papilio machaon,species,Swallowtail,1,14.33389664,35.97231043,Europe,Malta,Malta - Malta Island,2017-09-21,11:30
118935,Cettia cetti,species,Cetti's Warbler,1,14.40419,35.8571266666667,Europe,Malta,Malta - Malta Island,2017-09-17,14:47
118936,Muscicapa striata,species,Spotted Flycatcher,1,14.251375,36.0530016666667,Europe,Malta,Malta - Gozo Island,2017-09-18,15:25
118937,Gallinula chloropus,species,Common Moorhen,1,14.3458066666667,35.9692883333333,Europe,Malta,Malta - Malta Island,2017-09-20,12:49
64048,Circus aeruginosus,species,Western Marsh Harrier,2,14.5592,35.8763,Europe,Malta,Malta - Malta Island,2017-09-15,09:58
64049,Ardea cinerea,species,Grey Heron,38,14.5605,35.8757,Europe,Malta,Malta - Malta Island,2017-09-15,09:53
64050,Cisticola juncidis,species,Zitting Cisticola,1,14.56327469,35.87666711,Europe,Malta,Malta - Malta Island,2017-09-15,09:35
64051,Cisticola juncidis,species,Zitting Cisticola,1,14.5603,35.88,Europe,Malta,Malta - Malta Island,2017-09-15,09:16
64052,Sylvia melanocephala,species,Sardinian Warbler,1,14.56,35.8802,Europe,Malta,Malta - Malta Island,2017-09-15,09:15
64053,Cisticola juncidis,species,Zitting Cisticola,2,14.56317905,35.87848185,Europe,Malta,Malta - Malta Island,2017-09-15,08:29
64054,Sylvia melanocephala,species,Sardinian Warbler,1,14.5633,35.878,Europe,Malta,Malta - Malta Island,2017-09-15,08:25
64055,Sylvia melanocephala,species,Sardinian Warbler,1,14.5636,35.8768,Europe,Malta,Malta - Malta Island,2017-09-15,08:18
64057,Passer hispaniolensis,species,Spanish Sparrow,100,14.55884637,35.87518898,Europe,Malta,Malta - Malta Island,2017-09-15,07:36
64058,Sylvia melanocephala,species,Sardinian Warbler,1,14.5584,35.8759,Europe,Malta,Malta - Malta Island,2017-09-15,07:34
64059,Sylvia melanocephala,species,Sardinian Warbler,1,14.5577,35.8777,Europe,Malta,Malta - Malta Island,2017-09-15,07:24
81978,Circus aeruginosus,species,Western Marsh Harrier,2,14.3994,35.8584,Europe,Malta,Malta - Malta Island,2017-09-13,11:59
81979,Sylvia melanocephala,species,Sardinian Warbler,2,14.4007,35.8564,Europe,Malta,Malta - Malta Island,2017-09-13,11:11
81980,Cisticola juncidis,species,Zitting Cisticola,1,14.40062018,35.85587976,Europe,Malta,Malta - Malta Island,2017-09-13,11:05
81981,Merops apiaster,species,European Bee-eater,100,14.40049771,35.85571313,Europe,Malta,Malta - Malta Island,2017-09-13,10:23
81982,Circus aeruginosus,species,Western Marsh Harrier,1,14.4008,35.8563,Europe,Malta,Malta - Malta Island,2017-09-13,09:59
81983,Sylvia melanocephala,species,Sardinian Warbler,2,14.4001,35.856,Europe,Malta,Malta - Malta Island,2017-09-13,09:21
81984,Pernis apivorus,species,European Honey Buzzard,1,14.3998,35.8571,Europe,Malta,Malta - Malta Island,2017-09-13,09:01
81985,Sylvia melanocephala,species,Sardinian Warbler,2,14.3996,35.8571,Europe,Malta,Malta - Malta Island,2017-09-13,08:56
81986,Passer hispaniolensis,species,Spanish Sparrow,10,14.3984735,35.85642713,Europe,Malta,Malta - Malta Island,2017-09-13,08:47
81987,Sylvia melanocephala,species,Sardinian Warbler,2,14.3986,35.8567,Europe,Malta,Malta - Malta Island,2017-09-13,08:45
81989,Pernis apivorus,species,European Honey Buzzard,6,14.398,35.8568,Europe,Malta,Malta - Malta Island,2017-09-13,08:40
81990,Sylvia melanocephala,species,Sardinian Warbler,1,14.3977,35.8571,Europe,Malta,Malta - Malta Island,2017-09-13,08:34
81991,Cettia cetti,species,Cetti's Warbler,1,14.3975,35.8573,Europe,Malta,Malta - Malta Island,2017-09-13,08:33
81992,Pernis apivorus,species,European Honey Buzzard,2,14.3975,35.8578,Europe,Malta,Malta - Malta Island,2017-09-13,08:23
81993,Sylvia melanocephala,species,Sardinian Warbler,1,14.3973,35.8578,Europe,Malta,Malta - Malta Island,2017-09-13,08:17
81994,Muscicapa striata,species,Spotted Flycatcher,3,14.3967,35.8572,Europe,Malta,Malta - Malta Island,2017-09-13,07:58
81995,Passer hispaniolensis,species,Spanish Sparrow,10,14.3966,35.8572,Europe,Malta,Malta - Malta Island,2017-09-13,07:57
81997,Muscicapa striata,species,Spotted Flycatcher,1,14.397,35.8578,Europe,Malta,Malta - Malta Island,2017-09-13,07:51
81998,Merops apiaster,species,European Bee-eater,3,14.3977,35.859,Europe,Malta,Malta - Malta Island,2017-09-13,07:46
47683,Crocothemis erythraea,species,Broad Scarlet,1,14.231549240648746,36.034457283094525,Europe,Malta,Malta - Gozo Island,2017-07-23,10:56
47684,Papilio machaon,species,Swallowtail,1,14.230603678151963,36.03257713839412,Europe,Malta,Malta - Gozo Island,2017-07-23,10:43
62896,Trithemis annulata,species,Violet Dropwing,1,14.34880749,35.97034133,Europe,Malta,Malta - Ghadir Natural reserve,2016-08-25,
106929,Tudorella melitense,species,,10,14.48766276,35.81442393,Europe,Malta,Malta - Malta Island,2017-04-04,09:51
107855,Rumina decollata,species,Decollate snail,100,14.48766276,35.81442393,Europe,Malta,Malta - Malta Island,2017-04-04,09:51
107916,Arca noae,species,Noah's arch,1,14.48476866,35.93235318,Europe,Malta,Malta - Malta Island,2017-04-06,16:22
98768,Passer hispaniolensis,species,Spanish Sparrow,1,14.343435,35.94995,Europe,Malta,Malta - Malta Island,2017-05-04,07:53
98920,Cisticola juncidis,species,Zitting Cisticola,1,14.343435,35.94995,Europe,Malta,Malta - Malta Island,2017-05-04,07:53
99068,Muscicapa striata,species,Spotted Flycatcher,1,14.34637833,35.97439833,Europe,Malta,Malta - Malta Island,2017-05-04,10:24
99147,Passer hispaniolensis,species,Spanish Sparrow,1,14.34665167,35.96947,Europe,Malta,Malta - Ghadir Natural reserve,2017-05-04,15:29
95807,Crocothemis erythraea,species,Broad Scarlet,1,14.34673167,35.96930667,Europe,Malta,Malta - Ghadir Natural reserve,2017-05-04,15:08
95808,Vanessa atalanta,species,Red Admiral,1,14.34657833,35.96933,Europe,Malta,Malta - Ghadir Natural reserve,2017-05-04,15:12
111882,Podarcis filfolensis,species,Maltese Wall Lizard,1,14.32931929,36.01066024,Europe,Malta,Malta - Comino Island,2017-04-22,11:17
114278,Calidris minuta,species,Little Stint,1,14.34898887,35.9702531,Europe,Malta,Malta - Ghadir Natural reserve,2017-04-23,14:18
114305,Calidris minuta,species,Little Stint,1,14.34898887,35.9702531,Europe,Malta,Malta - Ghadir Natural reserve,2017-04-22,14:18
115115,Anacridium aegyptium,species,Egyptian Grasshopper,1,14.2812217,36.06193412,Europe,Malta,Malta - Gozo Island,2017-04-24,14:11
16205,Podarcis filfolensis,species,Maltese Wall Lizard,1,14.19077371,36.04844127,Europe,Malta,Malta - Gozo Island,2017-05-04,
16211,Podarcis filfolensis,species,Maltese Wall Lizard,1,14.21610424,36.03038611,Europe,Malta,Malta - Gozo Island,2017-05-04,
25205,Muscicapa striata,species,Spotted Flycatcher,1,14.34685667,35.950145,Europe,Malta,Malta - Malta Island,2017-05-04,07:46
25207,Muscicapa striata,species,Spotted Flycatcher,2,14.34583,35.95012,Europe,Malta,Malta - Malta Island,2017-05-04,07:48
25208,Muscicapa striata,species,Spotted Flycatcher,2,14.34498167,35.95005167,Europe,Malta,Malta - Malta Island,2017-05-04,07:50
25209,Calandrella brachydactyla,species,Greater Short-toed Lark,2,14.343435,35.94995,Europe,Malta,Malta - Malta Island,2017-05-04,07:53
25210,Saxicola rubetra,species,Whinchat,1,14.33992833,35.94808833,Europe,Malta,Malta - Malta Island,2017-05-04,08:20
25212,Monticola solitarius,species,Blue Rock Thrush,1,14.33753167,35.94478333,Europe,Malta,Malta - Malta Island,2017-05-04,08:59
25213,Saxicola rubetra,species,Whinchat,1,14.34637833,35.97439833,Europe,Malta,Malta - Malta Island,2017-05-04,10:24
27165,Chalcides ocellatus,species,Ocellated Skink,5,14.41936568,35.95483184,Europe,Malta,Malta - Malta Island,2017-05-01,
27509,Podarcis filfolensis,species,Maltese Wall Lizard,1,14.415861829232,35.9533100385161,Europe,Malta,Malta - Malta Island,2017-04-26,10:11
27510,Podarcis filfolensis,species,Maltese Wall Lizard,1,14.4181138442325,35.9565214061885,Europe,Malta,Malta - Malta Island,2017-04-26,10:26
27511,Podarcis filfolensis,species,Maltese Wall Lizard,4,14.4246026470235,35.9583730657085,Europe,Malta,Malta - Malta Island,2017-04-26,12:35
27512,Podarcis filfolensis,species,Maltese Wall Lizard,30,14.42044641,35.95359574,Europe,Malta,Malta - Malta Island,2017-04-26,14:14
27513,Tarentola mauritanica,species,Moorish Gecko,3,14.4197049,35.9543247,Europe,Malta,Malta - Malta Island,2017-04-27,09:55
27514,Chalcides ocellatus,species,Ocellated Skink,4,14.3714918841678,35.9542372951851,Europe,Malta,Malta - Malta Island,2017-04-27,10:55
27515,Tarentola mauritanica,species,Moorish Gecko,3,14.3714918841678,35.9542372951851,Europe,Malta,Malta - Malta Island,2017-04-27,10:55
27516,Podarcis filfolensis,species,Maltese Wall Lizard,5,14.3715679712573,35.9540796305803,Europe,Malta,Malta - Malta Island,2017-04-27,10:55
27517,Chalcides ocellatus,species,Ocellated Skink,1,14.3424189585239,35.9612183503275,Europe,Malta,Malta - Malta Island,2017-04-27,14:52
27518,Tarentola mauritanica,species,Moorish Gecko,6,14.3466129251052,35.9694240948799,Europe,Malta,Malta - Ghadir Natural reserve,2017-04-27,16:26
27519,Chamaeleo chamaeleon,species,Common Chameleon,1,14.34885191,35.96965035,Europe,Malta,Malta - Ghadir Natural reserve,2017-04-27,16:52
27520,Chalcides ocellatus,species,Ocellated Skink,4,14.3494815589438,35.96930613912,Europe,Malta,Malta - Malta Island,2017-04-27,17:10
27521,Podarcis filfolensis,species,Maltese Wall Lizard,1,14.3527382263544,35.96633092635,Europe,Malta,Malta - Malta Island,2017-04-27,17:39
27522,Podarcis filfolensis,species,Maltese Wall Lizard,2,14.3984021682102,35.8825477821853,Europe,Malta,Malta - Malta Island,2017-04-28,11:17
27523,Podarcis filfolensis,species,Maltese Wall Lizard,1,14.4036099055009,35.884277213242,Europe,Malta,Malta - Malta Island,2017-04-28,13:06
27524,Podarcis filfolensis,species,Maltese Wall Lizard,5,14.4174279827217,35.8903836569721,Europe,Malta,Malta - Malta Island,2017-04-28,13:54
27525,Tarentola mauritanica,species,Moorish Gecko,30,14.499201676431,35.8914646190757,Europe,Malta,Malta - Malta Island,2017-04-29,10:08
27526,Podarcis filfolensis,species,Maltese Wall Lizard,10,14.499201676431,35.8914646190757,Europe,Malta,Malta - Malta Island,2017-04-29,10:08
27527,Chalcides ocellatus,species,Ocellated Skink,30,14.499201676431,35.8914646190757,Europe,Malta,Malta - Malta Island,2017-04-29,10:09
27528,Podarcis filfolensis,species,Maltese Wall Lizard,4,14.5176449459334,35.8973929917835,Europe,Malta,Malta - Malta Island,2017-04-29,13:23
27529,Tarentola mauritanica,species,Moorish Gecko,2,14.5172545039556,35.8974221889241,Europe,Malta,Malta - Malta Island,2017-04-29,13:25
27530,Podarcis filfolensis,species,Maltese Wall Lizard,10,14.5190207888988,35.90079083051,Europe,Malta,Malta - Malta Island,2017-04-29,13:49
27531,Podarcis filfolensis,species,Maltese Wall Lizard,6,14.268201385476,36.0476647732325,Europe,Malta,Malta - Gozo Island,2017-05-01,12:31
27532,Papilio machaon,species,Swallowtail,1,14.2685751644209,36.0472682614964,Europe,Malta,Malta - Gozo Island,2017-05-01,12:58
27533,Tarentola mauritanica,species,Moorish Gecko,1,14.2685751644209,36.0472682614964,Europe,Malta,Malta - Gozo Island,2017-05-01,12:58
27534,Podarcis filfolensis,species,Maltese Wall Lizard,2,14.279154625509,36.0605040185147,Europe,Malta,Malta - Gozo Island,2017-05-01,13:52
27535,Podarcis filfolensis,species,Maltese Wall Lizard,5,14.2603390863453,36.0696570827927,Europe,Malta,Malta - Gozo Island,2017-05-01,15:14
27536,Podarcis filfolensis,species,Maltese Wall Lizard,2,14.1898029994272,36.0522435759009,Europe,Malta,Malta - Gozo Island,2017-05-01,16:34
27537,Podarcis filfolensis,species,Maltese Wall Lizard,2,14.5297363606758,35.8296731901277,Europe,Malta,Malta - Malta Island,2017-05-02,14:43
29657,Calandrella brachydactyla,species,Greater Short-toed Lark,1,14.33977833,36.012105,Europe,Malta,Malta - Comino Island,2017-05-03,09:44
29658,Podarcis filfolensis,species,Maltese Wall Lizard,1,14.339685,36.011905,Europe,Malta,Malta - Comino Island,2017-05-03,09:49
29659,Saxicola rubetra,species,Whinchat,1,14.34581167,36.00934,Europe,Malta,Malta - Comino Island,2017-05-03,10:22
29660,Oenanthe oenanthe,species,Northern Wheatear,1,14.346985,36.009565,Europe,Malta,Malta - Comino Island,2017-05-03,10:26
29661,Sylvia communis,species,Common Whitethroat,1,14.34721667,36.01003667,Europe,Malta,Malta - Comino Island,2017-05-03,10:33
29662,Monticola solitarius,species,Blue Rock Thrush,2,14.25387667,36.01677167,Europe,Malta,Malta - Gozo Island,2017-05-03,19:51
30554,Muscicapa striata,species,Spotted Flycatcher,1,14.29063475,36.04736016,Europe,Malta,Malta - Gozo Island,2017-05-03,
31085,Actitis hypoleucos,species,Common Sandpiper,1,14.28412152,36.05636409,Europe,Malta,Malta - Gozo Island,2017-05-03,
43568,Himantopus himantopus,species,Black-winged Stilt,1,14.34885167,35.96969667,Europe,Malta,Malta - Ghadir Natural reserve,2017-05-02,14:59
43570,Cisticola juncidis,species,Zitting Cisticola,1,14.3481,35.968905,Europe,Malta,Malta - Ghadir Natural reserve,2017-05-02,15:02
43571,Calidris pugnax,species,Ruff,2,14.34663167,35.969435,Europe,Malta,Malta - Ghadir Natural reserve,2017-05-02,15:12
45231,Chalcides ocellatus,species,Ocellated Skink,2,14.2268938,36.06698372,Europe,Malta,Malta - Gozo Island,2017-05-02,
45245,Passer hispaniolensis,species,Spanish Sparrow,1,14.2282794,36.07881377,Europe,Malta,Malta - Gozo Island,2017-05-02,
59003,Larus michahellis,species,Yellow-legged Gull,2,14.3672437,35.9984588,Europe,Malta,Malta - Malta Island,2017-05-01,
102525,Tarentola mauritanica,species,Moorish Gecko,4,14.37845907,35.90374985,Europe,Malta,Malta - Malta Island,2017-04-29,
102936,Passer hispaniolensis,species,Spanish Sparrow,1,14.44371979,35.82748816,Europe,Malta,Malta - Malta Island,2017-04-29,
102942,Tarentola mauritanica,species,Moorish Gecko,1,14.44086721,35.82730705,Europe,Malta,Malta - Malta Island,2017-04-29,
4329,Oenanthe oenanthe,species,Northern Wheatear,2,14.32821078,35.9725275,Europe,Malta,Malta - Malta Island,2017-04-28,
4336,Lanius senator,species,Woodchat Shrike,1,14.32824018,35.97246638,Europe,Malta,Malta - Malta Island,2017-04-28,
4492,Chamaeleo chamaeleon,species,Common Chameleon,1,14.32644224,35.97623186,Europe,Malta,Malta - Malta Island,2017-04-28,
13802,Cisticola juncidis,species,Zitting Cisticola,1,14.348658074709,35.97464780211,Europe,Malta,Malta - Malta Island,2017-04-28,09:41
13803,Pontia edusa,species,Eastern Bath White,1,14.3486437197395,35.9746582417602,Europe,Malta,Malta - Malta Island,2017-04-28,09:43
13804,Cacyreus marshalli,species,Geranium Bronze,2,14.3486105348325,35.9745885679857,Europe,Malta,Malta - Malta Island,2017-04-28,09:52
13805,Pieris rapae,species,Small White,2,14.3478989984103,35.9751138811081,Europe,Malta,Malta - Malta Island,2017-04-28,09:59
13806,Colias crocea,species,Clouded Yellow,1,14.3471424561443,35.9750193530123,Europe,Malta,Malta - Malta Island,2017-04-28,10:06
13807,Colias crocea,species,Clouded Yellow,2,14.3443790406702,35.9751861102473,Europe,Malta,Malta - Malta Island,2017-04-28,10:13
13808,Macroglossum stellatarum,species,Humming-bird Hawk Moth,1,14.3442653010503,35.9752028074343,Europe,Malta,Malta - Malta Island,2017-04-28,10:13
13809,Vanessa atalanta,species,Red Admiral,1,14.3434753959667,35.9752023524203,Europe,Malta,Malta - Malta Island,2017-04-28,10:18
13810,Macroglossum stellatarum,species,Humming-bird Hawk Moth,2,14.3421598845296,35.975204052039,Europe,Malta,Malta - Malta Island,2017-04-28,10:22
13811,Orthetrum trinacria,species,Long Skimmer,1,14.3421519,35.9750507,Europe,Malta,Malta - Malta Island,2017-04-28,10:24
13812,Pontia edusa,species,Eastern Bath White,1,14.338763302043,35.9735684648616,Europe,Malta,Malta - Malta Island,2017-04-28,10:38
13813,Lanius senator,species,Woodchat Shrike,2,14.3361524707328,35.9726687011939,Europe,Malta,Malta - Malta Island,2017-04-28,10:54
13814,Saxicola rubetra,species,Whinchat,1,14.3364610878362,35.9723337122515,Europe,Malta,Malta - Malta Island,2017-04-28,10:58
13815,Pontia edusa,species,Eastern Bath White,2,14.3387848666907,35.9717987797886,Europe,Malta,Malta - Malta Island,2017-04-28,11:08
13816,Muscicapa striata,species,Spotted Flycatcher,1,14.3482528186292,35.9750450164795,Europe,Malta,Malta - Malta Island,2017-04-28,11:23
17892,Medicago littoralis,species,Shore Medick,1,14.19153392,36.05147889,Europe,Malta,Malta - Gozo Island,2017-04-13,13:53
20587,Sylvia melanocephala,species,Sardinian Warbler,1,14.33894391,36.01260978,Europe,Malta,Malta - Comino Island,2017-04-27,
23604,Podarcis filfolensis,species,Maltese Wall Lizard,1,14.33735068,36.0144508,Europe,Malta,Malta - Comino Island,2017-04-27,
23755,Podarcis filfolensis,species,Maltese Wall Lizard,1,14.3385772,36.01812594,Europe,Malta,Malta - Comino Island,2017-04-27,
26021,Chalcides ocellatus,species,Ocellated Skink,1,14.2844089151306,36.0578266792889,Europe,Malta,Malta - Gozo Island,2017-04-27,10:23
26023,Chalcides ocellatus,species,Ocellated Skink,3,14.28941938,36.06341887,Europe,Malta,Malta - Gozo Island,2017-04-27,10:56
26025,Monticola solitarius,species,Blue Rock Thrush,1,14.2853753231914,36.0607936237244,Europe,Malta,Malta - Gozo Island,2017-04-27,11:45
26026,Colias crocea,species,Clouded Yellow,2,14.2853723763051,36.060809977585,Europe,Malta,Malta - Gozo Island,2017-04-27,11:46
26028,Podarcis filfolensis,species,Maltese Wall Lizard,2,14.28130331,36.06192287,Europe,Malta,Malta - Gozo Island,2017-04-27,14:11
37727,Passer hispaniolensis,species,Spanish Sparrow,5,14.34680689,35.96934479,Europe,Malta,Malta - Ghadir Natural reserve,2017-04-26,
37810,Calidris minuta,species,Little Stint,1,14.34683121,35.96957403,Europe,Malta,Malta - Ghadir Natural reserve,2017-04-26,
41309,Lasiommata megera,species,Wall Brown,2,14.3941286125043,35.8460871286941,Europe,Malta,Malta - Malta Island,2017-04-26,11:48
41310,Lasiommata megera,species,Wall Brown,1,14.3884504800997,35.8498232191378,Europe,Malta,Malta - Malta Island,2017-04-26,12:02
58604,Sylvia melanocephala,species,Sardinian Warbler,1,14.2410844376687,36.0428200442433,Europe,Malta,Malta - Gozo Island,2017-04-25,10:07
58605,Chalcides ocellatus,species,Ocellated Skink,3,14.2841293598396,36.0583054974533,Europe,Malta,Malta - Gozo Island,2017-04-25,14:10
65347,Calandrella brachydactyla,species,Greater Short-toed Lark,1,14.37630429,35.95027808,Europe,Malta,Malta - Malta Island,2017-04-23,
65371,Ficedula hypoleuca,species,European Pied Flycatcher,1,14.37353261,35.95154221,Europe,Malta,Malta - Malta Island,2017-04-24,
65380,Podarcis filfolensis,species,Maltese Wall Lizard,1,14.2840428859109,36.0569667964857,Europe,Malta,Malta - Gozo Island,2017-04-24,10:29
65381,Sylvia melanocephala,species,Sardinian Warbler,1,14.2838912010562,36.058654735409,Europe,Malta,Malta - Gozo Island,2017-04-24,10:32
65382,Ficedula hypoleuca,species,European Pied Flycatcher,11,14.28165203,36.06144442,Europe,Malta,Malta - Gozo Island,2017-04-24,10:45
65383,Muscicapa striata,species,Spotted Flycatcher,2,14.2800642800109,36.0622302543214,Europe,Malta,Malta - Gozo Island,2017-04-24,11:06
65384,Sylvia communis,species,Common Whitethroat,2,14.2794737784717,36.0617827052247,Europe,Malta,Malta - Gozo Island,2017-04-24,11:23
65385,Monticola solitarius,species,Blue Rock Thrush,2,14.2779132051191,36.0628796241976,Europe,Malta,Malta - Gozo Island,2017-04-24,11:33
65386,Chalcides ocellatus,species,Ocellated Skink,1,14.2803221994039,36.0613873338917,Europe,Malta,Malta - Gozo Island,2017-04-24,12:14
65387,Papilio machaon,species,Swallowtail,1,14.281138559867,36.0620052511814,Europe,Malta,Malta - Gozo Island,2017-04-24,12:31
65388,Colias crocea,species,Clouded Yellow,4,14.281139627843,36.0620150424652,Europe,Malta,Malta - Gozo Island,2017-04-24,12:31
65389,Actitis hypoleucos,species,Common Sandpiper,1,14.2807100483727,36.0622678129622,Europe,Malta,Malta - Gozo Island,2017-04-24,12:38
65390,Crocothemis erythraea,species,Broad Scarlet,1,14.28769824,36.06335475,Europe,Malta,Malta - Gozo Island,2017-04-24,14:55
65391,Monticola solitarius,species,Blue Rock Thrush,1,14.2879266965432,36.063324851787,Europe,Malta,Malta - Gozo Island,2017-04-24,14:57
65460,Passer hispaniolensis,species,Spanish Sparrow,10,14.39507611,35.95853344,Europe,Malta,Malta - Malta Island,2017-04-23,
65786,Chalcides ocellatus,species,Ocellated Skink,1,14.33720112,35.93930868,Europe,Malta,Malta - Malta Island,2017-04-24,
86104,Pieris rapae,species,Small White,1,14.348763195622,35.9744308913921,Europe,Malta,Malta - Malta Island,2017-04-23,09:46
86105,Pontia edusa,species,Eastern Bath White,1,14.34870185,35.97448664,Europe,Malta,Malta - Malta Island,2017-04-23,09:47
86106,Cisticola juncidis,species,Zitting Cisticola,2,14.3474517106172,35.9750089085829,Europe,Malta,Malta - Malta Island,2017-04-23,09:53
86107,Ficedula hypoleuca,species,European Pied Flycatcher,1,14.3474417296022,35.9750000774437,Europe,Malta,Malta - Malta Island,2017-04-23,09:53
86108,Ficedula hypoleuca,species,European Pied Flycatcher,1,14.34398446,35.97346856,Europe,Malta,Malta - Malta Island,2017-04-23,10:10
86109,Muscicapa striata,species,Spotted Flycatcher,1,14.3431778002469,35.9735660889612,Europe,Malta,Malta - Malta Island,2017-04-23,10:13
86110,Pieris rapae,species,Small White,1,14.342824213759,35.9731009631824,Europe,Malta,Malta - Malta Island,2017-04-23,10:15
86111,Ficedula hypoleuca,species,European Pied Flycatcher,1,14.3393266536741,35.9719978417694,Europe,Malta,Malta - Malta Island,2017-04-23,10:22
86112,Muscicapa striata,species,Spotted Flycatcher,1,14.3393132994187,35.9719860383561,Europe,Malta,Malta - Malta Island,2017-04-23,10:22
86113,Pieris rapae,species,Small White,2,14.3384115079536,35.9718891685919,Europe,Malta,Malta - Malta Island,2017-04-23,10:26
86114,Colias crocea,species,Clouded Yellow,1,14.3384116887552,35.9718927426966,Europe,Malta,Malta - Malta Island,2017-04-23,10:26
86115,Chalcides ocellatus,species,Ocellated Skink,1,14.3376896457441,35.9713323093418,Europe,Malta,Malta - Malta Island,2017-04-23,10:32
86116,Sylvia melanocephala,species,Sardinian Warbler,2,14.3369051208086,35.9707312678616,Europe,Malta,Malta - Malta Island,2017-04-23,10:42
86117,Cisticola juncidis,species,Zitting Cisticola,1,14.3413846849837,35.9720200099143,Europe,Malta,Malta - Malta Island,2017-04-23,10:52
86118,Podarcis filfolensis,species,Maltese Wall Lizard,1,14.3413852984173,35.9720090625049,Europe,Malta,Malta - Malta Island,2017-04-23,10:52
86119,Chamaeleo chamaeleon,species,Common Chameleon,1,14.3486902113008,35.9695160480822,Europe,Malta,Malta - Ghadir Natural reserve,2017-04-23,11:24
86120,Crocothemis erythraea,species,Broad Scarlet,1,14.3465537458987,35.9693105930122,Europe,Malta,Malta - Ghadir Natural reserve,2017-04-23,11:36
86121,Chamaeleo chamaeleon,species,Common Chameleon,1,14.3471759571781,35.9688254851129,Europe,Malta,Malta - Ghadir Natural reserve,2017-04-23,11:40
86122,Calidris pugnax,species,Ruff,1,14.3490282536858,35.9702902400784,Europe,Malta,Malta - Ghadir Natural reserve,2017-04-23,11:52
86123,Cisticola juncidis,species,Zitting Cisticola,1,14.4180328704865,35.944072276011,Europe,Malta,Malta - Malta Island,2017-04-23,12:37
86124,Pieris rapae,species,Small White,2,14.4210709093611,35.9455688221537,Europe,Malta,Malta - Malta Island,2017-04-23,12:46
104301,Larus michahellis,species,Yellow-legged Gull,1,14.5056469850761,35.9085122031592,Europe,Malta,Malta - Malta Island,2017-04-21,10:40
104302,Passer hispaniolensis,species,Spanish Sparrow,2,14.3298332295759,35.9876386663146,Europe,Malta,Malta - Malta Island,2017-04-22,09:33
104303,Podarcis filfolensis,species,Maltese Wall Lizard,6,14.3248571811695,36.0154279403916,Europe,Malta,Malta - Comino Island,2017-04-22,09:59
104304,Ficedula hypoleuca,species,European Pied Flycatcher,1,14.3251922801175,36.017277566461,Europe,Malta,Malta - Comino Island,2017-04-22,10:26
104305,Passer hispaniolensis,species,Spanish Sparrow,2,14.3268883501992,36.0157138154371,Europe,Malta,Malta - Comino Island,2017-04-22,10:35
104306,Sylvia melanocephala,species,Sardinian Warbler,4,14.327561457933,36.0150834329764,Europe,Malta,Malta - Comino Island,2017-04-22,10:45
104307,Ficedula hypoleuca,species,European Pied Flycatcher,1,14.329890185358,36.0156121499903,Europe,Malta,Malta - Comino Island,2017-04-22,10:54
104308,Muscicapa striata,species,Spotted Flycatcher,1,14.3322791017896,36.0123379967215,Europe,Malta,Malta - Comino Island,2017-04-22,11:01
104309,Actitis hypoleucos,species,Common Sandpiper,2,14.33501319,36.01021027,Europe,Malta,Malta - Comino Island,2017-04-22,11:10
104310,Podarcis filfolensis,species,Maltese Wall Lizard,1,14.3356974412976,36.0113833256779,Europe,Malta,Malta - Comino Island,2017-04-22,11:17
104311,Lanius senator,species,Woodchat Shrike,1,14.3391516564938,36.012316967829,Europe,Malta,Malta - Comino Island,2017-04-22,11:30
104312,Ficedula hypoleuca,species,European Pied Flycatcher,1,14.3373848319256,36.0136408317451,Europe,Malta,Malta - Comino Island,2017-04-22,11:39
104313,Pieris rapae,species,Small White,1,14.3385330141009,36.0184319796705,Europe,Malta,Malta - Comino Island,2017-04-22,12:08
104314,Larus michahellis,species,Yellow-legged Gull,2,14.3406444586905,36.0182057357389,Europe,Malta,Malta - Comino Island,2017-04-22,12:22
104315,Muscicapa striata,species,Spotted Flycatcher,1,14.3397342199985,36.0167457734371,Europe,Malta,Malta - Comino Island,2017-04-22,12:33
104316,Saxicola rubetra,species,Whinchat,1,14.3330305666029,36.0132722817981,Europe,Malta,Malta - Comino Island,2017-04-22,12:53
104317,Ficedula hypoleuca,species,European Pied Flycatcher,2,14.3330311199789,36.0132716418168,Europe,Malta,Malta - Comino Island,2017-04-22,12:53
104318,Muscicapa striata,species,Spotted Flycatcher,1,14.3491299760197,35.9698060918195,Europe,Malta,Malta - Ghadir Natural reserve,2017-04-22,14:11
104319,Cisticola juncidis,species,Zitting Cisticola,1,14.3483974858245,35.9692550540894,Europe,Malta,Malta - Ghadir Natural reserve,2017-04-22,14:18
104320,Chamaeleo chamaeleon,species,Common Chameleon,1,14.3471623798836,35.9688282515055,Europe,Malta,Malta - Ghadir Natural reserve,2017-04-22,14:37
2553,Avena barbata,species,Slender Oat,1,14.37202781,35.94511422,Europe,Malta,Malta - Malta Island,2017-04-09,13:22
2699,Silene colorata,species,,1,14.55544755,35.87934138,Europe,Malta,Malta - Malta Island,2017-04-08,15:53
2738,Pistacia lentiscus,species,Mastic tree,1,14.4865644,35.93043436,Europe,Malta,Malta - Malta Island,2017-04-06,17:16
4555,Podarcis filfolensis,species,Maltese Wall Lizard,1,14.48706195,35.93119233,Europe,Malta,Malta - Malta Island,2017-04-06,15:40
4762,Anagallis arvensis var. caerulea,variety,,1,14.4736442,35.81748416,Europe,Malta,Malta - Malta Island,2017-04-04,11:40
4769,Convolvulus althaeoides,species,Mallow-leaved Bindweed,1,14.47341084,35.81745415,Europe,Malta,Malta - Malta Island,2017-04-04,11:35
5533,Lotus ornithopodioides,species,Southern Bird's-foot-trefoil,1,14.48752373,35.81463433,Europe,Malta,Malta - Malta Island,2017-04-04,10:09
8187,Clanculus cruciatus,species,,1,14.485,35.932,Europe,Malta,Malta - Malta Island,2017-04-06,16:22
8200,Clanculus corallinus,species,,1,14.485,35.932,Europe,Malta,Malta - Malta Island,2017-04-06,16:22
8463,Steromphala umbilicaris,species,,2,14.48476866,35.93235318,Europe,Malta,Malta - Malta Island,2017-04-06,16:22
8517,Phorcus turbinatus,species,,4,14.48476866,35.93235318,Europe,Malta,Malta - Malta Island,2017-04-06,16:22
16936,Passer hispaniolensis,species,Spanish Sparrow,4,14.362598,35.9572067,Europe,Malta,Malta - Malta Island,2017-04-20,09:54
16938,Passer hispaniolensis,species,Spanish Sparrow,3,14.3564095669127,35.9662909746758,Europe,Malta,Malta - Malta Island,2017-04-20,10:31
16940,Ficedula hypoleuca,species,European Pied Flycatcher,1,14.3494510702267,35.9692829810779,Europe,Malta,Malta - Malta Island,2017-04-20,14:00
16941,Cisticola juncidis,species,Zitting Cisticola,1,14.3473116675027,35.9683460204751,Europe,Malta,Malta - Malta Island,2017-04-20,14:04
16942,Himantopus himantopus,species,Black-winged Stilt,2,14.3490004233137,35.9702396611965,Europe,Malta,Malta - Ghadir Natural reserve,2017-04-20,14:18
16943,Calidris minuta,species,Little Stint,3,14.3489888712137,35.9702531032356,Europe,Malta,Malta - Ghadir Natural reserve,2017-04-20,14:18
16944,Actitis hypoleucos,species,Common Sandpiper,1,14.3466361130065,35.9694343149058,Europe,Malta,Malta - Ghadir Natural reserve,2017-04-20,14:42
19426,Truncatella subcylindrica,species,Looping snail,1,14.48470742,35.93237106,Europe,Malta,Malta - Malta Island,2017-04-06,16:22
24345,Lonicera implexa,species,Minorca honeysuckle,1,14.48148429,35.93197029,Europe,Malta,Malta - Malta Island,2017-04-14,09:17
24420,Euphorbia helioscopia,species,Sun Spurge,1,14.48138237,35.93221787,Europe,Malta,Malta - Malta Island,2017-04-14,09:18
24520,Lavatera arborea,synonym,Tree-mallow,1,14.45278063,35.81940173,Europe,Malta,Malta - Malta Island,2017-04-05,12:34
24771,Fedia graciliflora,species,,1,14.48616654,35.9311599,Europe,Malta,Malta - Malta Island,2017-04-06,15:46
25043,Vanessa atalanta,species,Red Admiral,1,14.3751,35.8762,Europe,Malta,Malta - Malta Island,2017-04-19,08:40
31791,Misopates orontium,species,Lesser Snapdragon,1,14.47357625,35.81746836,Europe,Malta,Malta - Malta Island,2017-04-04,11:39
31878,Anthyllis hermanniae,species,Yellow Kidney Vetch,1,14.48138237,35.93221787,Europe,Malta,Malta - Malta Island,2017-04-14,09:19
32050,Borago officinalis,species,Borage,1,14.47491825,35.81774994,Europe,Malta,Malta - Malta Island,2017-04-04,11:57
32061,Medicago orbicularis,species,Button Medick,1,14.47361112,35.81782722,Europe,Malta,Malta - Malta Island,2017-04-04,11:47
32075,Hedysarum coronarium,synonym,Italian Sainfoin,1,14.47778285,35.81805153,Europe,Malta,Malta - Malta Island,2017-04-04,10:27
32080,Oxalis pes-caprae f. pleniflora,forma,,1,14.48149413,35.81767933,Europe,Malta,Malta - Malta Island,2017-04-04,10:23
32090,Asphodelus ramosus,species,Branched Asphodel,1,14.48764667,35.81433257,Europe,Malta,Malta - Malta Island,2017-04-04,10:16
32419,Anacamptis coriophora,species,Bug Orchid,10,14.43,35.82,Europe,Malta,Malta - Malta Island,2017-04-02,14:53
32542,Moraea sisyrinchium,species,,1,14.43736911,35.82701239,Europe,Malta,Malta - Malta Island,2017-04-02,14:52
32548,Oxalis pes-caprae,species,Bermuda-buttercup,1,14.43751931,35.82692831,Europe,Malta,Malta - Malta Island,2017-04-02,14:24
32797,Ferula communis,species,Giant Fennel,1,14.4421944,35.82668749,Europe,Malta,Malta - Malta Island,2017-04-02,12:48
35040,Anacamptis pyramidalis,species,Pyramidal Orchid,8,14.4,35.8,Europe,Malta,Malta - Malta Island,2017-04-02,12:34
35243,Teucrium fruticans,species,Shrubby Germander,1,14.43940938,35.82714534,Europe,Malta,Malta - Malta Island,2017-04-02,12:32
35244,Gladiolus italicus,species,Italian gladiolus,1,14.43936288,35.82717999,Europe,Malta,Malta - Malta Island,2017-04-02,12:31
35484,Anagallis arvensis var. caerulea,variety,,1,14.44179699,35.82746879,Europe,Malta,Malta - Malta Island,2017-04-02,12:25
35542,Asphalthium bituminosum,synonym,,1,14.43927705,35.82717847,Europe,Malta,Malta - Malta Island,2017-04-02,12:30
35832,Serapias parviflora,species,Small-Flowered Serapias,5,14.47,35.81,Europe,Malta,Malta - Malta Island,2017-04-04,11:21
36035,Anagallis arvensis subsp. arvensis,subspecies,Scarlet Pimpernel,1,14.45253164,35.81956717,Europe,Malta,Malta - Malta Island,2017-04-05,12:39
36084,Lotus edulis,species,,1,14.45248157,35.81938071,Europe,Malta,Malta - Malta Island,2017-04-05,12:38
36090,Lobularia maritima,species,Sweet Alison,1,14.45248157,35.81938071,Europe,Malta,Malta - Malta Island,2017-04-05,12:38
39974,Lobularia maritima,species,Sweet Alison,1,14.19098139,36.05146371,Europe,Malta,Malta - Gozo Island,2017-04-13,13:55
40549,Lagurus ovatus,species,Hare's-tail,1,14.19153392,36.05147889,Europe,Malta,Malta - Gozo Island,2017-04-13,13:53
40578,Moraea sisyrinchium,species,,1,14.19100553,36.05161406,Europe,Malta,Malta - Gozo Island,2017-04-13,13:51
40748,Podarcis filfolensis,species,Maltese Wall Lizard,1,14.18951422,36.05184103,Europe,Malta,Malta - Gozo Island,2017-04-13,13:22
40967,Ferula communis,species,Giant Fennel,1,14.48138237,35.93166623,Europe,Malta,Malta - Malta Island,2017-04-11,12:50
41062,Prasium majus,species,White hedge-nettle,1,14.48070109,35.93170967,Europe,Malta,Malta - Malta Island,2017-04-11,12:49
50563,Bituminaria bituminosa,species,Arabian scurf-pea,1,14.48125809,35.93317318,Europe,Malta,Malta - Malta Island,2017-04-11,12:19
50792,Anacamptis coriophora,species,Bug Orchid,50,14.48,35.93,Europe,Malta,Malta - Malta Island,2017-04-11,12:18
51009,Valantia muralis,species,,1,14.48103279,35.93307255,Europe,Malta,Malta - Malta Island,2017-04-11,12:15
51234,Anagallis arvensis var. caerulea,variety,,1,14.48086739,35.93352964,Europe,Malta,Malta - Malta Island,2017-04-11,12:14
51782,Erodium moschatum,species,Musk Stork's-bill,1,14.42304432,35.89200444,Europe,Malta,Malta - Malta Island,2017-04-10,12:11
52236,Teucrium fruticans,species,Shrubby Germander,1,14.33199272,35.98117491,Europe,Malta,Malta - Malta Island,2017-04-09,14:51
53612,Nigella damascena,species,Love-in-a-mist,1,14.34105456,35.95895702,Europe,Malta,Malta - Malta Island,2017-04-09,14:26
54039,Cakile maritima,species,Sea Rocket,1,14.34041083,35.95828116,Europe,Malta,Malta - Malta Island,2017-04-09,13:57
55513,Trifolium campestre,species,Hop Trefoil,1,14.37201172,35.94528143,Europe,Malta,Malta - Malta Island,2017-04-09,13:27
59010,Amegilla quadrifasciata,species,,1,14.45805073,35.93933908,Europe,Malta,Malta - Malta Island,2016-10-24,
61753,Fedia graciliflora,species,,1,14.37177122,35.94529069,Europe,Malta,Malta - Malta Island,2017-04-09,13:25
62446,Erodium malacoides,species,Soft Stork's-bill,1,14.37177122,35.94529069,Europe,Malta,Malta - Malta Island,2017-04-09,13:25
63397,Misopates orontium,species,Lesser Snapdragon,1,14.55508545,35.87933993,Europe,Malta,Malta - Malta Island,2017-04-08,15:52
66498,Malva pseudolavatera,species,Smaller tree-mallow,1,14.55367506,35.8791568,Europe,Malta,Malta - Malta Island,2017-04-08,15:42
69432,Minuartia geniculata,species,,1,14.1897887,36.05202565,Europe,Malta,Malta - Gozo Island,2017-04-13,13:45
69436,Lathyrus clymenum,species,Cicercha purpurina,1,14.19134617,36.05135962,Europe,Malta,Malta - Gozo Island,2017-04-13,13:54
69531,Convolvulus siculus,species,Small Blue-convolvulus,1,14.48340744,35.92958226,Europe,Malta,Malta - Malta Island,2017-04-14,09:39
71041,Tripodion tetraphyllum,species,Annual Kidney Vetch,1,14.48340744,35.92958226,Europe,Malta,Malta - Malta Island,2017-04-14,09:39
71153,Filago pygmaea,species,,1,14.48323041,35.92957864,Europe,Malta,Malta - Malta Island,2017-04-14,09:44
79436,Lampyris pallida,species,,1,14.44233924,35.82751243,Europe,Malta,Malta - Malta Island,2017-04-02,11:53
81619,Cynara cardunculus,species,Globe Artichoke,1,14.48062867,35.93150399,Europe,Malta,Malta - Malta Island,2017-04-14,08:11
82425,Ficus carica,species,Fig,1,14.48058754,35.93148278,Europe,Malta,Malta - Malta Island,2017-04-14,08:11
82634,Ricinus communis,species,Castor-oil-plant,1,14.48037028,35.93109402,Europe,Malta,Malta - Malta Island,2017-04-14,08:05
82904,Bartsia trixago,synonym,,1,14.48111817,35.93085027,Europe,Malta,Malta - Malta Island,2017-04-14,08:00
83729,Galium verrucosum,species,Southern Cleavers,1,14.48070645,35.93183129,Europe,Malta,Malta - Malta Island,2017-04-14,08:15
83839,Plantago serraria,species,Toothed Plantain,1,14.4810243,35.93322298,Europe,Malta,Malta - Malta Island,2017-04-14,08:41
83852,Plantago lagopus,species,Hare's-foot Plantain,1,14.48072657,35.93302463,Europe,Malta,Malta - Malta Island,2017-04-14,08:27
83888,Plantago bellardii,species,,1,14.48053479,35.93301666,Europe,Malta,Malta - Malta Island,2017-04-14,08:26
88689,Hedysarum coronarium,synonym,Italian Sainfoin,1000,14.27903652,36.06210024,Europe,Malta,Malta - Gozo Island,2017-04-13,11:16
89200,Medicago marina,species,Sea Medick,1,14.2850031,36.06144217,Europe,Malta,Malta - Gozo Island,2017-04-13,11:22
91592,Serranus cabrilla,species,Comber,1,14.51569229,35.9027333,Europe,Malta,Malta - Malta Island,2017-04-14,14:44
105938,Diplodus vulgaris,species,Common two-banded seabream,1,14.51563865,35.90273982,Europe,Malta,Malta - Malta Island,2017-04-14,14:48
106117,Mullus surmuletus,species,Red mullet,1,14.51562479,35.90271867,Europe,Malta,Malta - Malta Island,2017-04-14,14:46
114764,Cuscuta epithymum,species,Common Dodder,1,14.48038538,35.93123835,Europe,Malta,Malta - Malta Island,2017-04-14,08:07
114765,Ophrys speculum,species,Mirror Bee Orchid,5,14.48,35.93,Europe,Malta,Malta - Malta Island,2017-04-14,08:26
114766,Anacamptis coriophora,species,Bug Orchid,20,14.48,35.93,Europe,Malta,Malta - Malta Island,2017-04-14,08:27
114767,Anacamptis pyramidalis,species,Pyramidal Orchid,2,14.45,35.9,Europe,Malta,Malta - Malta Island,2017-04-14,08:43
114768,Nigella damascena,species,Love-in-a-mist,1,14.4811873,35.93311802,Europe,Malta,Malta - Malta Island,2017-04-14,08:47
11479,Limonium sinuatum,species,Statice,1,14.55354452,35.88457994,Europe,Malta,Malta - Malta Island,2017-04-08,16:31
12626,Chromis chromis,species,Damselfish,120,14.32760596,35.9882627,Europe,Malta,Malta - Malta Island,2017-04-12,09:53
12887,Hermodice carunculata,species,Bearded fireworm,1,14.32782054,35.98808763,Europe,Malta,Malta - Malta Island,2017-04-12,09:50
18608,Pallenis spinosa,species,,1,14.48180616,35.93149683,Europe,Malta,Malta - Malta Island,2017-04-11,12:56
18749,Frankenia hirsuta,species,,1,14.33916092,35.95813273,Europe,Malta,Malta - Malta Island,2017-04-09,14:19
18832,Ornithogalum arabicum,species,Lesser Cape-lily,10,14.4811213,35.93310165,Europe,Malta,Malta - Malta Island,2017-04-11,12:17
18885,Hedysarum glomeratum,synonym,,1,14.4811213,35.93310165,Europe,Malta,Malta - Malta Island,2017-04-11,12:17
18938,Centaurium pulchellum,species,Lesser Centaury,1,14.48172212,35.93288447,Europe,Malta,Malta - Malta Island,2017-04-11,12:32
23901,Linum strictum,species,,1,14.48116422,35.93316246,Europe,Malta,Malta - Malta Island,2017-04-11,12:23
23919,Linum trigynum,species,French flax,1,14.48151022,35.93197217,Europe,Malta,Malta - Malta Island,2017-04-11,12:49
24163,Ornithogalum narbonense,species,,1,14.48204041,35.9314253,Europe,Malta,Malta - Malta Island,2017-04-11,12:53
26943,Hippocrepis multisiliquosa,species,Many-flowered Horseshoe Vetch,1,14.48153704,35.93164205,Europe,Malta,Malta - Malta Island,2017-04-11,12:50
30129,Trifolium resupinatum,species,Reversed Clover,1,14.51850548,35.90102726,Europe,Malta,Malta - Malta Island,2017-04-07,14:26
31339,Trifolium nigrescens,species,Ball Clover,1,14.42326426,35.89195229,Europe,Malta,Malta - Malta Island,2017-04-10,12:12
32370,Muraena helena,species,Mediterranean moray,1,14.5442453,35.83817407,Europe,Malta,Malta - Malta Island,2017-04-08,14:52
32883,Ecballium elaterium,species,Squirting Cucumber,1,14.5545812,35.87940622,Europe,Malta,Malta - Malta Island,2017-04-08,15:45
32884,Henosepilachna angusticollis,species,,20,14.5545812,35.87940622,Europe,Malta,Malta - Malta Island,2017-04-08,15:45
45009,Cynara cardunculus,species,Globe Artichoke,1,14.33261499,35.9810975,Europe,Malta,Malta - Malta Island,2017-04-09,14:49
47632,Convolvulus althaeoides,species,Mallow-leaved Bindweed,1,14.34126019,35.95890832,Europe,Malta,Malta - Malta Island,2017-04-09,14:25
49172,Ficedula albicollis,species,Collared Flycatcher,1,14.34057847,35.95930982,Europe,Malta,Malta - Malta Island,2017-04-09,14:03
81548,Chamaeleo chamaeleon,species,Common Chameleon,1,14.48474765,35.93156821,Europe,Malta,Malta - Malta Island,2017-04-08,18:02
95195,Columbella rustica,species,Rustic dovesnail,10,14.48476866,35.93235318,Europe,Malta,Malta - Malta Island,2017-04-06,16:22
96386,Sedum caeruleum,species,,1,14.48612899,35.93046636,Europe,Malta,Malta - Malta Island,2017-04-06,17:12
101042,Smaragdia viridis,species,Emerald nerite,15,14.48470742,35.93237106,Europe,Malta,Malta - Malta Island,2017-04-06,16:22
109797,Discoglossus pictus,species,Painted Frog,1,14.47294816,35.81732357,Europe,Malta,Malta - Malta Island,2017-04-04,10:54
109818,Tarentola mauritanica,species,Moorish Gecko,1,14.52527091,35.88060046,Europe,Malta,Malta - Malta Island,2017-04-04,13:01
110471,Anacamptis coriophora,species,Bug Orchid,20,14.48,35.93,Europe,Malta,Malta - Malta Island,2017-04-06,17:02
110472,Serapias parviflora,species,Small-Flowered Serapias,2,14.48,35.93,Europe,Malta,Malta - Malta Island,2017-04-06,17:03
4206,Apus pallidus,species,Pallid Swift,1,14.51116651,35.89419449,Europe,Malta,Malta - Malta Island,2017-04-04,13:00
4209,Sylvia melanocephala,species,Sardinian Warbler,1,14.51116651,35.89419449,Europe,Malta,Malta - Malta Island,2017-04-04,13:00
21153,Tordylium apulum,species,Mediterranean hartwort,1,14.4876118,35.81431626,Europe,Malta,Malta - Malta Island,2017-04-04,10:15
36256,Cerinthe major,species,Greater Honeywort,100,14.4392252,35.82717245,Europe,Malta,Malta - Malta Island,2017-04-02,12:30
36453,Erica multiflora,species,,1,14.4392252,35.82717245,Europe,Malta,Malta - Malta Island,2017-04-02,12:37
41056,Nigella damascena,species,Love-in-a-mist,100,14.43869233,35.82704799,Europe,Malta,Malta - Malta Island,2017-04-02,12:29
44077,Crataegus monogyna,species,Hawthorn,1,14.43876654,35.82698398,Europe,Malta,Malta - Malta Island,2017-04-02,12:29
84556,Macroglossum stellatarum,species,Humming-bird Hawk Moth,1,14.3428,35.9724,Europe,Malta,Malta - Malta Island,2016-12-10,14:46
84557,Pieris rapae,species,Small White,1,14.349,35.9721,Europe,Malta,Malta - Ghadir Natural reserve,2016-12-10,14:07
84558,Macroglossum stellatarum,species,Humming-bird Hawk Moth,2,14.4201,35.9448,Europe,Malta,Malta - Malta Island,2016-12-09,16:31
84559,Vanessa cardui,species,Painted Lady,1,14.4536,35.9316,Europe,Malta,Malta - Malta Island,2016-12-06,13:02
84560,Pieris rapae,species,Small White,2,14.3839,35.9449,Europe,Malta,Malta - Simar Natural reserve,2016-12-04,13:48
84561,Vanessa atalanta,species,Red Admiral,1,14.3799,35.9457,Europe,Malta,Malta - Malta Island,2016-12-04,13:37
84562,Pieris rapae,species,Small White,1,14.3825,35.9465,Europe,Malta,Malta - Simar Natural reserve,2016-12-04,12:36
59123,Chalcides ocellatus,species,Ocellated Skink,1,14.48733334,35.90174108,Europe,Malta,Malta - Malta Island,2016-09-23,
59205,Discoglossus pictus,species,Painted Frog,1,14.40319204,35.89911652,Europe,Malta,Malta - Malta Island,2016-09-26,
59209,Eristalinus taeniops,species,Band-eyed Drone fly,1,14.207635,36.048558333333,Europe,Malta,Malta - Gozo Island,2016-09-24,09:30
59210,Cicada orni,species,,1,14.261593333333,36.036925,Europe,Malta,Malta - Gozo Island,2016-09-24,11:15
59213,Podarcis filfolensis,species,Maltese Wall Lizard,1,14.189928333333,36.05155,Europe,Malta,Malta - Gozo Island,2016-09-24,11:48
59224,Cacyreus marshalli,species,Geranium Bronze,1,14.541588333333,35.876068333333,Europe,Malta,Malta - Malta Island,2016-09-26,10:47
59233,Hemidactylus turcicus,species,Mediterranean House Gecko,1,14.335796666667,35.896093333333,Europe,Malta,Malta - Malta Island,2016-09-25,22:14
59269,Tarentola mauritanica,species,Moorish Gecko,1,14.537435,35.859975,Europe,Malta,Malta - Malta Island,2016-09-26,12:25
59277,Chalcides ocellatus,species,Ocellated Skink,1,14.338308333333,35.894815,Europe,Malta,Malta - Malta Island,2016-09-25,21:31
59279,Chamaeleo chamaeleon,species,Common Chameleon,1,14.483353333333,35.904631666667,Europe,Malta,Malta - Malta Island,2016-09-23,22:39
20602,Polistes dominula/nimpha/foederatus/gallicus/mongolicus,multispecies,,101,14.34941322,35.93309543,Europe,Malta,Malta - Malta Island,2016-10-25,
20622,Polistes dominula/nimpha/foederatus/gallicus/mongolicus,multispecies,,101,14.38144147,35.94492972,Europe,Malta,Malta - Simar Natural reserve,2016-10-26,
13993,Acrotylus patruelis,species,Slender Burrowing Grasshopper,101,14.383075904807,35.944644636631,Europe,Malta,Malta - Malta Island,2016-10-26,
14164,Eyprepocnemis plorans,species,,2,14.380719074643,35.944668139929,Europe,Malta,Malta - Malta Island,2016-10-26,
14196,Eyprepocnemis plorans,species,,11,14.344680029062,35.932932063977,Europe,Malta,Malta - Malta Island,2016-10-25,
15248,Passer hispaniolensis,species,Spanish Sparrow,1,14.4960817694664,35.8499176964331,Europe,Malta,Malta - Malta Island,2016-10-26,13:30
15249,Passer hispaniolensis,species,Spanish Sparrow,1,14.3845106,35.9485385,Europe,Malta,Malta - Malta Island,2016-10-27,09:30
15251,Larus michahellis,species,Yellow-legged Gull,1,14.38321473,35.94751819,Europe,Malta,Malta - Malta Island,2016-10-28,14:17
15252,Passer hispaniolensis,species,Spanish Sparrow,1,14.38321473,35.94751819,Europe,Malta,Malta - Malta Island,2016-10-28,14:17
15253,Saxicola rubicola,species,European Stonechat,6,14.35756442,35.98905631,Europe,Malta,Malta - Malta Island,2016-10-28,16:25
15254,Erithacus rubecula,species,European Robin,1,14.35787026,35.98922246,Europe,Malta,Malta - Malta Island,2016-10-28,16:26
15255,Passer hispaniolensis,species,Spanish Sparrow,1,14.3830226361752,35.9465892479836,Europe,Malta,Malta - Malta Island,2016-10-29,07:45
15257,Chroicocephalus ridibundus,species,Black-headed Gull,1,14.3845270201564,35.947146487034,Europe,Malta,Malta - Malta Island,2016-10-29,12:31
15260,Chroicocephalus ridibundus,species,Black-headed Gull,14,14.3850433453918,35.9477422643312,Europe,Malta,Malta - Malta Island,2016-10-29,13:18
15262,Passer hispaniolensis,species,Spanish Sparrow,1,14.3818277,35.94644786,Europe,Malta,Malta - Simar Natural reserve,2016-10-30,10:04
15263,Erithacus rubecula,species,European Robin,1,14.38191265,35.94632241,Europe,Malta,Malta - Simar Natural reserve,2016-10-30,10:10
15265,Egretta garzetta,species,Little Egret,4,14.38192641,35.94627786,Europe,Malta,Malta - Simar Natural reserve,2016-10-30,10:28
15267,Erithacus rubecula,species,European Robin,1,14.3819264,35.9462777,Europe,Malta,Malta - Simar Natural reserve,2016-10-30,10:29
15268,Alcedo atthis,species,Common Kingfisher,2,14.38192672,35.94627768,Europe,Malta,Malta - Simar Natural reserve,2016-10-30,10:29
15270,Gallinula chloropus,species,Common Moorhen,1,14.38188252,35.9462936,Europe,Malta,Malta - Simar Natural reserve,2016-10-30,10:32
15274,Saxicola rubicola,species,European Stonechat,1,14.38190151,35.94627558,Europe,Malta,Malta - Simar Natural reserve,2016-10-30,10:50
15275,Sylvia melanocephala,species,Sardinian Warbler,1,14.38190433,35.94627101,Europe,Malta,Malta - Simar Natural reserve,2016-10-30,11:01
15276,Sylvia melanocephala,species,Sardinian Warbler,1,14.38242753,35.94592024,Europe,Malta,Malta - Simar Natural reserve,2016-10-30,11:08
15277,Sylvia melanocephala,species,Sardinian Warbler,1,14.38249357,35.94588538,Europe,Malta,Malta - Simar Natural reserve,2016-10-30,11:09
15280,Alcedo atthis,species,Common Kingfisher,3,14.3816487,35.94504618,Europe,Malta,Malta - Simar Natural reserve,2016-10-30,11:19
15282,Saxicola rubicola,species,European Stonechat,2,14.38084396,35.9448962,Europe,Malta,Malta - Simar Natural reserve,2016-10-30,11:41
15283,Chroicocephalus ridibundus,species,Black-headed Gull,50,14.38425679,35.94838912,Europe,Malta,Malta - Malta Island,2016-10-31,10:23
15285,Chroicocephalus ridibundus,species,Black-headed Gull,60,14.38855868,35.95132451,Europe,Malta,Malta - Malta Island,2016-10-31,12:10
15287,Sylvia melanocephala,species,Sardinian Warbler,2,14.38811603,35.95373176,Europe,Malta,Malta - Malta Island,2016-10-31,12:31
15288,Saxicola rubicola,species,European Stonechat,1,14.38897822,35.95410102,Europe,Malta,Malta - Malta Island,2016-10-31,12:35
15289,Erithacus rubecula,species,European Robin,1,14.38749823,35.95699936,Europe,Malta,Malta - Malta Island,2016-10-31,12:57
15290,Sylvia melanocephala,species,Sardinian Warbler,2,14.38749854,35.95699961,Europe,Malta,Malta - Malta Island,2016-10-31,12:58
15291,Saxicola rubicola,species,European Stonechat,2,14.38693098,35.95611211,Europe,Malta,Malta - Malta Island,2016-10-31,13:01
15292,Passer hispaniolensis,species,Spanish Sparrow,1,14.38640654,35.95539991,Europe,Malta,Malta - Malta Island,2016-10-31,13:04
15293,Saxicola rubicola,species,European Stonechat,3,14.38640671,35.95539958,Europe,Malta,Malta - Malta Island,2016-10-31,13:05
15294,Erithacus rubecula,species,European Robin,10,14.38511557,35.9543592,Europe,Malta,Malta - Malta Island,2016-10-31,13:08
15297,Sylvia melanocephala,species,Sardinian Warbler,2,14.37416656,35.95250297,Europe,Malta,Malta - Malta Island,2016-10-31,14:27
15298,Erithacus rubecula,species,European Robin,1,14.37416615,35.95250289,Europe,Malta,Malta - Malta Island,2016-10-31,14:27
15299,Erithacus rubecula,species,European Robin,1,14.26894106,36.05870991,Europe,Malta,Malta - Gozo Island,2016-11-01,09:51
15302,Sylvia melanocephala,species,Sardinian Warbler,1,14.26894027,36.0587101,Europe,Malta,Malta - Gozo Island,2016-11-01,09:53
15303,Sylvia melanocephala,species,Sardinian Warbler,1,14.27446057,36.06041104,Europe,Malta,Malta - Gozo Island,2016-11-01,14:14
15305,Monticola solitarius,species,Blue Rock Thrush,1,14.2796204611659,36.0595593234273,Europe,Malta,Malta - Gozo Island,2016-11-01,14:20
45009,Erithacus rubecula,species,European Robin,1,14.402713625476,35.8839415351199,Europe,Malta,Malta - Malta Island,2016-11-03,13:35
76620,Colias crocea,species,Clouded Yellow,1,14.419219636839,35.956875665436,Europe,Malta,Malta - Malta Island,2016-10-28,
76724,Leptotes pirithous,species,Lang’s Short-tailed Blue,1,14.381378924991,35.944957599952,Europe,Malta,Malta - Simar Natural reserve,2016-10-26,
81819,Chroicocephalus ridibundus,species,Black-headed Gull,21,14.387655401151,35.946879110473,Europe,Malta,Malta - Malta Island,2016-10-26,
81875,Cisticola juncidis,species,Zitting Cisticola,1,14.380284583549,35.94528794879,Europe,Malta,Malta - Simar Natural reserve,2016-10-26,
81942,Passer hispaniolensis,species,Spanish Sparrow,15,14.419935652732,35.957029345673,Europe,Malta,Malta - Malta Island,2016-10-28,
82005,Passer hispaniolensis,species,Spanish Sparrow,2,14.379848697777,35.945833292919,Europe,Malta,Malta - Malta Island,2016-10-26,
82245,Eristalinus aeneus,species,,1,14.415943640543,35.953533225736,Europe,Malta,Malta - Malta Island,2016-10-23,
90010,Podarcis filfolensis,species,Maltese Wall Lizard,1,14.419097972041,35.956755991927,Europe,Malta,Malta - Malta Island,2016-10-28,
90036,Podarcis filfolensis,species,Maltese Wall Lizard,1,14.419927606104,35.956998641184,Europe,Malta,Malta - Malta Island,2016-10-28,
90054,Podarcis filfolensis,species,Maltese Wall Lizard,1,14.422193187384,35.958148178119,Europe,Malta,Malta - Malta Island,2016-10-28,
90096,Podarcis filfolensis,species,Maltese Wall Lizard,1,14.324117758865,36.014544244649,Europe,Malta,Malta - Comino Island,2016-10-27,
90229,Podarcis filfolensis,species,Maltese Wall Lizard,26,14.419759511948,35.954700368399,Europe,Malta,Malta - Malta Island,2016-10-25,
90272,Podarcis filfolensis,species,Maltese Wall Lizard,6,14.457667627926,35.939036007944,Europe,Malta,Malta - Malta Island,2016-10-24,
90494,Podarcis filfolensis,species,Maltese Wall Lizard,4,14.416008067092,35.953527659536,Europe,Malta,Malta - Malta Island,2016-10-23,
91715,Chroicocephalus ridibundus,species,Black-headed Gull,3,14.41549662366,35.954794970956,Europe,Malta,Malta - Malta Island,2016-10-22,
92045,Pieris rapae,species,Small White,1,14.348638513679,35.934097463153,Europe,Malta,Malta - Malta Island,2016-10-25,12:01
121505,Sylvia melanocephala,species,Sardinian Warbler,1,14.41972851,35.95715796,Europe,Malta,Malta - Malta Island,2016-10-28,14:06
2301,Pieris rapae,species,Small White,2,14.40263066,35.949581,Europe,Malta,Malta - Malta Island,2016-10-26,09:54
2302,Cacyreus marshalli,species,Geranium Bronze,1,14.40274398,35.9496261,Europe,Malta,Malta - Malta Island,2016-10-26,09:56
2304,Gallinula chloropus,species,Common Moorhen,2,14.38273659,35.94633545,Europe,Malta,Malta - Simar Natural reserve,2016-10-26,10:46
2307,Saxicola rubicola,species,European Stonechat,1,14.38325252,35.94507046,Europe,Malta,Malta - Simar Natural reserve,2016-10-26,11:15
2309,Erithacus rubecula,species,European Robin,1,14.38325264,35.9450692,Europe,Malta,Malta - Simar Natural reserve,2016-10-26,11:15
2310,Sylvia melanocephala,species,Sardinian Warbler,1,14.38324994,35.94505912,Europe,Malta,Malta - Simar Natural reserve,2016-10-26,11:18
2312,Danaus chrysippus,species,African Monarch,1,14.383320491164,35.944964569699,Europe,Malta,Malta - Malta Island,2016-10-26,11:22
2314,Anax imperator,species,Blue Emperor,1,14.38342417,35.94505583,Europe,Malta,Malta - Malta Island,2016-10-26,11:27
2315,Pontia edusa,species,Eastern Bath White,10,14.38408821,35.94427584,Europe,Malta,Malta - Malta Island,2016-10-26,11:53
2316,Pieris rapae,species,Small White,5,14.38408798,35.94427571,Europe,Malta,Malta - Malta Island,2016-10-26,11:53
2318,Sympetrum fonscolombii,species,Red-veined Darter,2,14.38410432,35.94422218,Europe,Malta,Malta - Malta Island,2016-10-26,12:00
2319,Vanessa cardui,species,Painted Lady,1,14.38423656,35.94470768,Europe,Malta,Malta - Malta Island,2016-10-26,12:17
2320,Vanessa atalanta,species,Red Admiral,1,14.38097018,35.94482546,Europe,Malta,Malta - Malta Island,2016-10-26,12:56
2321,Pontia edusa,species,Eastern Bath White,1,14.42356218,35.94560996,Europe,Malta,Malta - Salina Saltpans,2016-10-26,15:10
2322,Phalacrocorax carbo,species,Great Cormorant,1,14.422768294968,35.946261428911,Europe,Malta,Malta - Salina Saltpans,2016-10-26,15:10
2324,Alcedo atthis,species,Common Kingfisher,1,14.42489723,35.9475637,Europe,Malta,Malta - Salina Saltpans,2016-10-26,15:29
2325,Vanessa cardui,species,Painted Lady,2,14.4248047,35.94758853,Europe,Malta,Malta - Salina Saltpans,2016-10-26,15:31
2326,Pontia edusa,species,Eastern Bath White,2,14.42481052,35.9475957,Europe,Malta,Malta - Salina Saltpans,2016-10-26,15:32
2328,Saxicola rubicola,species,European Stonechat,1,14.42141831,35.94289384,Europe,Malta,Malta - Malta Island,2016-10-26,16:27
2329,Passer hispaniolensis,species,Spanish Sparrow,20,14.42141812,35.94289342,Europe,Malta,Malta - Malta Island,2016-10-26,16:28
2330,Erithacus rubecula,species,European Robin,1,14.42141986,35.94289278,Europe,Malta,Malta - Malta Island,2016-10-26,16:28
2331,Actitis hypoleucos,species,Common Sandpiper,1,14.420186136959,35.943124076176,Europe,Malta,Malta - Salina Saltpans,2016-10-26,17:16
2333,Erithacus rubecula,species,European Robin,1,14.324420672718,36.013878496775,Europe,Malta,Malta - Comino Island,2016-10-27,12:02
17500,Pontia edusa,species,Eastern Bath White,1,14.41659836,35.95369712,Europe,Malta,Malta - Malta Island,2016-10-23,13:16
17501,Vanessa cardui,species,Painted Lady,2,14.45777788,35.93881693,Europe,Malta,Malta - Malta Island,2016-10-24,10:16
17502,Passer hispaniolensis,species,Spanish Sparrow,2,14.45750916,35.93881098,Europe,Malta,Malta - Malta Island,2016-10-24,10:22
17503,Erithacus rubecula,species,European Robin,1,14.45751934,35.93880906,Europe,Malta,Malta - Malta Island,2016-10-24,10:22
17504,Erithacus rubecula,species,European Robin,1,14.34970521,35.93311741,Europe,Malta,Malta - Malta Island,2016-10-25,11:16
17505,Sturnus vulgaris,species,Common Starling,10,14.348398206533,35.932753879349,Europe,Malta,Malta - Malta Island,2016-10-25,11:31
17506,Saxicola rubicola,species,European Stonechat,1,14.34868283,35.93412565,Europe,Malta,Malta - Malta Island,2016-10-25,12:01
17507,Sylvia melanocephala,species,Sardinian Warbler,1,14.34845948,35.93342254,Europe,Malta,Malta - Malta Island,2016-10-25,12:36
17508,Vanessa atalanta,species,Red Admiral,1,14.34830912,35.93397622,Europe,Malta,Malta - Malta Island,2016-10-25,12:38
17509,Erithacus rubecula,species,European Robin,10,14.348249232684,35.936060090036,Europe,Malta,Malta - Malta Island,2016-10-25,12:48
17510,Erithacus rubecula,species,European Robin,1,14.344577,35.93305873,Europe,Malta,Malta - Malta Island,2016-10-25,14:53
17511,Pieris rapae,species,Small White,1,14.34469668266,35.933027855925,Europe,Malta,Malta - Malta Island,2016-10-25,14:58
17512,Pontia edusa,species,Eastern Bath White,10,14.344670367434,35.93295626359,Europe,Malta,Malta - Malta Island,2016-10-25,15:13
17513,Sympetrum fonscolombii,species,Red-veined Darter,1,14.34464937,35.93302801,Europe,Malta,Malta - Malta Island,2016-10-25,15:39
17514,Anacridium aegyptium,species,Egyptian Grasshopper,1,14.344684505968,35.93304653018,Europe,Malta,Malta - Malta Island,2016-10-25,16:26
5616,Passer hispaniolensis,species,Spanish Sparrow,1,14.4014397215134,35.8855737511584,Europe,Malta,Malta - Malta Island,2016-08-19,12:33
5617,Sylvia melanocephala,species,Sardinian Warbler,1,14.42419781677,35.951910897099,Europe,Malta,Malta - Malta Island,2016-08-15,
5622,Podarcis filfolensis,species,Maltese Wall Lizard,3,14.4202572722593,35.9543721109882,Europe,Malta,Malta - Malta Island,2016-08-15,08:36
5627,Crocothemis erythraea,species,Broad Scarlet,1,14.4206861026301,35.9451037690815,Europe,Malta,Malta - Malta Island,2016-08-14,08:53
5634,Anax imperator,species,Blue Emperor,1,14.421415614925,35.945960510312,Europe,Malta,Malta - Malta Island,2016-08-30,
5635,Larus michahellis,species,Yellow-legged Gull,2,14.3732083125384,35.9965148310955,Europe,Malta,Malta - Malta Island,2016-08-22,17:01
5643,Alcedo atthis,species,Common Kingfisher,1,14.3816077869936,35.9450084241843,Europe,Malta,Malta - Malta Island,2016-08-23,09:10
5654,Lampides boeticus,species,Long-tailed Blue,1,14.3484903264219,35.9702731417797,Europe,Malta,Malta - Malta Island,2016-08-25,08:06
5661,Calonectris diomedea,species,Scopoli's Shearwater,2,14.4321865215898,35.9625440554539,Europe,Malta,Malta - Malta Island,2016-08-24,12:11
5665,Crocothemis erythraea,species,Broad Scarlet,2,14.345429835439,35.9697984386514,Europe,Malta,Malta - Malta Island,2016-08-25,11:12
5766,Chamaeleo chamaeleon,species,Common Chameleon,1,14.34107809182,35.972580641957,Europe,Malta,Malta - Malta Island,2016-08-26,
24685,Mullus surmuletus,species,Red mullet,3,14.425184950233,35.951989659854,Europe,Malta,Malta - Malta Island,2016-08-21,
24893,Pancratium maritimum,species,Sea Daffodil,1,14.34,35.96,Europe,Malta,Malta - Ghadir Natural reserve,2016-08-25,
25185,Pancratium maritimum,species,Sea Daffodil,11,14.34,35.93,Europe,Malta,Malta - Malta Island,2016-08-19,10:50
32481,Cacyreus marshalli,species,Geranium Bronze,2,14.4242924435839,35.9517409370582,Europe,Malta,Malta - Malta Island,2016-08-27,13:07
32482,Egretta garzetta,species,Little Egret,1,14.4218507296169,35.9485479163827,Europe,Malta,Malta - Malta Island,2016-08-27,13:14
32483,Passer hispaniolensis,species,Spanish Sparrow,1,14.4139288250183,35.9116294180925,Europe,Malta,Malta - Malta Island,2016-08-27,13:23
32484,Passer hispaniolensis,species,Spanish Sparrow,1,14.4460495799368,35.8750532042524,Europe,Malta,Malta - Malta Island,2016-08-27,13:30
32485,Cisticola juncidis,species,Zitting Cisticola,1,14.446799460369,35.874803440179,Europe,Malta,Malta - Malta Island,2016-08-27,13:30
32486,Passer hispaniolensis,species,Spanish Sparrow,1,14.4510417572788,35.8734740781149,Europe,Malta,Malta - Malta Island,2016-08-27,13:31
32487,Passer hispaniolensis,species,Spanish Sparrow,1,14.4749216357957,35.8754147435298,Europe,Malta,Malta - Malta Island,2016-08-27,13:33
32488,Passer hispaniolensis,species,Spanish Sparrow,2,14.488203912,35.855910126257,Europe,Malta,Malta - Malta Island,2016-08-27,13:37
45123,Himantopus himantopus,species,Black-winged Stilt,1,14.348949768117,35.970186303488,Europe,Malta,Malta - Ghadir Natural reserve,2016-08-25,11:15
45131,Passer hispaniolensis,species,Spanish Sparrow,5,14.424505345523,35.950539371898,Europe,Malta,Malta - Malta Island,2016-08-17,18:06
45593,Zizeeria karsandra,species,Dark Grass Blue,10,14.4198367324375,35.9442930155495,Europe,Malta,Malta - Malta Island,2016-08-16,12:01
50720,Passer hispaniolensis,species,Spanish Sparrow,5,14.3496202814159,35.9693401523294,Europe,Malta,Malta - Malta Island,2016-08-26,07:29
50721,Cisticola juncidis,species,Zitting Cisticola,1,14.349642321072,35.9693458319124,Europe,Malta,Malta - Malta Island,2016-08-26,07:30
50722,Sylvia melanocephala,species,Sardinian Warbler,1,14.349642321072,35.9693458319124,Europe,Malta,Malta - Malta Island,2016-08-26,07:30
50723,Cisticola juncidis,species,Zitting Cisticola,1,14.345403581145,35.9720511267794,Europe,Malta,Malta - Malta Island,2016-08-26,07:43
50724,Gallinula chloropus,species,Common Moorhen,1,14.3444796325924,35.9715497941628,Europe,Malta,Malta - Malta Island,2016-08-26,07:47
50725,Passer hispaniolensis,species,Spanish Sparrow,3,14.3444853024257,35.9715471750254,Europe,Malta,Malta - Malta Island,2016-08-26,07:47
50726,Sylvia melanocephala,species,Sardinian Warbler,1,14.3444977121765,35.9715342476953,Europe,Malta,Malta - Malta Island,2016-08-26,07:47
50727,Passer hispaniolensis,species,Spanish Sparrow,5,14.3432456125279,35.970775480758,Europe,Malta,Malta - Malta Island,2016-08-26,07:52
50728,Cisticola juncidis,species,Zitting Cisticola,1,14.3422518265527,35.9704252844672,Europe,Malta,Malta - Malta Island,2016-08-26,07:54
50729,Sylvia melanocephala,species,Sardinian Warbler,2,14.3421728225108,35.9704005120568,Europe,Malta,Malta - Malta Island,2016-08-26,07:54
50730,Passer hispaniolensis,species,Spanish Sparrow,6,14.3411396052949,35.9700960870499,Europe,Malta,Malta - Malta Island,2016-08-26,07:55
50731,Cisticola juncidis,species,Zitting Cisticola,1,14.3404381426685,35.9701742622221,Europe,Malta,Malta - Malta Island,2016-08-26,07:58
50732,Monticola solitarius,species,Blue Rock Thrush,2,14.3403914006083,35.9701909421603,Europe,Malta,Malta - Malta Island,2016-08-26,07:58
50733,Passer hispaniolensis,species,Spanish Sparrow,15,14.33945094588,35.9703604595078,Europe,Malta,Malta - Malta Island,2016-08-26,08:02
50734,Sylvia melanocephala,species,Sardinian Warbler,3,14.3380277096598,35.9705482237623,Europe,Malta,Malta - Malta Island,2016-08-26,08:06
50735,Passer hispaniolensis,species,Spanish Sparrow,8,14.3361304528899,35.9710692174837,Europe,Malta,Malta - Malta Island,2016-08-26,08:15
50736,Sylvia melanocephala,species,Sardinian Warbler,2,14.335982359426,35.9711837288991,Europe,Malta,Malta - Malta Island,2016-08-26,08:17
50737,Macroglossum stellatarum,species,Humming-bird Hawk Moth,1,14.3349734132021,35.9712200999872,Europe,Malta,Malta - Malta Island,2016-08-26,08:22
50738,Circus aeruginosus,species,Western Marsh Harrier,1,14.3341316423304,35.9711833974028,Europe,Malta,Malta - Malta Island,2016-08-26,08:25
50739,Larus michahellis,species,Yellow-legged Gull,15,14.333939650338,35.9712314489504,Europe,Malta,Malta - Malta Island,2016-08-26,08:26
50740,Sylvia melanocephala,species,Sardinian Warbler,1,14.3335374564905,35.9716006297368,Europe,Malta,Malta - Malta Island,2016-08-26,08:31
50741,Monticola solitarius,species,Blue Rock Thrush,2,14.3315193966198,35.9718843391165,Europe,Malta,Malta - Malta Island,2016-08-26,08:39
50742,Circus aeruginosus,species,Western Marsh Harrier,2,14.3316660101764,35.9718381273631,Europe,Malta,Malta - Malta Island,2016-08-26,08:46
50743,Sylvia melanocephala,species,Sardinian Warbler,1,14.330957837632,35.9720819739857,Europe,Malta,Malta - Malta Island,2016-08-26,08:55
50744,Pieris rapae,species,Small White,1,14.3307980728017,35.9720045230818,Europe,Malta,Malta - Malta Island,2016-08-26,08:58
50745,Oenanthe oenanthe,species,Northern Wheatear,1,14.3308700656022,35.971601980139,Europe,Malta,Malta - Malta Island,2016-08-26,09:06
50746,Passer hispaniolensis,species,Spanish Sparrow,2,14.331145486592,35.9713644114819,Europe,Malta,Malta - Malta Island,2016-08-26,09:09
50747,Ardea purpurea,species,Purple Heron,20,14.3348452231313,35.9713510834713,Europe,Malta,Malta - Malta Island,2016-08-26,09:20
50748,Monticola solitarius,species,Blue Rock Thrush,5,14.3363041103377,35.97090210616,Europe,Malta,Malta - Malta Island,2016-08-26,09:30
50749,Passer hispaniolensis,species,Spanish Sparrow,2,14.3362982433485,35.9708957362861,Europe,Malta,Malta - Malta Island,2016-08-26,09:30
50750,Oenanthe oenanthe,species,Northern Wheatear,1,14.3364682240445,35.9706572046964,Europe,Malta,Malta - Malta Island,2016-08-26,09:32
50751,Anax imperator,species,Blue Emperor,2,14.3401774692088,35.9722525253564,Europe,Malta,Malta - Malta Island,2016-08-26,09:49
50752,Sylvia melanocephala,species,Sardinian Warbler,1,14.3404548256754,35.9723526124532,Europe,Malta,Malta - Malta Island,2016-08-26,09:50
50753,Chamaeleo chamaeleon,species,Common Chameleon,1,14.344846268551,35.97413550885,Europe,Malta,Malta - Malta Island,2016-08-26,10:08
50754,Passer hispaniolensis,species,Spanish Sparrow,1,14.3461421956387,35.9769258703995,Europe,Malta,Malta - Malta Island,2016-08-26,10:21
50755,Cisticola juncidis,species,Zitting Cisticola,1,14.3457694686997,35.9771078365765,Europe,Malta,Malta - Malta Island,2016-08-26,10:28
50756,Passer hispaniolensis,species,Spanish Sparrow,1,14.4232680853013,35.9510505159664,Europe,Malta,Malta - Malta Island,2016-08-26,11:15
50757,Podarcis filfolensis,species,Maltese Wall Lizard,1,14.4233240751976,35.9510102788263,Europe,Malta,Malta - Malta Island,2016-08-26,11:15
50758,Sylvia melanocephala,species,Sardinian Warbler,1,14.4236210597392,35.9510285209432,Europe,Malta,Malta - Malta Island,2016-08-26,11:15
50759,Larus michahellis,species,Yellow-legged Gull,1,14.4340218231082,35.966100588028,Europe,Malta,Malta - Malta Island,2016-08-26,15:45
50760,Podarcis filfolensis,species,Maltese Wall Lizard,2,14.4238953823823,35.9520894101131,Europe,Malta,Malta - Malta Island,2016-08-26,16:10
50761,Cisticola juncidis,species,Zitting Cisticola,1,14.4110699528371,35.9411065016682,Europe,Malta,Malta - Malta Island,2016-08-26,16:29
50762,Passer hispaniolensis,species,Spanish Sparrow,3,14.41153513392,35.93788853155,Europe,Malta,Malta - Malta Island,2016-08-26,16:30
50763,Sylvia melanocephala,species,Sardinian Warbler,1,14.5129559100841,35.8984034002086,Europe,Malta,Malta - Malta Island,2016-08-26,18:02
53739,Passer hispaniolensis,species,Spanish Sparrow,2,14.42426457,35.95144323,Europe,Malta,Malta - Malta Island,2016-08-13,17:22
53740,Calonectris diomedea,species,Scopoli's Shearwater,1,14.42428277,35.95142427,Europe,Malta,Malta - Malta Island,2016-08-13,17:31
53741,Larus michahellis,species,Yellow-legged Gull,1,14.42267718,35.94822386,Europe,Malta,Malta - Malta Island,2016-08-14,07:26
53742,Podiceps nigricollis,species,Black-necked Grebe,1,14.42267656,35.94822312,Europe,Malta,Malta - Malta Island,2016-08-14,07:26
53743,Egretta garzetta,species,Little Egret,1,14.42267659,35.94822286,Europe,Malta,Malta - Malta Island,2016-08-14,07:26
53744,Passer hispaniolensis,species,Spanish Sparrow,5,14.42267661,35.94822187,Europe,Malta,Malta - Malta Island,2016-08-14,07:26
53745,Cisticola juncidis,species,Zitting Cisticola,1,14.42156511,35.94619176,Europe,Malta,Malta - Malta Island,2016-08-14,07:36
53746,Cisticola juncidis,species,Zitting Cisticola,1,14.4215648,35.94619187,Europe,Malta,Malta - Malta Island,2016-08-14,07:36
53747,Actitis hypoleucos,species,Common Sandpiper,1,14.42028686,35.9437474,Europe,Malta,Malta - Malta Island,2016-08-14,08:01
53748,Calidris minuta,species,Little Stint,1,14.42048103,35.94302558,Europe,Malta,Malta - Malta Island,2016-08-14,08:24
53749,Bubulcus ibis,species,Western Cattle Egret,2,14.42049565,35.94304346,Europe,Malta,Malta - Malta Island,2016-08-14,08:26
53750,Sylvia melanocephala,species,Sardinian Warbler,1,14.41954512,35.94453211,Europe,Malta,Malta - Malta Island,2016-08-14,08:46
53751,Podarcis filfolensis,species,Maltese Wall Lizard,10,14.42386851,35.95231504,Europe,Malta,Malta - Malta Island,2016-08-14,17:03
53752,Alcedo atthis,species,Common Kingfisher,1,14.38063539,35.94470003,Europe,Malta,Malta - Malta Island,2016-08-15,07:55
53753,Leptotes pirithous,species,Lang’s Short-tailed Blue,1,14.42409338,35.95209069,Europe,Malta,Malta - Malta Island,2016-08-15,09:29
53754,Leptotes pirithous,species,Lang’s Short-tailed Blue,1,14.42409441,35.95209033,Europe,Malta,Malta - Malta Island,2016-08-15,09:29
53755,Cacyreus marshalli,species,Geranium Bronze,1,14.42409449,35.95209034,Europe,Malta,Malta - Malta Island,2016-08-15,09:29
53756,Bubulcus ibis,species,Western Cattle Egret,1,14.42378536,35.94926533,Europe,Malta,Malta - Malta Island,2016-08-15,13:44
53757,Actitis hypoleucos,species,Common Sandpiper,1,14.42378509,35.94926519,Europe,Malta,Malta - Malta Island,2016-08-15,13:44
53758,Egretta garzetta,species,Little Egret,2,14.42376863,35.94927215,Europe,Malta,Malta - Malta Island,2016-08-15,13:45
53759,Passer hispaniolensis,species,Spanish Sparrow,1,14.42282111,35.94848663,Europe,Malta,Malta - Malta Island,2016-08-15,13:48
53760,Bubulcus ibis,species,Western Cattle Egret,2,14.42275719,35.94842187,Europe,Malta,Malta - Malta Island,2016-08-15,13:49
53761,Cisticola juncidis,species,Zitting Cisticola,1,14.42043832,35.94497543,Europe,Malta,Malta - Malta Island,2016-08-15,15:15
53762,Calonectris diomedea,species,Scopoli's Shearwater,9,14.42425223,35.95145029,Europe,Malta,Malta - Malta Island,2016-08-15,19:01
53763,Actitis hypoleucos,species,Common Sandpiper,4,14.42352623,35.94895309,Europe,Malta,Malta - Malta Island,2016-08-16,11:15
53764,Egretta garzetta,species,Little Egret,2,14.42352609,35.94895301,Europe,Malta,Malta - Malta Island,2016-08-16,11:16
53765,Podiceps nigricollis,species,Black-necked Grebe,1,14.42273987,35.948266,Europe,Malta,Malta - Malta Island,2016-08-16,11:19
53766,Pieris rapae,species,Small White,1,14.42151641,35.94606211,Europe,Malta,Malta - Malta Island,2016-08-16,11:26
53767,Anax imperator,species,Blue Emperor,1,14.42151655,35.94606304,Europe,Malta,Malta - Malta Island,2016-08-16,11:26
53768,Pontia edusa,species,Eastern Bath White,1,14.41980139,35.94393328,Europe,Malta,Malta - Malta Island,2016-08-16,11:46
53769,Alcedo atthis,species,Common Kingfisher,1,14.42170382,35.94696901,Europe,Malta,Malta - Malta Island,2016-08-16,12:52
53770,Vanessa atalanta,species,Red Admiral,1,14.42205605,35.94693029,Europe,Malta,Malta - Malta Island,2016-08-16,12:54
53771,Actitis hypoleucos,species,Common Sandpiper,6,14.42368889,35.94912103,Europe,Malta,Malta - Malta Island,2016-08-16,13:06
53772,Egretta garzetta,species,Little Egret,3,14.42367023,35.94911716,Europe,Malta,Malta - Malta Island,2016-08-16,13:07
53773,Calidris minuta,species,Little Stint,1,14.42372484,35.9491632,Europe,Malta,Malta - Malta Island,2016-08-16,13:10
53774,Podiceps nigricollis,species,Black-necked Grebe,1,14.42277892,35.94841221,Europe,Malta,Malta - Malta Island,2016-08-17,07:37
53775,Egretta garzetta,species,Little Egret,1,14.42265795,35.94820674,Europe,Malta,Malta - Malta Island,2016-08-17,07:38
53776,Actitis hypoleucos,species,Common Sandpiper,2,14.42265973,35.94820593,Europe,Malta,Malta - Malta Island,2016-08-17,07:39
53777,Passer hispaniolensis,species,Spanish Sparrow,5,14.42265619,35.9482158,Europe,Malta,Malta - Malta Island,2016-08-17,07:39
53778,Sylvia melanocephala,species,Sardinian Warbler,1,14.4217742,35.94653622,Europe,Malta,Malta - Malta Island,2016-08-17,07:44
53779,Cisticola juncidis,species,Zitting Cisticola,1,14.42177409,35.946536,Europe,Malta,Malta - Malta Island,2016-08-17,07:45
53780,Lanius senator,species,Woodchat Shrike,1,14.42119138,35.94108705,Europe,Malta,Malta - Malta Island,2016-08-17,08:25
53781,Bubulcus ibis,species,Western Cattle Egret,1,14.42277283,35.94364439,Europe,Malta,Malta - Malta Island,2016-08-17,08:51
53782,Larus michahellis,species,Yellow-legged Gull,1,14.42305585,35.94876164,Europe,Malta,Malta - Malta Island,2016-08-17,09:33
53783,Calidris minuta,species,Little Stint,2,14.42369575,35.94914828,Europe,Malta,Malta - Malta Island,2016-08-17,09:36
53784,Ichthyaetus audouinii,species,Audouin's Gull,1,14.42425792,35.95147171,Europe,Malta,Malta - Malta Island,2016-08-19,16:45
53785,Actitis hypoleucos,species,Common Sandpiper,2,14.42364961,35.94909033,Europe,Malta,Malta - Malta Island,2016-08-19,16:58
53786,Calidris minuta,species,Little Stint,1,14.42364954,35.94909004,Europe,Malta,Malta - Malta Island,2016-08-19,16:58
53787,Egretta garzetta,species,Little Egret,1,14.42315488,35.94874326,Europe,Malta,Malta - Malta Island,2016-08-19,17:00
53788,Egretta garzetta,species,Little Egret,5,14.42232114,35.94779845,Europe,Malta,Malta - Malta Island,2016-08-19,17:06
53789,Bubulcus ibis,species,Western Cattle Egret,2,14.42234283,35.94778826,Europe,Malta,Malta - Malta Island,2016-08-19,17:06
53790,Himantopus himantopus,species,Black-winged Stilt,3,14.42073017,35.9452576,Europe,Malta,Malta - Malta Island,2016-08-19,17:16
53791,Anax imperator,species,Blue Emperor,1,14.42098415,35.94501333,Europe,Malta,Malta - Malta Island,2016-08-19,17:20
53792,Sylvia melanocephala,species,Sardinian Warbler,1,14.42098705,35.94501219,Europe,Malta,Malta - Malta Island,2016-08-19,17:21
53793,Cisticola juncidis,species,Zitting Cisticola,1,14.42098611,35.94501169,Europe,Malta,Malta - Malta Island,2016-08-19,17:21
53794,Podiceps nigricollis,species,Black-necked Grebe,1,14.42242711,35.94787179,Europe,Malta,Malta - Malta Island,2016-08-19,17:50
53795,Calonectris diomedea,species,Scopoli's Shearwater,2,14.42427992,35.95138801,Europe,Malta,Malta - Malta Island,2016-08-19,19:33
53796,Actitis hypoleucos,species,Common Sandpiper,3,14.42321083,35.94881504,Europe,Malta,Malta - Malta Island,2016-08-20,18:13
53797,Podiceps nigricollis,species,Black-necked Grebe,1,14.42321266,35.9488144,Europe,Malta,Malta - Malta Island,2016-08-20,18:14
53798,Egretta garzetta,species,Little Egret,1,14.42321471,35.94879155,Europe,Malta,Malta - Malta Island,2016-08-20,18:14
53799,Passer hispaniolensis,species,Spanish Sparrow,6,14.42032073,35.94452876,Europe,Malta,Malta - Malta Island,2016-08-20,18:30
53800,Cisticola juncidis,species,Zitting Cisticola,1,14.42032912,35.94452301,Europe,Malta,Malta - Malta Island,2016-08-20,18:31
53801,Sylvia melanocephala,species,Sardinian Warbler,1,14.42042252,35.9442432,Europe,Malta,Malta - Malta Island,2016-08-20,18:34
53802,Pontia edusa,species,Eastern Bath White,2,14.4202262,35.94482542,Europe,Malta,Malta - Malta Island,2016-08-20,18:39
53803,Actitis hypoleucos,species,Common Sandpiper,2,14.42381645,35.94917247,Europe,Malta,Malta - Malta Island,2016-08-21,07:20
53804,Passer hispaniolensis,species,Spanish Sparrow,10,14.42381724,35.94918993,Europe,Malta,Malta - Malta Island,2016-08-21,07:20
53805,Podiceps nigricollis,species,Black-necked Grebe,1,14.42275119,35.94839248,Europe,Malta,Malta - Malta Island,2016-08-21,07:24
53806,Calidris minuta,species,Little Stint,1,14.4224182,35.94785692,Europe,Malta,Malta - Malta Island,2016-08-21,07:28
53807,Larus michahellis,species,Yellow-legged Gull,1,14.4224183,35.94785674,Europe,Malta,Malta - Malta Island,2016-08-21,07:28
53808,Sylvia melanocephala,species,Sardinian Warbler,1,14.42156476,35.94617199,Europe,Malta,Malta - Malta Island,2016-08-21,07:32
53809,Vanessa cardui,species,Painted Lady,1,14.42192395,35.94363464,Europe,Malta,Malta - Malta Island,2016-08-21,07:54
53810,Egretta garzetta,species,Little Egret,2,14.42192363,35.94363565,Europe,Malta,Malta - Malta Island,2016-08-21,07:55
53811,Cisticola juncidis,species,Zitting Cisticola,1,14.38169337,35.94419895,Europe,Malta,Malta - Malta Island,2016-08-23,07:57
53812,Calidris minuta,species,Little Stint,1,14.38157875,35.94500759,Europe,Malta,Malta - Simar Natural reserve,2016-08-23,09:01
53813,Calidris minuta,species,Little Stint,1,14.38157931,35.94500945,Europe,Malta,Malta - Simar Natural reserve,2016-08-23,09:02
53814,Gallinula chloropus,species,Common Moorhen,1,14.38158115,35.94501141,Europe,Malta,Malta - Simar Natural reserve,2016-08-23,09:14
53815,Egretta garzetta,species,Little Egret,3,14.38080554,35.94491304,Europe,Malta,Malta - Simar Natural reserve,2016-08-23,09:23
53816,Tachybaptus ruficollis,species,Little Grebe,1,14.38080501,35.94491507,Europe,Malta,Malta - Simar Natural reserve,2016-08-23,09:25
53817,Muscicapa striata,species,Spotted Flycatcher,1,14.38195602,35.94625943,Europe,Malta,Malta - Simar Natural reserve,2016-08-23,10:06
53818,Crocothemis erythraea,species,Broad Scarlet,1,14.3819034,35.94629876,Europe,Malta,Malta - Simar Natural reserve,2016-08-23,10:06
53819,Falco subbuteo,species,Eurasian Hobby,2,14.31353334,36.01226569,Europe,Malta,Malta - Comino Island,2016-08-24,16:03
53820,Calidris minuta,species,Little Stint,5,14.34894698,35.97028817,Europe,Malta,Malta - Ghadir Natural reserve,2016-08-25,07:46
53821,Himantopus himantopus,species,Black-winged Stilt,2,14.34894749,35.9702873,Europe,Malta,Malta - Ghadir Natural reserve,2016-08-25,07:46
53822,Charadrius alexandrinus,species,Kentish Plover,1,14.34896811,35.97027847,Europe,Malta,Malta - Ghadir Natural reserve,2016-08-25,07:49
53823,Chamaeleo chamaeleon,species,Common Chameleon,1,14.34898369,35.97026927,Europe,Malta,Malta - Ghadir Natural reserve,2016-08-25,08:48
53824,Falco eleonorae,species,Eleonora's Falcon,1,14.34898277,35.97026725,Europe,Malta,Malta - Ghadir Natural reserve,2016-08-25,09:20
53825,Ardeola ralloides,species,Squacco Heron,10,14.42427469,35.95137503,Europe,Malta,Malta - Malta Island,2016-08-25,16:35
53826,Monticola solitarius,species,Blue Rock Thrush,2,14.33916543,35.97032729,Europe,Malta,Malta - Malta Island,2016-08-26,08:03
53827,Circus aeruginosus,species,Western Marsh Harrier,1,14.33411966,35.97122898,Europe,Malta,Malta - Malta Island,2016-08-26,08:26
53828,Ardea purpurea,species,Purple Heron,20,14.33483667,35.97122824,Europe,Malta,Malta - Malta Island,2016-08-26,09:20
53829,Oenanthe oenanthe,species,Northern Wheatear,1,14.34527887,35.97567129,Europe,Malta,Malta - Malta Island,2016-08-26,10:15
54060,Orthetrum trinacria,species,Long Skimmer,5,14.3455694544969,35.9695179532178,Europe,Malta,Malta - Malta Island,2016-08-25,10:57
54061,Anax parthenope,species,Lesser Emperor,1,14.3457023023376,35.9696937328185,Europe,Malta,Malta - Malta Island,2016-08-25,11:05
54066,Selysiothemis nigra,species,Black Pennant,4,14.3456725268673,35.9696739902803,Europe,Malta,Malta - Malta Island,2016-08-25,11:00
63106,Crocothemis erythraea,species,Broad Scarlet,1,14.4206861026301,35.9451037690815,Europe,Malta,Malta - Malta Island,2016-08-14,08:53
63107,Calonectris diomedea,species,Scopoli's Shearwater,3,14.4340218231082,35.966100588028,Europe,Malta,Malta - Malta Island,2016-08-24,10:47
63108,Larus michahellis,species,Yellow-legged Gull,1,14.4340218231082,35.966100588028,Europe,Malta,Malta - Malta Island,2016-08-24,10:47
63109,Calonectris diomedea,species,Scopoli's Shearwater,2,14.4321865215898,35.9625440554539,Europe,Malta,Malta - Malta Island,2016-08-24,12:11
63110,Larus michahellis,species,Yellow-legged Gull,3,14.4321865215898,35.9625440554539,Europe,Malta,Malta - Malta Island,2016-08-24,12:11
63111,Passer hispaniolensis,species,Spanish Sparrow,2,14.4246919235423,35.9512231997098,Europe,Malta,Malta - Malta Island,2016-08-24,12:31
63112,Podarcis filfolensis,species,Maltese Wall Lizard,1,14.4241361406027,35.9520578077241,Europe,Malta,Malta - Malta Island,2016-08-24,14:09
63113,Passer hispaniolensis,species,Spanish Sparrow,1,14.3954751766482,35.9463220781781,Europe,Malta,Malta - Malta Island,2016-08-24,14:26
63114,Larus michahellis,species,Yellow-legged Gull,5,14.3575034290552,36.0012301719466,Europe,Malta,Malta - Malta Island,2016-08-24,15:04
63115,Calonectris diomedea,species,Scopoli's Shearwater,5,14.3298059915401,35.9895342695046,Europe,Malta,Malta - Malta Island,2016-08-24,15:47
63116,Falco subbuteo,species,Eurasian Hobby,2,14.3231966069283,35.9999278136347,Europe,Malta,Malta - Comino Island,2016-08-24,15:57
63117,Larus michahellis,species,Yellow-legged Gull,2,14.3181299053546,36.0066708030658,Europe,Malta,Malta - Comino Island,2016-08-24,16:00
63118,Calonectris diomedea,species,Scopoli's Shearwater,1,14.3106795912225,36.0168877425767,Europe,Malta,Malta - Comino Island,2016-08-24,16:05
63119,Passer hispaniolensis,species,Spanish Sparrow,1,14.277269745567,36.0289444419279,Europe,Malta,Malta - Gozo Island,2016-08-24,16:28
63120,Sylvia melanocephala,species,Sardinian Warbler,1,14.2683106506601,36.0485961641225,Europe,Malta,Malta - Gozo Island,2016-08-24,17:06
63121,Passer hispaniolensis,species,Spanish Sparrow,5,14.2688189076651,36.0478243997977,Europe,Malta,Malta - Gozo Island,2016-08-24,17:09
63122,Podarcis filfolensis,species,Maltese Wall Lizard,1,14.268819366507,36.0469422608947,Europe,Malta,Malta - Gozo Island,2016-08-24,17:15
63123,Passer hispaniolensis,species,Spanish Sparrow,8,14.2671281226258,36.0474699896071,Europe,Malta,Malta - Gozo Island,2016-08-24,17:40
63124,Sylvia melanocephala,species,Sardinian Warbler,1,14.2389351806437,36.0457595743916,Europe,Malta,Malta - Gozo Island,2016-08-24,18:15
63125,Passer hispaniolensis,species,Spanish Sparrow,5,14.21847082068,36.0543135248732,Europe,Malta,Malta - Gozo Island,2016-08-24,19:01
63126,Passer hispaniolensis,species,Spanish Sparrow,4,14.4239359825926,35.9520768944075,Europe,Malta,Malta - Malta Island,2016-08-25,06:52
63127,Passer hispaniolensis,species,Spanish Sparrow,1,14.3849729884523,35.953224603566,Europe,Malta,Malta - Malta Island,2016-08-25,07:16
63128,Passer hispaniolensis,species,Spanish Sparrow,3,14.3495669089111,35.9695710354478,Europe,Malta,Malta - Malta Island,2016-08-25,07:29
63129,Calidris minuta,species,Little Stint,15,14.348732857034,35.970163532355,Europe,Malta,Malta - Ghadir Natural reserve,2016-08-25,07:46
63130,Himantopus himantopus,species,Black-winged Stilt,3,14.348949768117,35.970186303488,Europe,Malta,Malta - Ghadir Natural reserve,2016-08-25,07:47
63131,Charadrius alexandrinus,species,Kentish Plover,1,14.348982944845,35.9702289051272,Europe,Malta,Malta - Malta Island,2016-08-25,07:47
63132,Calidris minuta,species,Little Stint,1,14.3487332264544,35.9703289711692,Europe,Malta,Malta - Ghadir Natural reserve,2016-08-25,07:51
63133,Sylvia melanocephala,species,Sardinian Warbler,1,14.3485014782431,35.9702734847417,Europe,Malta,Malta - Malta Island,2016-08-25,08:06
63134,Leptotes pirithous,species,Lang’s Short-tailed Blue,1,14.348490326422,35.97027314178,Europe,Malta,Malta - Malta Island,2016-08-25,08:06
63135,Gallinula chloropus,species,Common Moorhen,2,14.3457046712938,35.9695187559023,Europe,Malta,Malta - Malta Island,2016-08-25,08:29
63136,Cisticola juncidis,species,Zitting Cisticola,2,14.3457115894275,35.9695431671243,Europe,Malta,Malta - Malta Island,2016-08-25,08:29
63137,Calidris minuta,species,Little Stint,1,14.345507081598,35.969939908463,Europe,Malta,Malta - Ghadir Natural reserve,2016-08-25,08:33
63138,Alcedo atthis,species,Common Kingfisher,1,14.3457096625628,35.9695660148069,Europe,Malta,Malta - Malta Island,2016-08-25,08:34
63139,Chamaeleo chamaeleon,species,Common Chameleon,1,14.3485649472327,35.9694151865093,Europe,Malta,Malta - Ghadir Natural reserve,2016-08-25,08:39
63140,Tringa ochropus,species,Green Sandpiper,3,14.3489707562193,35.9703186707325,Europe,Malta,Malta - Malta Island,2016-08-25,08:49
63141,Passer hispaniolensis,species,Spanish Sparrow,3,14.3489707562193,35.9703186707325,Europe,Malta,Malta - Malta Island,2016-08-25,08:58
63142,Falco eleonorae,species,Eleonora's Falcon,1,14.3490032800654,35.9702779559845,Europe,Malta,Malta - Ghadir Natural reserve,2016-08-25,09:15
63143,Trithemis annulata,species,Violet Dropwing,1,14.34873253,35.97030348,Europe,Malta,Malta - Malta Island,2016-08-25,10:42
63144,Chamaeleo chamaeleon,species,Common Chameleon,1,14.3485287766136,35.9694257320204,Europe,Malta,Malta - Ghadir Natural reserve,2016-08-25,10:46
63145,Crocothemis erythraea,species,Broad Scarlet,1,14.3465855676848,35.9693911741525,Europe,Malta,Malta - Malta Island,2016-08-25,10:50
63146,Orthetrum trinacria,species,Long Skimmer,5,14.3455694544969,35.9695179532178,Europe,Malta,Malta - Malta Island,2016-08-25,10:57
63147,Selysiothemis nigra,species,Black Pennant,4,14.3456725268673,35.9696739902803,Europe,Malta,Malta - Malta Island,2016-08-25,11:00
63148,Anax imperator,species,Blue Emperor,1,14.3457750598649,35.9697377575773,Europe,Malta,Malta - Malta Island,2016-08-25,11:02
63149,Anax parthenope,species,Lesser Emperor,1,14.3457023023376,35.9696937328185,Europe,Malta,Malta - Malta Island,2016-08-25,11:05
63150,Crocothemis erythraea,species,Broad Scarlet,2,14.345429835439,35.9697984386514,Europe,Malta,Malta - Malta Island,2016-08-25,11:12
63151,Crocothemis erythraea,species,Broad Scarlet,2,14.3463745757175,35.9706143326109,Europe,Malta,Malta - Malta Island,2016-08-25,11:18
63152,Gallinula chloropus,species,Common Moorhen,1,14.3489925801972,35.9702506989248,Europe,Malta,Malta - Malta Island,2016-08-25,11:44
63153,Passer hispaniolensis,species,Spanish Sparrow,1,14.4149403176833,35.9527200742553,Europe,Malta,Malta - Malta Island,2016-08-25,12:37
63154,Passer hispaniolensis,species,Spanish Sparrow,5,14.4210101132139,35.952058691142,Europe,Malta,Malta - Malta Island,2016-08-25,12:47
63155,Podarcis filfolensis,species,Maltese Wall Lizard,1,14.4236466199342,35.9517665110193,Europe,Malta,Malta - Malta Island,2016-08-25,12:53
63156,Pontia edusa,species,Eastern Bath White,2,14.4218656121335,35.9579179925698,Europe,Malta,Malta - Malta Island,2016-08-25,14:45
63157,Passer hispaniolensis,species,Spanish Sparrow,4,14.4219031942301,35.9578855651836,Europe,Malta,Malta - Malta Island,2016-08-25,14:45
63158,Podarcis filfolensis,species,Maltese Wall Lizard,1,14.4217683622122,35.9577592027858,Europe,Malta,Malta - Malta Island,2016-08-25,14:47
63159,Podarcis filfolensis,species,Maltese Wall Lizard,1,14.4207433557093,35.9515027316458,Europe,Malta,Malta - Malta Island,2016-08-25,16:10
63160,Ardeola ralloides,species,Squacco Heron,10,14.431630969048,35.957441809551,Europe,Malta,Malta - Malta Island,2016-08-25,16:32
86455,Passer hispaniolensis,species,Spanish Sparrow,1,14.4244590727333,35.951402836033,Europe,Malta,Malta - Malta Island,2016-08-23,06:55
86457,Podarcis filfolensis,species,Maltese Wall Lizard,1,14.4239804163633,35.9520685069774,Europe,Malta,Malta - Malta Island,2016-08-23,07:23
86459,Sylvia melanocephala,species,Sardinian Warbler,1,14.423942587255,35.9520973770672,Europe,Malta,Malta - Malta Island,2016-08-23,07:23
86461,Passer hispaniolensis,species,Spanish Sparrow,3,14.4119438986903,35.9445063205928,Europe,Malta,Malta - Malta Island,2016-08-23,07:30
86463,Passer hispaniolensis,species,Spanish Sparrow,1,14.3854173371127,35.9447110800875,Europe,Malta,Malta - Malta Island,2016-08-23,07:38
86464,Sylvia melanocephala,species,Sardinian Warbler,1,14.3838016561174,35.9449277097449,Europe,Malta,Malta - Malta Island,2016-08-23,07:42
86465,Sylvia melanocephala,species,Sardinian Warbler,1,14.3832191732561,35.9450280674741,Europe,Malta,Malta - Malta Island,2016-08-23,07:44
86467,Passer hispaniolensis,species,Spanish Sparrow,3,14.3832191732561,35.9450280674741,Europe,Malta,Malta - Malta Island,2016-08-23,07:44
86468,Cisticola juncidis,species,Zitting Cisticola,2,14.3813473077552,35.9447462423274,Europe,Malta,Malta - Malta Island,2016-08-23,07:51
86469,Sylvia melanocephala,species,Sardinian Warbler,1,14.3813730744402,35.9448516364645,Europe,Malta,Malta - Malta Island,2016-08-23,07:51
86471,Calandrella brachydactyla,species,Greater Short-toed Lark,3,14.3816951184706,35.9444835600152,Europe,Malta,Malta - Malta Island,2016-08-23,07:55
86472,Sympetrum fonscolombii,species,Red-veined Darter,1,14.3817225476306,35.9442125145007,Europe,Malta,Malta - Malta Island,2016-08-23,07:57
86473,Passer hispaniolensis,species,Spanish Sparrow,5,14.3817068280646,35.9441701646679,Europe,Malta,Malta - Malta Island,2016-08-23,07:59
86474,Sylvia melanocephala,species,Sardinian Warbler,1,14.3817082014894,35.9441706920644,Europe,Malta,Malta - Malta Island,2016-08-23,07:59
86475,Pieris rapae,species,Small White,1,14.3807764978849,35.9447710179426,Europe,Malta,Malta - Malta Island,2016-08-23,08:04
86476,Sylvia melanocephala,species,Sardinian Warbler,2,14.3807029184646,35.9447290081118,Europe,Malta,Malta - Malta Island,2016-08-23,08:04
86477,Passer hispaniolensis,species,Spanish Sparrow,15,14.3803917249803,35.9449402013819,Europe,Malta,Malta - Malta Island,2016-08-23,08:05
86478,Egretta garzetta,species,Little Egret,1,14.3797925264812,35.945174931824,Europe,Malta,Malta - Malta Island,2016-08-23,08:12
86479,Alcedo atthis,species,Common Kingfisher,1,14.3797784909734,35.9451961529136,Europe,Malta,Malta - Malta Island,2016-08-23,08:12
86480,Gallinula chloropus,species,Common Moorhen,1,14.3798127995027,35.9452454639284,Europe,Malta,Malta - Malta Island,2016-08-23,08:12
86481,Sylvia melanocephala,species,Sardinian Warbler,1,14.3800082856651,35.9457793946133,Europe,Malta,Malta - Malta Island,2016-08-23,08:13
86482,Passer hispaniolensis,species,Spanish Sparrow,2,14.3786229225903,35.9449845565825,Europe,Malta,Malta - Malta Island,2016-08-23,08:18
86483,Cisticola juncidis,species,Zitting Cisticola,4,14.3782884073366,35.9448370502557,Europe,Malta,Malta - Malta Island,2016-08-23,08:20
86484,Sylvia melanocephala,species,Sardinian Warbler,1,14.3777436270154,35.9446192063036,Europe,Malta,Malta - Malta Island,2016-08-23,08:22
86485,Passer hispaniolensis,species,Spanish Sparrow,5,14.377256055512,35.9444471917105,Europe,Malta,Malta - Malta Island,2016-08-23,08:24
86486,Gallinula chloropus,species,Common Moorhen,1,14.3832327619094,35.9456832433824,Europe,Malta,Malta - Malta Island,2016-08-23,08:53
86487,Calidris minuta,species,Little Stint,1,14.381919829175,35.945457805472,Europe,Malta,Malta - Simar Natural reserve,2016-08-23,09:01
86489,Passer hispaniolensis,species,Spanish Sparrow,3,14.3815985891673,35.9449904964558,Europe,Malta,Malta - Malta Island,2016-08-23,09:10
86491,Egretta garzetta,species,Little Egret,1,14.381602062805,35.9449940378744,Europe,Malta,Malta - Malta Island,2016-08-23,09:10
86492,Alcedo atthis,species,Common Kingfisher,1,14.3816077869936,35.9450084241843,Europe,Malta,Malta - Malta Island,2016-08-23,09:10
86493,Cisticola juncidis,species,Zitting Cisticola,1,14.3816714489624,35.9448844163198,Europe,Malta,Malta - Malta Island,2016-08-23,09:12
86494,Gallinula chloropus,species,Common Moorhen,2,14.3816669194882,35.9448697483861,Europe,Malta,Malta - Malta Island,2016-08-23,09:14
86495,Egretta garzetta,species,Little Egret,5,14.3809850913255,35.9448153836178,Europe,Malta,Malta - Malta Island,2016-08-23,09:19
86499,Tachybaptus ruficollis,species,Little Grebe,2,14.3807022151983,35.9449555610565,Europe,Malta,Malta - Malta Island,2016-08-23,09:22
86501,Gallinula chloropus,species,Common Moorhen,2,14.3807338366045,35.9449861785207,Europe,Malta,Malta - Malta Island,2016-08-23,09:22
86502,Muscicapa striata,species,Spotted Flycatcher,1,14.3818904530584,35.946248529096,Europe,Malta,Malta - Malta Island,2016-08-23,10:01
86503,Crocothemis erythraea,species,Broad Scarlet,1,14.3818454817237,35.9462551683314,Europe,Malta,Malta - Malta Island,2016-08-23,10:05
86504,Pontia edusa,species,Eastern Bath White,4,14.4207417434833,35.9522462112478,Europe,Malta,Malta - Malta Island,2016-08-23,10:41
86506,Passer hispaniolensis,species,Spanish Sparrow,5,14.4209318193808,35.9519500057693,Europe,Malta,Malta - Malta Island,2016-08-23,10:41
86507,Podarcis filfolensis,species,Maltese Wall Lizard,1,14.4242000951264,35.9513768131153,Europe,Malta,Malta - Malta Island,2016-08-23,15:36
97764,Passer hispaniolensis,species,Spanish Sparrow,1,14.4956779519377,35.848121192947,Europe,Malta,Malta - Malta Island,2016-08-13,15:20
97765,Passer hispaniolensis,species,Spanish Sparrow,1,14.4244732327539,35.9515641513663,Europe,Malta,Malta - Malta Island,2016-08-13,16:40
97766,Larus michahellis,species,Yellow-legged Gull,5,14.4244835563321,35.9515404333718,Europe,Malta,Malta - Malta Island,2016-08-13,16:41
97767,Passer hispaniolensis,species,Spanish Sparrow,75,14.4333452358842,35.9511485585069,Europe,Malta,Malta - Malta Island,2016-08-13,17:00
97768,Passer hispaniolensis,species,Spanish Sparrow,2,14.4206145266479,35.9523197046052,Europe,Malta,Malta - Malta Island,2016-08-13,17:44
97769,Passer hispaniolensis,species,Spanish Sparrow,6,14.424368704758,35.9518975797291,Europe,Malta,Malta - Malta Island,2016-08-13,19:00
97770,Passer hispaniolensis,species,Spanish Sparrow,2,14.424726121113,35.9514834613103,Europe,Malta,Malta - Malta Island,2016-08-14,07:16
97771,Passer hispaniolensis,species,Spanish Sparrow,5,14.4244046212259,35.9504755636484,Europe,Malta,Malta - Malta Island,2016-08-14,07:18
97772,Actitis hypoleucos,species,Common Sandpiper,2,14.4234038015235,35.948930810196,Europe,Malta,Malta - Malta Island,2016-08-14,07:23
97773,Passer hispaniolensis,species,Spanish Sparrow,3,14.4226061413183,35.9483090581242,Europe,Malta,Malta - Malta Island,2016-08-14,07:25
97774,Podiceps nigricollis,species,Black-necked Grebe,1,14.424026235938,35.94754276765,Europe,Malta,Malta - Salina Saltpans,2016-08-14,07:25
97775,Larus michahellis,species,Yellow-legged Gull,11,14.4226205199455,35.9482311049812,Europe,Malta,Malta - Malta Island,2016-08-14,07:25
97776,Egretta garzetta,species,Little Egret,1,14.4226254195445,35.9482058839289,Europe,Malta,Malta - Malta Island,2016-08-14,07:26
97777,Actitis hypoleucos,species,Common Sandpiper,1,14.4224473373253,35.9480206855568,Europe,Malta,Malta - Malta Island,2016-08-14,07:27
97778,Cisticola juncidis,species,Zitting Cisticola,2,14.4215830976038,35.9461378154648,Europe,Malta,Malta - Malta Island,2016-08-14,07:36
97779,Cisticola juncidis,species,Zitting Cisticola,2,14.4198800090089,35.9445983718918,Europe,Malta,Malta - Malta Island,2016-08-14,07:46
97780,Passer hispaniolensis,species,Spanish Sparrow,5,14.4198377571472,35.9445711793244,Europe,Malta,Malta - Malta Island,2016-08-14,07:47
97781,Sylvia melanocephala,species,Sardinian Warbler,1,14.4189995191728,35.9437188419069,Europe,Malta,Malta - Malta Island,2016-08-14,08:03
97782,Sylvia melanocephala,species,Sardinian Warbler,1,14.4186046910471,35.9441482185906,Europe,Malta,Malta - Malta Island,2016-08-14,08:15
97783,Calidris minuta,species,Little Stint,1,14.421144453809,35.943308147944,Europe,Malta,Malta - Salina Saltpans,2016-08-14,08:24
97784,Bubulcus ibis,species,Western Cattle Egret,2,14.4204461046782,35.9430614905,Europe,Malta,Malta - Malta Island,2016-08-14,08:26
97785,Cisticola juncidis,species,Zitting Cisticola,1,14.4204686570959,35.9430804234231,Europe,Malta,Malta - Malta Island,2016-08-14,08:26
97786,Actitis hypoleucos,species,Common Sandpiper,2,14.4200584433374,35.9432505443329,Europe,Malta,Malta - Malta Island,2016-08-14,08:30
97787,Passer hispaniolensis,species,Spanish Sparrow,35,14.4196677335534,35.9438465254875,Europe,Malta,Malta - Malta Island,2016-08-14,08:35
97788,Sylvia melanocephala,species,Sardinian Warbler,2,14.4191896900697,35.9441991896597,Europe,Malta,Malta - Malta Island,2016-08-14,08:42
97789,Sylvia melanocephala,species,Sardinian Warbler,1,14.4216458968097,35.9468084329263,Europe,Malta,Malta - Malta Island,2016-08-14,09:06
97790,Passer hispaniolensis,species,Spanish Sparrow,1,14.424132061779,35.9519770676507,Europe,Malta,Malta - Malta Island,2016-08-14,09:25
97791,Passer hispaniolensis,species,Spanish Sparrow,15,14.4240706,35.9524581,Europe,Malta,Malta - Malta Island,2016-08-14,15:23
97792,Podarcis filfolensis,species,Maltese Wall Lizard,1,14.4243606,35.9518437,Europe,Malta,Malta - Malta Island,2016-08-14,15:27
97793,Podarcis filfolensis,species,Maltese Wall Lizard,7,14.4241123348926,35.9520827188368,Europe,Malta,Malta - Malta Island,2016-08-14,16:59
97794,Podarcis filfolensis,species,Maltese Wall Lizard,4,14.4240642248419,35.9522523619129,Europe,Malta,Malta - Malta Island,2016-08-14,17:01
97795,Passer hispaniolensis,species,Spanish Sparrow,10,14.4251548972795,35.9582512759494,Europe,Malta,Malta - Malta Island,2016-08-14,17:13
97796,Passer hispaniolensis,species,Spanish Sparrow,40,14.4333452358842,35.9511485585069,Europe,Malta,Malta - Malta Island,2016-08-14,19:03
97797,Sylvia melanocephala,species,Sardinian Warbler,2,14.4240210603922,35.9521355881216,Europe,Malta,Malta - Malta Island,2016-08-15,07:16
97798,Passer hispaniolensis,species,Spanish Sparrow,5,14.4239634831665,35.9520949920162,Europe,Malta,Malta - Malta Island,2016-08-15,07:17
97799,Podarcis filfolensis,species,Maltese Wall Lizard,1,14.4239830251608,35.9520956483349,Europe,Malta,Malta - Malta Island,2016-08-15,07:19
97800,Actitis hypoleucos,species,Common Sandpiper,1,14.3847232002433,35.9449443802711,Europe,Malta,Malta - Malta Island,2016-08-15,07:36
97801,Passer hispaniolensis,species,Spanish Sparrow,5,14.3827791399733,35.9465715725336,Europe,Malta,Malta - Malta Island,2016-08-15,07:40
97802,Sylvia melanocephala,species,Sardinian Warbler,1,14.3826887859611,35.9466337279771,Europe,Malta,Malta - Malta Island,2016-08-15,07:40
97803,Cisticola juncidis,species,Zitting Cisticola,1,14.3803429154043,35.9459945320924,Europe,Malta,Malta - Malta Island,2016-08-15,07:46
97804,Actitis hypoleucos,species,Common Sandpiper,1,14.3799962155015,35.9457630790873,Europe,Malta,Malta - Malta Island,2016-08-15,07:47
97805,Passer hispaniolensis,species,Spanish Sparrow,10,14.3802422969586,35.9453246913155,Europe,Malta,Malta - Malta Island,2016-08-15,07:49
97806,Sylvia melanocephala,species,Sardinian Warbler,2,14.3803760459175,35.9450237649069,Europe,Malta,Malta - Malta Island,2016-08-15,07:51
97807,Alcedo atthis,species,Common Kingfisher,2,14.3806499648881,35.9448402288907,Europe,Malta,Malta - Malta Island,2016-08-15,07:54
97808,Passer hispaniolensis,species,Spanish Sparrow,25,14.3817738358536,35.9449364548318,Europe,Malta,Malta - Malta Island,2016-08-15,07:59
97809,Cisticola juncidis,species,Zitting Cisticola,1,14.382093459549,35.9449860671089,Europe,Malta,Malta - Malta Island,2016-08-15,08:01
97810,Sylvia melanocephala,species,Sardinian Warbler,1,14.3821120362586,35.9449441134982,Europe,Malta,Malta - Malta Island,2016-08-15,08:01
97811,Sylvia melanocephala,species,Sardinian Warbler,1,14.3831671595049,35.9450314010279,Europe,Malta,Malta - Malta Island,2016-08-15,08:05
97812,Sylvia melanocephala,species,Sardinian Warbler,2,14.3839334717473,35.9448233995427,Europe,Malta,Malta - Malta Island,2016-08-15,08:12
97813,Cisticola juncidis,species,Zitting Cisticola,1,14.3839544413723,35.944834907527,Europe,Malta,Malta - Malta Island,2016-08-15,08:12
97814,Podarcis filfolensis,species,Maltese Wall Lizard,3,14.4202572722593,35.9543721109882,Europe,Malta,Malta - Malta Island,2016-08-15,08:36
97815,Cacyreus marshalli,species,Geranium Bronze,3,14.4241438861036,35.9518997981502,Europe,Malta,Malta - Malta Island,2016-08-15,08:53
97816,Leptotes pirithous,species,Lang’s Short-tailed Blue,1,14.4241386926731,35.9519077916891,Europe,Malta,Malta - Malta Island,2016-08-15,08:53
97817,Podarcis filfolensis,species,Maltese Wall Lizard,20,14.4241375285853,35.9519888635664,Europe,Malta,Malta - Malta Island,2016-08-15,08:58
97818,Leptotes pirithous,species,Lang’s Short-tailed Blue,1,14.4242081291003,35.9520395842979,Europe,Malta,Malta - Malta Island,2016-08-15,09:10
97819,Passer hispaniolensis,species,Spanish Sparrow,6,14.4119515366912,35.9445057680087,Europe,Malta,Malta - Malta Island,2016-08-15,11:25
97820,Podarcis filfolensis,species,Maltese Wall Lizard,2,14.4186354855828,35.9172557434726,Europe,Malta,Malta - Malta Island,2016-08-15,11:34
97821,Sylvia melanocephala,species,Sardinian Warbler,1,14.4178482630385,35.9166025431763,Europe,Malta,Malta - Malta Island,2016-08-15,12:41
97822,Pontia edusa,species,Eastern Bath White,1,14.4177976178597,35.9166314631097,Europe,Malta,Malta - Malta Island,2016-08-15,12:52
97823,Cacyreus marshalli,species,Geranium Bronze,1,14.4240187655249,35.9519230132886,Europe,Malta,Malta - Malta Island,2016-08-15,14:01
97824,Passer hispaniolensis,species,Spanish Sparrow,5,14.4242620209221,35.9515794986248,Europe,Malta,Malta - Malta Island,2016-08-15,19:59
97825,Passer hispaniolensis,species,Spanish Sparrow,5,14.4244629436051,35.950716753029,Europe,Malta,Malta - Malta Island,2016-08-16,11:08
97826,Egretta garzetta,species,Little Egret,1,14.4240472612928,35.9498932650141,Europe,Malta,Malta - Malta Island,2016-08-16,11:14
97827,Actitis hypoleucos,species,Common Sandpiper,6,14.4235786013748,35.9491757521761,Europe,Malta,Malta - Malta Island,2016-08-16,11:14
97828,Podarcis filfolensis,species,Maltese Wall Lizard,1,14.4227202430738,35.9483925980095,Europe,Malta,Malta - Malta Island,2016-08-16,11:18
97829,Podiceps nigricollis,species,Black-necked Grebe,1,14.423790201545,35.947716479074,Europe,Malta,Malta - Salina Saltpans,2016-08-16,11:19
97830,Passer hispaniolensis,species,Spanish Sparrow,7,14.4221068624845,35.9473180955795,Europe,Malta,Malta - Malta Island,2016-08-16,11:21
97831,Cisticola juncidis,species,Zitting Cisticola,1,14.4217070535223,35.9465569695519,Europe,Malta,Malta - Malta Island,2016-08-16,11:23
97832,Anax imperator,species,Blue Emperor,1,14.4216092979526,35.9462405349149,Europe,Malta,Malta - Malta Island,2016-08-16,11:24
97833,Pieris rapae,species,Small White,1,14.4215208470873,35.9460201152791,Europe,Malta,Malta - Malta Island,2016-08-16,11:26
97834,Passer hispaniolensis,species,Spanish Sparrow,2,14.4203019398241,35.9448807290097,Europe,Malta,Malta - Malta Island,2016-08-16,11:32
97835,Passer hispaniolensis,species,Spanish Sparrow,20,14.419546697785,35.9439756545421,Europe,Malta,Malta - Malta Island,2016-08-16,11:38
97836,Sylvia melanocephala,species,Sardinian Warbler,4,14.4196322406543,35.9440278713439,Europe,Malta,Malta - Malta Island,2016-08-16,11:38
97837,Anax imperator,species,Blue Emperor,1,14.4198193874065,35.9439243704131,Europe,Malta,Malta - Malta Island,2016-08-16,11:43
97838,Cisticola juncidis,species,Zitting Cisticola,1,14.419788239596,35.9439355446434,Europe,Malta,Malta - Malta Island,2016-08-16,11:45
97839,Pontia edusa,species,Eastern Bath White,3,14.4196905501575,35.9441392366523,Europe,Malta,Malta - Malta Island,2016-08-16,11:55
97840,Zizeeria karsandra,species,Dark Grass Blue,10,14.4198367324375,35.9442930155495,Europe,Malta,Malta - Malta Island,2016-08-16,12:01
97841,Podarcis filfolensis,species,Maltese Wall Lizard,1,14.4196879163618,35.9441448288903,Europe,Malta,Malta - Malta Island,2016-08-16,12:02
97842,Pontia edusa,species,Eastern Bath White,1,14.4187274175473,35.9452299186352,Europe,Malta,Malta - Malta Island,2016-08-16,12:32
97843,Sylvia melanocephala,species,Sardinian Warbler,2,14.4191737793704,35.9450073448847,Europe,Malta,Malta - Malta Island,2016-08-16,12:35
97844,Anax imperator,species,Blue Emperor,1,14.4192649581425,35.9446900158849,Europe,Malta,Malta - Malta Island,2016-08-16,12:36
97845,Alcedo atthis,species,Common Kingfisher,1,14.4216338537443,35.9469294785008,Europe,Malta,Malta - Malta Island,2016-08-16,12:51
97846,Vanessa atalanta,species,Red Admiral,1,14.4219877402046,35.9470112864266,Europe,Malta,Malta - Malta Island,2016-08-16,12:54
97847,Calidris minuta,species,Little Stint,1,14.424483887851,35.948741504414,Europe,Malta,Malta - Salina Saltpans,2016-08-16,13:05
97848,Podarcis filfolensis,species,Maltese Wall Lizard,1,14.4239920553155,35.9497231524497,Europe,Malta,Malta - Malta Island,2016-08-16,13:13
97849,Cacyreus marshalli,species,Geranium Bronze,1,14.4244873007948,35.9523473665135,Europe,Malta,Malta - Malta Island,2016-08-16,15:07
97850,Passer hispaniolensis,species,Spanish Sparrow,10,14.4333452358842,35.9511485585069,Europe,Malta,Malta - Malta Island,2016-08-16,15:46
97851,Podarcis filfolensis,species,Maltese Wall Lizard,5,14.4239637195866,35.9521060994564,Europe,Malta,Malta - Malta Island,2016-08-16,17:28
97852,Leptotes pirithous,species,Lang’s Short-tailed Blue,1,14.423990854852,35.952221024379,Europe,Malta,Malta - Malta Island,2016-08-16,17:30
97853,Passer hispaniolensis,species,Spanish Sparrow,10,14.4131024232471,35.9453721972277,Europe,Malta,Malta - Malta Island,2016-08-16,17:51
97854,Passer hispaniolensis,species,Spanish Sparrow,15,14.5089363856287,35.8960769072862,Europe,Malta,Malta - Malta Island,2016-08-16,18:34
97855,Passer hispaniolensis,species,Spanish Sparrow,5,14.5131869084224,35.8985923926376,Europe,Malta,Malta - Malta Island,2016-08-16,18:50
97856,Passer hispaniolensis,species,Spanish Sparrow,2,14.5163797911018,35.8972110505492,Europe,Malta,Malta - Malta Island,2016-08-16,19:05
97857,Passer hispaniolensis,species,Spanish Sparrow,20,14.5175910403463,35.8971215447041,Europe,Malta,Malta - Malta Island,2016-08-16,19:09
97858,Passer hispaniolensis,species,Spanish Sparrow,4,14.4240519313126,35.9498273993058,Europe,Malta,Malta - Malta Island,2016-08-17,07:32
97859,Podiceps nigricollis,species,Black-necked Grebe,1,14.423961862922,35.94756013881,Europe,Malta,Malta - Salina Saltpans,2016-08-17,07:37
97860,Egretta garzetta,species,Little Egret,1,14.4226942773233,35.9482106872435,Europe,Malta,Malta - Malta Island,2016-08-17,07:38
97861,Actitis hypoleucos,species,Common Sandpiper,2,14.4226657964934,35.948220196096,Europe,Malta,Malta - Malta Island,2016-08-17,07:38
97862,Sylvia melanocephala,species,Sardinian Warbler,2,14.4217466289412,35.9465563550917,Europe,Malta,Malta - Malta Island,2016-08-17,07:45
97863,Cisticola juncidis,species,Zitting Cisticola,1,14.4217652746378,35.9465749197452,Europe,Malta,Malta - Malta Island,2016-08-17,07:45
97864,Sylvia melanocephala,species,Sardinian Warbler,1,14.4205915604787,35.9451465802504,Europe,Malta,Malta - Malta Island,2016-08-17,07:53
97865,Sylvia melanocephala,species,Sardinian Warbler,1,14.4197093778124,35.9445713057248,Europe,Malta,Malta - Malta Island,2016-08-17,07:58
97866,Anax imperator,species,Blue Emperor,1,14.4185993152641,35.9441299065428,Europe,Malta,Malta - Malta Island,2016-08-17,08:00
97867,Sylvia melanocephala,species,Sardinian Warbler,1,14.4190537268367,35.9436372956515,Europe,Malta,Malta - Malta Island,2016-08-17,08:03
97868,Sylvia melanocephala,species,Sardinian Warbler,1,14.4197953840836,35.9432941097576,Europe,Malta,Malta - Malta Island,2016-08-17,08:04
97869,Actitis hypoleucos,species,Common Sandpiper,2,14.4198818082948,35.9432203748498,Europe,Malta,Malta - Malta Island,2016-08-17,08:04
97870,Passer hispaniolensis,species,Spanish Sparrow,25,14.4222754370072,35.9433721228936,Europe,Malta,Malta - Malta Island,2016-08-17,08:12
97871,Cisticola juncidis,species,Zitting Cisticola,1,14.4222823046727,35.9433746050265,Europe,Malta,Malta - Malta Island,2016-08-17,08:12
97872,Passer hispaniolensis,species,Spanish Sparrow,75,14.420545365371,35.9420157043046,Europe,Malta,Malta - Malta Island,2016-08-17,08:19
97873,Sylvia melanocephala,species,Sardinian Warbler,2,14.4205279994038,35.942071698876,Europe,Malta,Malta - Malta Island,2016-08-17,08:19
97874,Egretta garzetta,species,Little Egret,1,14.4202655659392,35.9414838864464,Europe,Malta,Malta - Malta Island,2016-08-17,08:21
97875,Lanius senator,species,Woodchat Shrike,1,14.4211920906535,35.9411055180813,Europe,Malta,Malta - Malta Island,2016-08-17,08:24
97877,Sylvia melanocephala,species,Sardinian Warbler,1,14.4221955888821,35.9418425732822,Europe,Malta,Malta - Malta Island,2016-08-17,08:35
97878,Pontia edusa,species,Eastern Bath White,1,14.4228668383253,35.9421271785761,Europe,Malta,Malta - Malta Island,2016-08-17,08:37
97879,Sylvia melanocephala,species,Sardinian Warbler,1,14.4235127413307,35.94373399404,Europe,Malta,Malta - Malta Island,2016-08-17,08:45
97880,Cisticola juncidis,species,Zitting Cisticola,5,14.4234857478564,35.9437077794016,Europe,Malta,Malta - Malta Island,2016-08-17,08:45
97881,Bubulcus ibis,species,Western Cattle Egret,1,14.4227077174877,35.9435480317787,Europe,Malta,Malta - Malta Island,2016-08-17,08:51
97882,Bubulcus ibis,species,Western Cattle Egret,3,14.4206154201245,35.9429890434626,Europe,Malta,Malta - Malta Island,2016-08-17,09:08
97883,Passer hispaniolensis,species,Spanish Sparrow,20,14.4183862153055,35.9439112026381,Europe,Malta,Malta - Malta Island,2016-08-17,09:16
97884,Anax imperator,species,Blue Emperor,1,14.4187994464758,35.9442557719418,Europe,Malta,Malta - Malta Island,2016-08-17,09:19
97885,Larus michahellis,species,Yellow-legged Gull,1,14.423153016892,35.9487851508793,Europe,Malta,Malta - Malta Island,2016-08-17,09:33
97886,Calidris minuta,species,Little Stint,2,14.424412474036,35.948637143247,Europe,Malta,Malta - Salina Saltpans,2016-08-17,09:36
97887,Passer hispaniolensis,species,Spanish Sparrow,5,14.4262536,35.9481922,Europe,Malta,Malta - Malta Island,2016-08-17,10:51
97888,Cacyreus marshalli,species,Geranium Bronze,2,14.4241503826459,35.9525560052974,Europe,Malta,Malta - Malta Island,2016-08-17,13:14
97889,Passer hispaniolensis,species,Spanish Sparrow,5,14.4240275905739,35.9526330693847,Europe,Malta,Malta - Malta Island,2016-08-17,13:26
97890,Podarcis filfolensis,species,Maltese Wall Lizard,2,14.4244155273067,35.952547588123,Europe,Malta,Malta - Malta Island,2016-08-17,14:08
97891,Calonectris diomedea,species,Scopoli's Shearwater,7,14.4353880733252,35.9695937362081,Europe,Malta,Malta - Malta Island,2016-08-17,15:47
97892,Calonectris diomedea,species,Scopoli's Shearwater,61,14.4340218231082,35.966100588028,Europe,Malta,Malta - Malta Island,2016-08-17,16:16
97893,Passer hispaniolensis,species,Spanish Sparrow,4,14.4333452358842,35.9511485585069,Europe,Malta,Malta - Malta Island,2016-08-17,16:47
97894,Calidris minuta,species,Little Stint,6,14.423464648426,35.94637902697,Europe,Malta,Malta - Salina Saltpans,2016-08-17,17:27
97895,Egretta garzetta,species,Little Egret,3,14.422415208161,35.9478922471031,Europe,Malta,Malta - Malta Island,2016-08-17,17:28
97896,Bubulcus ibis,species,Western Cattle Egret,2,14.4224464602225,35.9478871356096,Europe,Malta,Malta - Malta Island,2016-08-17,17:28
97897,Sylvia melanocephala,species,Sardinian Warbler,1,14.421633853725,35.9468570526737,Europe,Malta,Malta - Malta Island,2016-08-17,17:38
97898,Leptotes pirithous,species,Lang’s Short-tailed Blue,1,14.4217010126034,35.9468623401722,Europe,Malta,Malta - Malta Island,2016-08-17,17:38
97899,Sylvia melanocephala,species,Sardinian Warbler,1,14.4213106894406,35.9462402742732,Europe,Malta,Malta - Malta Island,2016-08-17,17:43
97900,Alcedo atthis,species,Common Kingfisher,1,14.4213382488282,35.9461793186369,Europe,Malta,Malta - Malta Island,2016-08-17,17:43
97901,Passer hispaniolensis,species,Spanish Sparrow,40,14.4333452358842,35.9511485585069,Europe,Malta,Malta - Malta Island,2016-08-17,18:30
97902,Cacyreus marshalli,species,Geranium Bronze,1,14.4242163129316,35.9513887770635,Europe,Malta,Malta - Malta Island,2016-08-18,11:04
97903,Podarcis filfolensis,species,Maltese Wall Lizard,5,14.4240434214713,35.9515456204186,Europe,Malta,Malta - Malta Island,2016-08-18,11:04
97904,Passer hispaniolensis,species,Spanish Sparrow,3,14.4241402668506,35.9519646602939,Europe,Malta,Malta - Malta Island,2016-08-18,11:05
97905,Egretta garzetta,species,Little Egret,1,14.4245264679194,35.9486043013426,Europe,Malta,Malta - Malta Island,2016-08-18,11:30
97906,Larus michahellis,species,Yellow-legged Gull,2,14.4449190166904,35.9495983033446,Europe,Malta,Malta - Malta Island,2016-08-18,11:31
97907,Passer hispaniolensis,species,Spanish Sparrow,3,14.4580513342965,35.938098664394,Europe,Malta,Malta - Malta Island,2016-08-18,13:29
97908,Sylvia melanocephala,species,Sardinian Warbler,1,14.458045048123,35.9380513104226,Europe,Malta,Malta - Malta Island,2016-08-18,13:29
97909,Anax imperator,species,Blue Emperor,1,14.4580744766604,35.9380398818517,Europe,Malta,Malta - Malta Island,2016-08-18,13:37
97910,Podarcis filfolensis,species,Maltese Wall Lizard,1,14.4579474708247,35.938023738742,Europe,Malta,Malta - Malta Island,2016-08-18,15:11
97911,Cacyreus marshalli,species,Geranium Bronze,1,14.4579474708247,35.938023738742,Europe,Malta,Malta - Malta Island,2016-08-18,15:11
97912,Cisticola juncidis,species,Zitting Cisticola,1,14.4558292966154,35.9390270660687,Europe,Malta,Malta - Malta Island,2016-08-18,18:07
97913,Passer hispaniolensis,species,Spanish Sparrow,4,14.4559632322114,35.9389208475466,Europe,Malta,Malta - Malta Island,2016-08-18,18:09
97914,Larus michahellis,species,Yellow-legged Gull,15,14.4390102939879,35.9522919717912,Europe,Malta,Malta - Malta Island,2016-08-18,18:16
97915,Passer hispaniolensis,species,Spanish Sparrow,1,14.4218138159527,35.943374848146,Europe,Malta,Malta - Malta Island,2016-08-18,18:20
97916,Passer hispaniolensis,species,Spanish Sparrow,15,14.4125628516441,35.9449696336242,Europe,Malta,Malta - Malta Island,2016-08-18,18:22
97917,Passer hispaniolensis,species,Spanish Sparrow,1,14.410100428387,35.945269435085,Europe,Malta,Malta - Malta Island,2016-08-18,18:23
97918,Larus michahellis,species,Yellow-legged Gull,1,14.4333452358842,35.9511485585069,Europe,Malta,Malta - Malta Island,2016-08-18,19:30
97919,Passer hispaniolensis,species,Spanish Sparrow,7,14.4230566663798,35.9494439832372,Europe,Malta,Malta - Malta Island,2016-08-19,08:52
97920,Passer hispaniolensis,species,Spanish Sparrow,2,14.3767477175105,35.9411332134258,Europe,Malta,Malta - Malta Island,2016-08-19,09:17
97921,Cisticola juncidis,species,Zitting Cisticola,1,14.3668136102303,35.9492467059431,Europe,Malta,Malta - Malta Island,2016-08-19,09:20
97922,Passer hispaniolensis,species,Spanish Sparrow,1,14.341291032697,35.95985749901,Europe,Malta,Malta - Malta Island,2016-08-19,09:30
97923,Larus michahellis,species,Yellow-legged Gull,8,14.3412997224511,35.9598547886961,Europe,Malta,Malta - Malta Island,2016-08-19,09:31
97924,Passer hispaniolensis,species,Spanish Sparrow,1,14.3472481486265,35.9618912342032,Europe,Malta,Malta - Malta Island,2016-08-19,09:39
97925,Passer hispaniolensis,species,Spanish Sparrow,1,14.3421941068119,35.9745246924783,Europe,Malta,Malta - Malta Island,2016-08-19,09:51
97926,Actitis hypoleucos,species,Common Sandpiper,2,14.3423035791651,35.9743652896732,Europe,Malta,Malta - Malta Island,2016-08-19,09:53
97927,Passer hispaniolensis,species,Spanish Sparrow,1,14.3485179473546,35.9357758075496,Europe,Malta,Malta - Malta Island,2016-08-19,10:18
97928,Passer hispaniolensis,species,Spanish Sparrow,1,14.3462998587705,35.9341860369433,Europe,Malta,Malta - Malta Island,2016-08-19,10:19
97929,Passer hispaniolensis,species,Spanish Sparrow,10,14.3443199618262,35.9345954896838,Europe,Malta,Malta - Malta Island,2016-08-19,10:23
97930,Pontia edusa,species,Eastern Bath White,1,14.3444689490692,35.9344119884137,Europe,Malta,Malta - Malta Island,2016-08-19,10:24
97931,Passer hispaniolensis,species,Spanish Sparrow,2,14.3581866702979,35.9187982194624,Europe,Malta,Malta - Malta Island,2016-08-19,11:14
97932,Passer hispaniolensis,species,Spanish Sparrow,1,14.3515630447224,35.9080442885915,Europe,Malta,Malta - Malta Island,2016-08-19,11:17
97933,Passer hispaniolensis,species,Spanish Sparrow,5,14.3678559609785,35.898688527537,Europe,Malta,Malta - Malta Island,2016-08-19,11:37
97934,Passer hispaniolensis,species,Spanish Sparrow,3,14.3886656073847,35.8916957487035,Europe,Malta,Malta - Malta Island,2016-08-19,11:46
97935,Passer hispaniolensis,species,Spanish Sparrow,3,14.3890126777383,35.8904256222864,Europe,Malta,Malta - Malta Island,2016-08-19,11:46
97936,Passer hispaniolensis,species,Spanish Sparrow,10,14.4169985324945,35.8912759555021,Europe,Malta,Malta - Malta Island,2016-08-19,12:00
97937,Pontia edusa,species,Eastern Bath White,3,14.4170818910368,35.8912371392298,Europe,Malta,Malta - Malta Island,2016-08-19,12:01
97938,Cisticola juncidis,species,Zitting Cisticola,1,14.4171126776512,35.8912369280482,Europe,Malta,Malta - Malta Island,2016-08-19,12:01
97939,Sylvia melanocephala,species,Sardinian Warbler,1,14.4177123527981,35.8911978953699,Europe,Malta,Malta - Malta Island,2016-08-19,12:12
97940,Pontia edusa,species,Eastern Bath White,2,14.4181719297527,35.8910849237423,Europe,Malta,Malta - Malta Island,2016-08-19,12:18
97941,Cisticola juncidis,species,Zitting Cisticola,1,14.4138972691491,35.892232547817,Europe,Malta,Malta - Malta Island,2016-08-19,12:29
97942,Passer hispaniolensis,species,Spanish Sparrow,1,14.4021104518206,35.8882616267335,Europe,Malta,Malta - Malta Island,2016-08-19,12:32
97943,Passer hispaniolensis,species,Spanish Sparrow,1,14.4014397215134,35.8855737511584,Europe,Malta,Malta - Malta Island,2016-08-19,12:33
97944,Passer hispaniolensis,species,Spanish Sparrow,2,14.4030424665869,35.8875071925373,Europe,Malta,Malta - Malta Island,2016-08-19,12:46
97945,Pontia edusa,species,Eastern Bath White,1,14.4015442906487,35.8854891456742,Europe,Malta,Malta - Malta Island,2016-08-19,13:00
97946,Cisticola juncidis,species,Zitting Cisticola,1,14.4169023288444,35.8561367437012,Europe,Malta,Malta - Malta Island,2016-08-19,14:59
97947,Passer hispaniolensis,species,Spanish Sparrow,1,14.4200667515278,35.8568414985172,Europe,Malta,Malta - Malta Island,2016-08-19,14:59
97948,Passer hispaniolensis,species,Spanish Sparrow,4,14.4213864370254,35.842456824545,Europe,Malta,Malta - Malta Island,2016-08-19,15:03
97949,Passer hispaniolensis,species,Spanish Sparrow,3,14.427875244131,35.8398236787397,Europe,Malta,Malta - Malta Island,2016-08-19,15:05
97950,Passer hispaniolensis,species,Spanish Sparrow,5,14.4353513335618,35.8356176497481,Europe,Malta,Malta - Malta Island,2016-08-19,15:06
97951,Passer hispaniolensis,species,Spanish Sparrow,3,14.4574072540056,35.8218657355389,Europe,Malta,Malta - Malta Island,2016-08-19,15:18
97952,Passer hispaniolensis,species,Spanish Sparrow,1,14.4987848254273,35.851996390864,Europe,Malta,Malta - Malta Island,2016-08-19,15:30
97953,Passer hispaniolensis,species,Spanish Sparrow,3,14.5110965467344,35.8628339425205,Europe,Malta,Malta - Malta Island,2016-08-19,16:04
97954,Passer hispaniolensis,species,Spanish Sparrow,1,14.4896062898819,35.8799743884789,Europe,Malta,Malta - Malta Island,2016-08-19,16:10
97955,Egretta garzetta,species,Little Egret,1,14.4234917043846,35.9444958819556,Europe,Malta,Malta - Malta Island,2016-08-19,16:28
97956,Passer hispaniolensis,species,Spanish Sparrow,3,14.4130011129556,35.9454261198884,Europe,Malta,Malta - Malta Island,2016-08-19,16:30
97957,Passer hispaniolensis,species,Spanish Sparrow,5,14.4333452358842,35.9511485585069,Europe,Malta,Malta - Malta Island,2016-08-19,17:00
97958,Calidris minuta,species,Little Stint,1,14.424730651081,35.947846898103,Europe,Malta,Malta - Salina Saltpans,2016-08-19,18:05
97959,Bubulcus ibis,species,Western Cattle Egret,1,14.4227105208411,35.9483705495911,Europe,Malta,Malta - Malta Island,2016-08-19,18:07
97960,Egretta garzetta,species,Little Egret,2,14.4227411078088,35.9482800238468,Europe,Malta,Malta - Malta Island,2016-08-19,18:07
97961,Egretta garzetta,species,Little Egret,3,14.4224510797735,35.947885240863,Europe,Malta,Malta - Malta Island,2016-08-19,18:08
97962,Podiceps nigricollis,species,Black-necked Grebe,1,14.424011819065,35.947612387978,Europe,Malta,Malta - Salina Saltpans,2016-08-19,18:08
97963,Himantopus himantopus,species,Black-winged Stilt,3,14.4224601442759,35.9478611308802,Europe,Malta,Malta - Malta Island,2016-08-19,18:08
97964,Calidris minuta,species,Little Stint,2,14.423103556037,35.946691576151,Europe,Malta,Malta - Salina Saltpans,2016-08-19,18:13
97965,Actitis hypoleucos,species,Common Sandpiper,1,14.4224885910434,35.9478568849512,Europe,Malta,Malta - Malta Island,2016-08-19,18:13
97966,Passer hispaniolensis,species,Spanish Sparrow,2,14.4214125087757,35.9464524018184,Europe,Malta,Malta - Malta Island,2016-08-19,18:22
97967,Cisticola juncidis,species,Zitting Cisticola,1,14.4208110276966,35.9453704229825,Europe,Malta,Malta - Malta Island,2016-08-19,18:25
97968,Sylvia melanocephala,species,Sardinian Warbler,1,14.4202773719269,35.9451124166441,Europe,Malta,Malta - Malta Island,2016-08-19,18:26
97969,Anax imperator,species,Blue Emperor,1,14.4203585452471,35.9450498262422,Europe,Malta,Malta - Malta Island,2016-08-19,18:26
97970,Passer hispaniolensis,species,Spanish Sparrow,10,14.4200672930431,35.9447539049858,Europe,Malta,Malta - Malta Island,2016-08-19,18:28
97971,Sylvia melanocephala,species,Sardinian Warbler,2,14.4190210908122,35.9446194974794,Europe,Malta,Malta - Malta Island,2016-08-19,18:32
97972,Pieris rapae,species,Small White,1,14.4214757985948,35.9458851737328,Europe,Malta,Malta - Malta Island,2016-08-19,18:48
97973,Sylvia melanocephala,species,Sardinian Warbler,2,14.4216332208693,35.9462983777842,Europe,Malta,Malta - Malta Island,2016-08-19,18:51
97974,Larus michahellis,species,Yellow-legged Gull,1,14.4218764649932,35.9467421414004,Europe,Malta,Malta - Malta Island,2016-08-19,18:53
97975,Passer hispaniolensis,species,Spanish Sparrow,15,14.4217933141451,35.9468351965021,Europe,Malta,Malta - Malta Island,2016-08-19,18:56
97976,Actitis hypoleucos,species,Common Sandpiper,2,14.4237810627583,35.9492245980424,Europe,Malta,Malta - Malta Island,2016-08-19,19:08
97977,Podarcis filfolensis,species,Maltese Wall Lizard,1,14.4240472653931,35.9520114034459,Europe,Malta,Malta - Malta Island,2016-08-19,19:13
97978,Podarcis filfolensis,species,Maltese Wall Lizard,5,14.4241545917629,35.9519532278412,Europe,Malta,Malta - Malta Island,2016-08-20,12:05
97979,Passer hispaniolensis,species,Spanish Sparrow,1,14.4242181551758,35.9520568748016,Europe,Malta,Malta - Malta Island,2016-08-20,12:06
97980,Passer hispaniolensis,species,Spanish Sparrow,2,14.4241824156236,35.9526385782992,Europe,Malta,Malta - Malta Island,2016-08-20,14:22
97981,Passer hispaniolensis,species,Spanish Sparrow,3,14.4245709,35.9518555,Europe,Malta,Malta - Malta Island,2016-08-20,18:15
97982,Larus michahellis,species,Yellow-legged Gull,60,14.4353880733252,35.9695937362081,Europe,Malta,Malta - Malta Island,2016-08-20,18:16
97983,Larus michahellis,species,Yellow-legged Gull,75,14.4333452358842,35.9511485585069,Europe,Malta,Malta - Malta Island,2016-08-20,18:16
97984,Passer hispaniolensis,species,Spanish Sparrow,10,14.4333452358842,35.9511485585069,Europe,Malta,Malta - Malta Island,2016-08-20,18:16
97985,Passer hispaniolensis,species,Spanish Sparrow,2,14.4247007069808,35.9516826089474,Europe,Malta,Malta - Malta Island,2016-08-21,07:13
97986,Actitis hypoleucos,species,Common Sandpiper,2,14.4244774623562,35.9506326760728,Europe,Malta,Malta - Malta Island,2016-08-21,07:15
97987,Passer hispaniolensis,species,Spanish Sparrow,6,14.4244281217204,35.9505703318626,Europe,Malta,Malta - Malta Island,2016-08-21,07:15
97988,Actitis hypoleucos,species,Common Sandpiper,1,14.4239181308406,35.9492158778358,Europe,Malta,Malta - Malta Island,2016-08-21,07:20
97989,Calidris minuta,species,Little Stint,1,14.424498304725,35.948428691921,Europe,Malta,Malta - Salina Saltpans,2016-08-21,07:21
97990,Actitis hypoleucos,species,Common Sandpiper,1,14.4228464188574,35.9481831834961,Europe,Malta,Malta - Malta Island,2016-08-21,07:24
97991,Podiceps nigricollis,species,Black-necked Grebe,1,14.423904530704,35.94762107355,Europe,Malta,Malta - Salina Saltpans,2016-08-21,07:25
97992,Calidris minuta,species,Little Stint,1,14.423189386725,35.9466742048,Europe,Malta,Malta - Salina Saltpans,2016-08-21,07:28
97993,Cisticola juncidis,species,Zitting Cisticola,1,14.4224332184667,35.9478681403853,Europe,Malta,Malta - Malta Island,2016-08-21,07:28
97994,Larus michahellis,species,Yellow-legged Gull,2,14.4229792,35.949509,Europe,Malta,Malta - Malta Island,2016-08-21,07:28
97995,Passer hispaniolensis,species,Spanish Sparrow,5,14.4224388103459,35.9478770269836,Europe,Malta,Malta - Malta Island,2016-08-21,07:29
97996,Sylvia melanocephala,species,Sardinian Warbler,1,14.4216892259904,35.9464278421226,Europe,Malta,Malta - Malta Island,2016-08-21,07:32
97997,Pieris rapae,species,Small White,2,14.4214931062206,35.9460695775086,Europe,Malta,Malta - Malta Island,2016-08-21,07:33
97998,Cisticola juncidis,species,Zitting Cisticola,1,14.4209763282709,35.945391160171,Europe,Malta,Malta - Malta Island,2016-08-21,07:38
97999,Passer hispaniolensis,species,Spanish Sparrow,6,14.420315485507,35.9447818220536,Europe,Malta,Malta - Malta Island,2016-08-21,07:40
98000,Sylvia melanocephala,species,Sardinian Warbler,2,14.4201539487989,35.9447628659191,Europe,Malta,Malta - Malta Island,2016-08-21,07:43
98001,Passer hispaniolensis,species,Spanish Sparrow,15,14.4188205421043,35.9442587512206,Europe,Malta,Malta - Malta Island,2016-08-21,07:45
98002,Sylvia melanocephala,species,Sardinian Warbler,1,14.4187663290559,35.9442570899537,Europe,Malta,Malta - Malta Island,2016-08-21,07:45
98003,Sylvia melanocephala,species,Sardinian Warbler,1,14.4183696390915,35.9438601925151,Europe,Malta,Malta - Malta Island,2016-08-21,07:46
98004,Alcedo atthis,species,Common Kingfisher,1,14.420183849739,35.9432363357453,Europe,Malta,Malta - Malta Island,2016-08-21,07:50
98005,Calidris minuta,species,Little Stint,1,14.421386942267,35.943651531657,Europe,Malta,Malta - Salina Saltpans,2016-08-21,07:52
98006,Egretta garzetta,species,Little Egret,1,14.4208777674451,35.9429689333476,Europe,Malta,Malta - Malta Island,2016-08-21,07:52
98007,Cisticola juncidis,species,Zitting Cisticola,1,14.4208729762981,35.9430174917903,Europe,Malta,Malta - Malta Island,2016-08-21,07:52
98008,Vanessa cardui,species,Painted Lady,1,14.4219816281645,35.9435752859152,Europe,Malta,Malta - Malta Island,2016-08-21,07:54
98009,Passer hispaniolensis,species,Spanish Sparrow,2,14.4224045101315,35.9438985010006,Europe,Malta,Malta - Malta Island,2016-08-21,07:57
98010,Cisticola juncidis,species,Zitting Cisticola,10,14.4229794095452,35.9436994363193,Europe,Malta,Malta - Malta Island,2016-08-21,08:00
98011,Passer hispaniolensis,species,Spanish Sparrow,30,14.4229254440867,35.9437320588879,Europe,Malta,Malta - Malta Island,2016-08-21,08:00
98012,Sylvia melanocephala,species,Sardinian Warbler,1,14.4231739108565,35.9434128743946,Europe,Malta,Malta - Malta Island,2016-08-21,08:15
98013,Sylvia melanocephala,species,Sardinian Warbler,2,14.4243876012265,35.9425042231006,Europe,Malta,Malta - Malta Island,2016-08-21,08:24
98014,Pieris rapae,species,Small White,1,14.4234491823134,35.9432462588262,Europe,Malta,Malta - Malta Island,2016-08-21,08:26
98015,Egretta garzetta,species,Little Egret,2,14.4212169206423,35.9461970347432,Europe,Malta,Malta - Malta Island,2016-08-21,08:59
98016,Sylvia melanocephala,species,Sardinian Warbler,1,14.421710299153,35.9469827606884,Europe,Malta,Malta - Malta Island,2016-08-21,09:03
98017,Podarcis filfolensis,species,Maltese Wall Lizard,2,14.4241556775681,35.9519497516665,Europe,Malta,Malta - Malta Island,2016-08-21,12:05
98018,Cacyreus marshalli,species,Geranium Bronze,1,14.4242559760888,35.9520969020491,Europe,Malta,Malta - Malta Island,2016-08-21,12:07
98019,Cacyreus marshalli,species,Geranium Bronze,1,14.4245074367852,35.9527486553341,Europe,Malta,Malta - Malta Island,2016-08-21,14:12
98020,Passer hispaniolensis,species,Spanish Sparrow,5,14.4243531997128,35.9514902505988,Europe,Malta,Malta - Malta Island,2016-08-21,17:13
98021,Passer hispaniolensis,species,Spanish Sparrow,5,14.4242486629684,35.9514503192579,Europe,Malta,Malta - Malta Island,2016-08-22,07:10
98022,Sylvia melanocephala,species,Sardinian Warbler,1,14.424260414692,35.9519926314506,Europe,Malta,Malta - Malta Island,2016-08-22,08:23
98023,Podarcis filfolensis,species,Maltese Wall Lizard,6,14.4242584433284,35.9520353725971,Europe,Malta,Malta - Malta Island,2016-08-22,08:23
98024,Cacyreus marshalli,species,Geranium Bronze,1,14.4242663965547,35.951997071371,Europe,Malta,Malta - Malta Island,2016-08-22,08:24
98025,Larus michahellis,species,Yellow-legged Gull,1,14.4333353164206,35.9539658148578,Europe,Malta,Malta - Malta Island,2016-08-22,09:09
98026,Passer hispaniolensis,species,Spanish Sparrow,1,14.4749824777879,35.9235378576307,Europe,Malta,Malta - Malta Island,2016-08-22,09:17
98027,Passer hispaniolensis,species,Spanish Sparrow,1,14.5022255948527,35.9081208218027,Europe,Malta,Malta - Malta Island,2016-08-22,09:54
98028,Calonectris diomedea,species,Scopoli's Shearwater,4,14.5155237996989,35.9103609844674,Europe,Malta,Malta - Malta Island,2016-08-22,10:37
98029,Calonectris diomedea,species,Scopoli's Shearwater,1,14.5115511998121,35.9140211871823,Europe,Malta,Malta - Malta Island,2016-08-22,10:39
98030,Calonectris diomedea,species,Scopoli's Shearwater,1,14.5087736372155,35.916907811205,Europe,Malta,Malta - Malta Island,2016-08-22,10:41
98031,Calonectris diomedea,species,Scopoli's Shearwater,1,14.4924524079981,35.9316319799297,Europe,Malta,Malta - Malta Island,2016-08-22,10:49
98032,Calonectris diomedea,species,Scopoli's Shearwater,1,14.4841290425884,35.9381999789881,Europe,Malta,Malta - Malta Island,2016-08-22,10:53
98033,Calonectris diomedea,species,Scopoli's Shearwater,1,14.467080583464,35.9457240719311,Europe,Malta,Malta - Malta Island,2016-08-22,11:00
98034,Calonectris diomedea,species,Scopoli's Shearwater,2,14.4526137872014,35.9528626766914,Europe,Malta,Malta - Malta Island,2016-08-22,11:05
98035,Larus michahellis,species,Yellow-legged Gull,4,14.4352997645764,35.9601179042532,Europe,Malta,Malta - Malta Island,2016-08-22,11:12
98036,Larus michahellis,species,Yellow-legged Gull,5,14.4297006702803,35.9628373601313,Europe,Malta,Malta - Malta Island,2016-08-22,11:14
98037,Calonectris diomedea,species,Scopoli's Shearwater,1,14.418314367568,35.967507019398,Europe,Malta,Malta - Malta Island,2016-08-22,11:18
98038,Larus michahellis,species,Yellow-legged Gull,25,14.4175216084247,35.9677807255616,Europe,Malta,Malta - Malta Island,2016-08-22,11:19
98039,Calonectris diomedea,species,Scopoli's Shearwater,1,14.4134611341955,35.969477985015,Europe,Malta,Malta - Malta Island,2016-08-22,11:20
98040,Larus michahellis,species,Yellow-legged Gull,7,14.4044060103157,35.9726289196381,Europe,Malta,Malta - Malta Island,2016-08-22,11:24
98041,Calonectris diomedea,species,Scopoli's Shearwater,1,14.3558830368561,36.0081798947327,Europe,Malta,Malta - Comino Island,2016-08-22,11:45
98042,Larus michahellis,species,Yellow-legged Gull,3,14.350987489203,36.0127803310008,Europe,Malta,Malta - Comino Island,2016-08-22,11:48
98043,Passer hispaniolensis,species,Spanish Sparrow,3,14.3235761750799,36.0149844826306,Europe,Malta,Malta - Comino Island,2016-08-22,16:15
98044,Podarcis filfolensis,species,Maltese Wall Lizard,1,14.3236184577663,36.0149600634357,Europe,Malta,Malta - Comino Island,2016-08-22,16:16
98045,Calonectris diomedea,species,Scopoli's Shearwater,1,14.322523827749,36.0205585731622,Europe,Malta,Malta - Comino Island,2016-08-22,16:41
98046,Calonectris diomedea,species,Scopoli's Shearwater,7,14.3461023782423,36.0185761704791,Europe,Malta,Malta - Comino Island,2016-08-22,16:50
98047,Larus michahellis,species,Yellow-legged Gull,8,14.3521906756783,36.0137621175894,Europe,Malta,Malta - Comino Island,2016-08-22,16:52
98048,Larus michahellis,species,Yellow-legged Gull,2,14.3732083125384,35.9965148310955,Europe,Malta,Malta - Malta Island,2016-08-22,17:01
98049,Calonectris diomedea,species,Scopoli's Shearwater,1,14.3794742898299,35.991783886292,Europe,Malta,Malta - Malta Island,2016-08-22,17:04
98050,Larus michahellis,species,Yellow-legged Gull,1,14.3871078450929,35.9865546780519,Europe,Malta,Malta - Malta Island,2016-08-22,17:07
98051,Larus michahellis,species,Yellow-legged Gull,2,14.4164277884703,35.9705932655415,Europe,Malta,Malta - Malta Island,2016-08-22,17:17
98052,Larus michahellis,species,Yellow-legged Gull,60,14.4351150342751,35.9616468533766,Europe,Malta,Malta - Malta Island,2016-08-22,17:24
98053,Calonectris diomedea,species,Scopoli's Shearwater,5,14.436106208494,35.9611188211452,Europe,Malta,Malta - Malta Island,2016-08-22,17:24
98054,Calonectris diomedea,species,Scopoli's Shearwater,1,14.4414511879937,35.9589177085743,Europe,Malta,Malta - Malta Island,2016-08-22,17:26
98055,Calonectris diomedea,species,Scopoli's Shearwater,5,14.4524350134818,35.9541158851825,Europe,Malta,Malta - Malta Island,2016-08-22,17:29
98056,Calonectris diomedea,species,Scopoli's Shearwater,1,14.4764903846595,35.9422408501684,Europe,Malta,Malta - Malta Island,2016-08-22,17:38
98057,Calonectris diomedea,species,Scopoli's Shearwater,2,14.4812698031319,35.9400279177817,Europe,Malta,Malta - Malta Island,2016-08-22,17:39
98058,Calonectris diomedea,species,Scopoli's Shearwater,1,14.4867980458679,35.9363124714167,Europe,Malta,Malta - Malta Island,2016-08-22,17:41
98059,Calonectris diomedea,species,Scopoli's Shearwater,4,14.4885824059104,35.9348252123067,Europe,Malta,Malta - Malta Island,2016-08-22,17:42
98060,Calonectris diomedea,species,Scopoli's Shearwater,2,14.494853956064,35.9304615599406,Europe,Malta,Malta - Malta Island,2016-08-22,17:45
98061,Calonectris diomedea,species,Scopoli's Shearwater,2,14.4989735054218,35.9270304081671,Europe,Malta,Malta - Malta Island,2016-08-22,17:46
98062,Calonectris diomedea,species,Scopoli's Shearwater,11,14.5027552934872,35.9237251458714,Europe,Malta,Malta - Malta Island,2016-08-22,17:48
98063,Calonectris diomedea,species,Scopoli's Shearwater,17,14.5115644357393,35.915852594191,Europe,Malta,Malta - Malta Island,2016-08-22,17:52
98064,Larus michahellis,species,Yellow-legged Gull,1,14.5129138245048,35.9140367056155,Europe,Malta,Malta - Malta Island,2016-08-22,17:53
98065,Larus michahellis,species,Yellow-legged Gull,40,14.4240013929767,35.9520316074667,Europe,Malta,Malta - Malta Island,2016-08-22,19:23
98222,Calonectris diomedea,species,Scopoli's Shearwater,1,14.393033981323,36.022411972393,Europe,Malta,Malta,2016-08-22,
98228,Sterna hirundo,species,Common Tern,1,14.393033981323,36.022411972393,Europe,Malta,Malta,2016-08-22,
98265,Sympetrum fonscolombii,species,Red-veined Darter,1,14.341739416122,36.010779135216,Europe,Malta,Malta - Comino Island,2016-08-22,
98266,Anax parthenope,species,Lesser Emperor,1,14.341739416122,36.010779135216,Europe,Malta,Malta - Comino Island,2016-08-22,
2630,Calonectris diomedea,species,Scopoli's Shearwater,10,14.316500164568,35.954579131846,Europe,Malta,Malta - Malta Island,2016-04-20,06:43
13748,Monticola solitarius,species,Blue Rock Thrush,7,14.33960091,35.93532096,Europe,Malta,Malta - Malta Island,2016-04-20,06:16
13749,Larus michahellis,species,Yellow-legged Gull,6,14.3396398,35.93535583,Europe,Malta,Malta - Malta Island,2016-04-20,06:24
13750,Passer hispaniolensis,species,Spanish Sparrow,6,14.33963314,35.93534697,Europe,Malta,Malta - Malta Island,2016-04-20,06:28
13751,Saxicola rubetra,species,Whinchat,50,14.33929111,35.93732974,Europe,Malta,Malta - Malta Island,2016-04-20,06:50
13752,Cisticola juncidis,species,Zitting Cisticola,1,14.33593372,35.94024401,Europe,Malta,Malta - Malta Island,2016-04-20,07:46
13753,Calandrella brachydactyla,species,Greater Short-toed Lark,1,14.33612402,35.9401911,Europe,Malta,Malta - Malta Island,2016-04-20,07:46
13754,Merops apiaster,species,European Bee-eater,23,14.44944533,35.89404012,Europe,Malta,Malta - Malta Island,2016-04-20,13:00
7474,Podarcis filfolensis,species,Maltese Wall Lizard,1,14.2687100731,36.0475128826,Europe,Malta,Malta - Gozo Island,2015-04-20,
7506,Podarcis filfolensis,species,Maltese Wall Lizard,1,14.38119808156902,35.98410693571847,Europe,Malta,Malta,2015-04-24,
32320,Pisania striata,species,,1,14.4994927882,35.9182981426,Europe,Malta,Malta - Malta Island,2015-10-21,
95585,Podarcis filfolensis,species,Maltese Wall Lizard,1,14.5114696026,35.9082657725,Europe,Malta,Malta - Malta Island,2015-08-19,
95593,Atelerix algirus,species,Algerian Hedgehog,1,14.3969714642,35.8530483025,Europe,Malta,Malta - Malta Island,2015-08-18,
95861,Sylvia melanocephala,species,Sardinian Warbler,2,14.3972396851,35.8588482933,Europe,Malta,Malta - Malta Island,2015-08-18,
95867,Muscicapa striata,species,Spotted Flycatcher,1,14.3972396851,35.8588482933,Europe,Malta,Malta - Malta Island,2015-08-18,
95883,Leptotes pirithous,species,Lang’s Short-tailed Blue,6,14.4030064344,35.8838564354,Europe,Malta,Malta - Malta Island,2015-08-18,
95885,Podarcis filfolensis,species,Maltese Wall Lizard,10,14.4030064344,35.8838564354,Europe,Malta,Malta - Malta Island,2015-08-18,
96569,Larus michahellis,species,Yellow-legged Gull,50,14.4496393204,35.9483421085,Europe,Malta,Malta - Malta Island,2015-08-15,
96577,Podarcis filfolensis,species,Maltese Wall Lizard,1,14.4108009338,35.9484115924,Europe,Malta,Malta - Malta Island,2015-08-15,
96742,Passer hispaniolensis,species,Spanish Sparrow,10,14.4967979193,35.9144179799,Europe,Malta,Malta - Malta Island,2015-08-15,
96760,Passer hispaniolensis,species,Spanish Sparrow,20,14.5120811462,35.8948648179,Europe,Malta,Malta - Malta Island,2015-08-14,
96764,Podarcis filfolensis,species,Maltese Wall Lizard,2,14.5124673843,35.8949778056,Europe,Malta,Malta - Malta Island,2015-08-14,
96769,Leptotes pirithous,species,Lang’s Short-tailed Blue,10,14.5116627216,35.8947865956,Europe,Malta,Malta - Malta Island,2015-08-14,
96782,Trithemis annulata,species,Violet Dropwing,1,14.5172739029,35.8972722902,Europe,Malta,Malta - Malta Island,2015-08-14,
96793,Podarcis filfolensis,species,Maltese Wall Lizard,1,14.5184755325,35.9012440248,Europe,Malta,Malta - Malta Island,2015-08-14,
104184,Podarcis filfolensis,species,Maltese Wall Lizard,5,14.1902607678,36.0518073503,Europe,Malta,Malta - Gozo Island,2015-04-20,
121037,Passer hispaniolensis,species,Spanish Sparrow,10,14.4867467876,35.9311163199,Europe,Malta,Malta - Malta Island,2015-04-24,06:45
121038,Sylvia melanocephala,species,Sardinian Warbler,5,14.4867467876,35.9311163199,Europe,Malta,Malta - Malta Island,2015-04-24,06:45
121041,Passer hispaniolensis,species,Spanish Sparrow,75,14.3900442115,35.8911639487,Europe,Malta,Malta - Malta Island,2015-04-23,14:15
121184,Cisticola juncidis,species,Zitting Cisticola,12,14.4852018365,35.9310468208,Europe,Malta,Malta - Malta Island,2015-04-22,06:50
121186,Sylvia melanocephala,species,Sardinian Warbler,10,14.4852018365,35.9310468208,Europe,Malta,Malta - Malta Island,2015-04-22,06:50
121188,Passer hispaniolensis,species,Spanish Sparrow,30,14.4852018365,35.9310468208,Europe,Malta,Malta - Malta Island,2015-04-22,06:30
121197,Sylvia melanocephala,species,Sardinian Warbler,2,14.4016295671,35.8847755252,Europe,Malta,Malta - Malta Island,2015-04-21,16:40
121200,Ficedula albicollis,species,Collared Flycatcher,1,14.4016295671,35.8847755252,Europe,Malta,Malta - Malta Island,2015-04-21,16:40
121203,Cisticola juncidis,species,Zitting Cisticola,5,14.4037055968,35.8874744927,Europe,Malta,Malta - Malta Island,2015-04-21,15:50
121204,Cettia cetti,species,Cetti's Warbler,1,14.4037055968,35.8874744927,Europe,Malta,Malta - Malta Island,2015-04-21,15:50
121227,Larus michahellis,species,Yellow-legged Gull,2,14.329032891,35.9939706117,Europe,Malta,Malta,2015-04-20,14:30
121233,Sylvia melanocephala,species,Sardinian Warbler,1,14.4730567928,35.936537063,Europe,Malta,Malta - Malta Island,2015-04-20,15:50
121234,Cisticola juncidis,species,Zitting Cisticola,3,14.4730567928,35.936537063,Europe,Malta,Malta - Malta Island,2015-04-20,15:50
121560,Passer hispaniolensis,species,Spanish Sparrow,10,14.4730567928,35.936537063,Europe,Malta,Malta - Malta Island,2015-04-19,15:00
121566,Cisticola juncidis,species,Zitting Cisticola,4,14.4733536241,35.9360465473,Europe,Malta,Malta - Malta Island,2015-04-19,15:00
121569,Sylvia melanocephala,species,Sardinian Warbler,3,14.4733536241,35.9360465473,Europe,Malta,Malta - Malta Island,2015-04-19,15:00
121578,Sylvia melanocephala,species,Sardinian Warbler,1,14.4890928266,35.9299481474,Europe,Malta,Malta - Malta Island,2015-04-18,17:35
121582,Passer hispaniolensis,species,Spanish Sparrow,30,14.4896006583,35.9207429002,Europe,Malta,Malta - Malta Island,2015-04-18,17:00
