,scientificName,taxonRank,vernacularName,individualCount,longitudeDecimal,latitudeDecimal,continent,country,locality,eventDate,eventTime
16182,Acridotheres tristis,species,Common Myna,2,51.5462243555,25.2914106243,Asia,Qatar,Qatar - Doha,2015-02-27,05:49
87478,Ichthyaetus ichthyaetus,species,Pallas's Gull,7,51.3790369025,26.0278437076,Asia,Qatar,Qatar - Madinat ash Shamal,2014-02-23,14:30
3996,Spilopelia senegalensis cambayensis,subspecies,Laughing Dove ssp cambayensis,1,51.6090206802,25.2603380737,Asia,Qatar,Qatar - Doha,2014-07-14,
79234,Diplacodes lefebvrii,species,Black Percher,3,51.3589885086,25.1503542211,Asia,Qatar,Qatar,2014-02-22,
79259,Crocothemis erythraea,species,Broad Scarlet,3,51.3589885086,25.1503542211,Asia,Qatar,Qatar,2014-02-22,
82456,Felis catus,species,Domesticated Cat,1,51.6045,25.179,Asia,Qatar,Qatar - Al Wakrah,2014-02-23,23:23
98633,Acridotheres tristis,species,Common Myna,2,51.4705,25.3191,Asia,Qatar,Qatar - Doha,2014-02-23,12:38
98634,Spilopelia senegalensis cambayensis,subspecies,Laughing Dove ssp cambayensis,2,51.475,25.2955,Asia,Qatar,Qatar - Doha,2014-02-23,12:36
98635,Columba livia domestica,forma,Feral Pigeon,20,51.4917,25.272,Asia,Qatar,Qatar - Doha,2014-02-23,12:34
98636,Spilopelia senegalensis cambayensis,subspecies,Laughing Dove ssp cambayensis,2,51.5229,25.2545,Asia,Qatar,Qatar - Doha,2014-02-23,12:30
98637,Columba livia domestica,forma,Feral Pigeon,2,51.5273,25.2544,Asia,Qatar,Qatar - Doha,2014-02-23,12:30
98638,Spilopelia senegalensis cambayensis,subspecies,Laughing Dove ssp cambayensis,2,51.5292,25.2544,Asia,Qatar,Qatar - Doha,2014-02-23,12:29
98639,Spilopelia senegalensis cambayensis,subspecies,Laughing Dove ssp cambayensis,1,51.5539,25.2603,Asia,Qatar,Qatar - Doha,2014-02-23,12:24
98640,Columba livia domestica,forma,Feral Pigeon,3,51.5555,25.262,Asia,Qatar,Qatar - Doha,2014-02-23,12:24
98641,Spilopelia senegalensis cambayensis,subspecies,Laughing Dove ssp cambayensis,1,51.561,25.2593,Asia,Qatar,Qatar - Doha,2014-02-23,12:23
98643,Vanessa cardui,species,Painted Lady,1,51.5686,25.2454,Asia,Qatar,Qatar - Doha,2014-02-23,12:22
98644,Passer domesticus,species,House Sparrow,1,51.573,25.237,Asia,Qatar,Qatar - Doha,2014-02-23,12:21
98646,Columba livia domestica,forma,Feral Pigeon,15,51.5776,25.2294,Asia,Qatar,Qatar - Doha,2014-02-23,12:20
104903,Motacilla alba,species,White Wagtail,5,51.3616063446,25.1478291541,Asia,Qatar,Qatar,2014-02-22,12:00
104904,Spatula clypeata,species,Northern Shoveler,16,51.362901181,25.152354814,Asia,Qatar,Qatar,2014-02-22,12:00
104905,Aythya ferina,species,Common Pochard,8,51.3623861969,25.1521994293,Asia,Qatar,Qatar,2014-02-22,12:00
104906,Egretta garzetta,species,Little Egret,1,51.3637594879,25.148625527,Asia,Qatar,Qatar,2014-02-22,12:00
104907,Ardea purpurea purpurea,subspecies,Purple Heron ssp purpurea,2,51.3637594879,25.148625527,Asia,Qatar,Qatar,2014-02-22,12:00
104908,Ardea cinerea,species,Grey Heron,2,51.3637594879,25.148625527,Asia,Qatar,Qatar,2014-02-22,12:00
104909,Phalacrocorax carbo carbo,subspecies,Atlantic Great Cormorant,100,51.3638594002,25.1497132475,Asia,Qatar,Qatar,2014-02-22,12:00
104910,Tachybaptus ruficollis ruficollis,subspecies,Little Grebe ssp ruficollis,1,51.3622071594,25.1486449507,Asia,Qatar,Qatar,2014-02-22,12:00
104911,Podiceps cristatus cristatus,subspecies,Great Crested Grebe ssp cristatus,10,51.3605083153,25.1501891222,Asia,Qatar,Qatar,2014-02-22,12:00
105088,Columba livia domestica,forma,Feral Pigeon,50,51.5336931031,25.2889292261,Asia,Qatar,Qatar - Doha,2014-02-22,22:00
112444,Spilopelia senegalensis cambayensis,subspecies,Laughing Dove ssp cambayensis,1,51.5985,25.1797,Asia,Qatar,Qatar - Al Wakrah,2014-02-22,15:15
112445,Columba livia domestica,forma,Feral Pigeon,3,51.598,25.1794,Asia,Qatar,Qatar - Al Wakrah,2014-02-22,15:15
112446,Spilopelia senegalensis cambayensis,subspecies,Laughing Dove ssp cambayensis,1,51.5973,25.1769,Asia,Qatar,Qatar - Al Wakrah,2014-02-22,15:14
112447,Columba livia domestica,forma,Feral Pigeon,4,51.5973,25.1749,Asia,Qatar,Qatar - Al Wakrah,2014-02-22,15:14
112448,Galerida cristata,species,Crested Lark,2,51.2526,25.171,Asia,Qatar,Qatar - Al Rayyan,2014-02-22,13:24
112449,Pycnonotus leucotis,species,White-eared Bulbul,1,51.5247,25.1483,Asia,Qatar,Qatar - Al Wakrah,2014-02-22,10:15
112450,Spilopelia senegalensis cambayensis,subspecies,Laughing Dove ssp cambayensis,2,51.5988,25.1797,Asia,Qatar,Qatar - Al Wakrah,2014-02-22,10:03
112451,Passer domesticus,species,House Sparrow,1,51.6012,25.1718,Asia,Qatar,Qatar - Al Wakrah,2014-02-22,09:02
112452,Spilopelia senegalensis cambayensis,subspecies,Laughing Dove ssp cambayensis,1,51.601,25.1715,Asia,Qatar,Qatar - Al Wakrah,2014-02-22,09:01
114723,Trigonella glabra,species,Egyptian fenugreek,1,51.59874212,25.1728929845,Asia,Qatar,Qatar - Al Wakrah,2014-02-21,
114832,Streptopelia decaocto,species,Eurasian Collared Dove,2,51.5997183602,25.1733517765,Asia,Qatar,Qatar - Al Wakrah,2014-02-21,
114873,Cenchrus ciliaris,species,Buffel-grass,1,51.5986061655,25.1788838464,Asia,Qatar,Qatar - Al Wakrah,2014-02-21,
118291,Acridotheres tristis,species,Common Myna,2,51.6011,25.1716,Asia,Qatar,Qatar - Al Wakrah,2014-02-21,17:06
118588,Columba livia domestica,forma,Feral Pigeon,1,51.6015,25.1707,Asia,Qatar,Qatar - Al Wakrah,2014-02-21,16:37
118589,Spilopelia senegalensis cambayensis,subspecies,Laughing Dove ssp cambayensis,6,51.6013,25.1708,Asia,Qatar,Qatar - Al Wakrah,2014-02-21,16:37
118590,Passer domesticus,species,House Sparrow,1,51.6014,25.1716,Asia,Qatar,Qatar - Al Wakrah,2014-02-21,16:34
118591,Columba livia domestica,forma,Feral Pigeon,1,51.6014,25.1717,Asia,Qatar,Qatar - Al Wakrah,2014-02-21,16:33
118592,Spilopelia senegalensis cambayensis,subspecies,Laughing Dove ssp cambayensis,1,51.6014,25.1717,Asia,Qatar,Qatar - Al Wakrah,2014-02-21,16:33
118593,Streptopelia decaocto,species,Eurasian Collared Dove,1,51.5991,25.1729,Asia,Qatar,Qatar - Al Wakrah,2014-02-21,16:24
118594,Spilopelia senegalensis cambayensis,subspecies,Laughing Dove ssp cambayensis,1,51.5991,25.1729,Asia,Qatar,Qatar - Al Wakrah,2014-02-21,16:23
118595,Pycnonotus leucotis,species,White-eared Bulbul,1,51.5991,25.1729,Asia,Qatar,Qatar - Al Wakrah,2014-02-21,16:23
118596,Passer domesticus,species,House Sparrow,5,51.5991,25.1729,Asia,Qatar,Qatar - Al Wakrah,2014-02-21,16:23
118597,Streptopelia decaocto,species,Eurasian Collared Dove,1,51.5989,25.1791,Asia,Qatar,Qatar - Al Wakrah,2014-02-21,15:47
118598,Spilopelia senegalensis cambayensis,subspecies,Laughing Dove ssp cambayensis,1,51.599,25.1791,Asia,Qatar,Qatar - Al Wakrah,2014-02-21,15:44
118599,Columba livia domestica,forma,Feral Pigeon,6,51.5989,25.179,Asia,Qatar,Qatar - Al Wakrah,2014-02-21,15:38
118600,Passer domesticus,species,House Sparrow,2,51.5997,25.176,Asia,Qatar,Qatar - Al Wakrah,2014-02-21,15:23
118601,Acridotheres tristis,species,Common Myna,1,51.5996,25.1758,Asia,Qatar,Qatar - Al Wakrah,2014-02-21,15:23
118602,Streptopelia decaocto,species,Eurasian Collared Dove,1,51.5989,25.173,Asia,Qatar,Qatar - Al Wakrah,2014-02-21,15:03
118603,Pycnonotus leucotis,species,White-eared Bulbul,1,51.5989,25.173,Asia,Qatar,Qatar - Al Wakrah,2014-02-21,15:03
118604,Spilopelia senegalensis cambayensis,subspecies,Laughing Dove ssp cambayensis,1,51.5989,25.173,Asia,Qatar,Qatar - Al Wakrah,2014-02-21,15:02
118605,Columba livia domestica,forma,Feral Pigeon,2,51.5989,25.173,Asia,Qatar,Qatar - Al Wakrah,2014-02-21,15:02
118606,Passer domesticus,species,House Sparrow,6,51.5989,25.173,Asia,Qatar,Qatar - Al Wakrah,2014-02-21,15:02
118607,Columba livia domestica,forma,Feral Pigeon,3,51.5981,25.1725,Asia,Qatar,Qatar - Al Wakrah,2014-02-21,14:53
118608,Acridotheres tristis,species,Common Myna,2,51.5979,25.1722,Asia,Qatar,Qatar - Al Wakrah,2014-02-21,14:45
118609,Spilopelia senegalensis cambayensis,subspecies,Laughing Dove ssp cambayensis,1,51.5982,25.1722,Asia,Qatar,Qatar - Al Wakrah,2014-02-21,14:44
118610,Passer domesticus,species,House Sparrow,2,51.5987,25.1722,Asia,Qatar,Qatar - Al Wakrah,2014-02-21,14:43
118611,Spilopelia senegalensis cambayensis,subspecies,Laughing Dove ssp cambayensis,2,51.5987,25.1722,Asia,Qatar,Qatar - Al Wakrah,2014-02-21,14:43
119484,Spilopelia senegalensis cambayensis,subspecies,Laughing Dove ssp cambayensis,1,51.6018,25.1714,Asia,Qatar,Qatar - Al Wakrah,2014-02-21,13:45
119485,Passer domesticus,species,House Sparrow,2,51.6007,25.172,Asia,Qatar,Qatar - Al Wakrah,2014-02-21,13:37
119486,Pycnonotus leucotis,species,White-eared Bulbul,1,51.6007,25.1719,Asia,Qatar,Qatar - Al Wakrah,2014-02-21,13:28
119487,Streptopelia decaocto,species,Eurasian Collared Dove,1,51.6007,25.172,Asia,Qatar,Qatar - Al Wakrah,2014-02-21,13:25
119488,Cloeon spec.,multispecies,,1,51.6008,25.172,Asia,Qatar,Qatar - Al Wakrah,2014-02-21,13:22
119489,Columba livia domestica,forma,Feral Pigeon,4,51.6016,25.1712,Asia,Qatar,Qatar - Al Wakrah,2014-02-21,13:13
119490,Solanum villosum,species,Yellow Nightshade,1,51.6016,25.1713,Asia,Qatar,Qatar - Al Wakrah,2014-02-21,13:10
119491,Passer domesticus,species,House Sparrow,2,51.6017,25.1714,Asia,Qatar,Qatar - Al Wakrah,2014-02-21,13:07
770,Cistanche phelypaea,species,,1,51.6155434773,25.1804179257,Asia,Qatar,Qatar - Al Wakrah,2014-02-20,
855,Trigonella glabra,species,Egyptian fenugreek,1,51.5996861737,25.1794809745,Asia,Qatar,Qatar - Al Wakrah,2014-02-20,
1085,Scoliidae indet.,multispecies,Scoliid unknown,1,51.612202283,25.1803960797,Asia,Qatar,Qatar - Al Wakrah,2014-02-20,
1088,Hymenoptera indet.,multispecies,Hymenoptera unknown,1,51.6112920921,25.1799397416,Asia,Qatar,Qatar - Al Wakrah,2014-02-20,
1107,Canis familiaris,species,Feral Dog,1,51.6168416664,25.1801169369,Asia,Qatar,Qatar - Al Wakrah,2014-02-20,
1112,Spilopelia senegalensis cambayensis,subspecies,Laughing Dove ssp cambayensis,2,51.6119635664,25.1799688696,Asia,Qatar,Qatar - Al Wakrah,2014-02-20,
1115,Spilopelia senegalensis cambayensis,subspecies,Laughing Dove ssp cambayensis,1,51.6125697456,25.1804252077,Asia,Qatar,Qatar - Al Wakrah,2014-02-20,
1846,Spilopelia senegalensis cambayensis,subspecies,Laughing Dove ssp cambayensis,2,51.6017026822,25.171604855,Asia,Qatar,Qatar - Al Wakrah,2014-02-20,16:30
1847,Passer domesticus,species,House Sparrow,1,51.6020946356,25.1718441676,Asia,Qatar,Qatar - Al Wakrah,2014-02-20,16:29
1848,Pycnonotus leucotis,species,White-eared Bulbul,1,51.6021973178,25.1724975725,Asia,Qatar,Qatar - Al Wakrah,2014-02-20,16:29
1849,Spilopelia senegalensis cambayensis,subspecies,Laughing Dove ssp cambayensis,1,51.6037026822,25.1722024275,Asia,Qatar,Qatar - Al Wakrah,2014-02-20,16:26
1850,Psittacula krameri,species,Rose-ringed Parakeet,1,51.6038,25.1731194198,Asia,Qatar,Qatar - Al Wakrah,2014-02-20,16:25
1851,Spilopelia senegalensis cambayensis,subspecies,Laughing Dove ssp cambayensis,1,51.6052,25.1745048549,Asia,Qatar,Qatar - Al Wakrah,2014-02-20,16:21
1852,Acridotheres tristis,species,Common Myna,1,51.6054946356,25.1747024274,Asia,Qatar,Qatar - Al Wakrah,2014-02-20,16:20
1853,Passer domesticus,species,House Sparrow,4,51.6055,25.1747242744,Asia,Qatar,Qatar - Al Wakrah,2014-02-20,16:20
1854,Columba livia domestica,forma,Feral Pigeon,6,51.6054429153,25.1761,Asia,Qatar,Qatar - Al Wakrah,2014-02-20,16:15
1855,Columba livia domestica,forma,Feral Pigeon,30,51.6057160933,25.1775,Asia,Qatar,Qatar - Al Wakrah,2014-02-20,16:12
1856,Passer domesticus,species,House Sparrow,1,51.6062,25.1777072821,Asia,Qatar,Qatar - Al Wakrah,2014-02-20,16:11
1857,Felis catus,species,Domesticated Cat,1,51.6083053644,25.1777024274,Asia,Qatar,Qatar - Al Wakrah,2014-02-20,16:08
1858,Passer domesticus,species,House Sparrow,1,51.6106214577,25.1789194188,Asia,Qatar,Qatar - Al Wakrah,2014-02-20,16:03
1859,Columba livia domestica,forma,Feral Pigeon,4,51.6128214577,25.1809262204,Asia,Qatar,Qatar - Al Wakrah,2014-02-20,15:54
1860,Acridotheres tristis,species,Common Myna,2,51.6120107288,25.1796048547,Asia,Qatar,Qatar - Al Wakrah,2014-02-20,15:47
1861,Felis catus,species,Domesticated Cat,3,51.6120107288,25.1796048547,Asia,Qatar,Qatar - Al Wakrah,2014-02-20,15:47
1862,Vanessa cardui,species,Painted Lady,3,51.6113107288,25.1799242734,Asia,Qatar,Qatar - Al Wakrah,2014-02-20,15:39
1863,Acridotheres tristis,species,Common Myna,3,51.6108,25.18,Asia,Qatar,Qatar - Al Wakrah,2014-02-20,15:33
1864,Passer domesticus,species,House Sparrow,8,51.6109107288,25.1801,Asia,Qatar,Qatar - Al Wakrah,2014-02-20,15:33
1865,Passer domesticus,species,House Sparrow,1,51.6124214577,25.1807194186,Asia,Qatar,Qatar - Al Wakrah,2014-02-20,15:22
1866,Pycnonotus leucotis,species,White-eared Bulbul,1,51.6124107288,25.1807097093,Asia,Qatar,Qatar - Al Wakrah,2014-02-20,15:22
1867,Papilio demoleus,species,Lemon Butterfly,1,51.613,25.1805097093,Asia,Qatar,Qatar - Al Wakrah,2014-02-20,15:17
1868,Pycnonotus cafer,species,Red-vented Bulbul,2,51.6131026822,25.1804048547,Asia,Qatar,Qatar - Al Wakrah,2014-02-20,15:09
1869,Streptopelia decaocto,species,Eurasian Collared Dove,4,51.6130892712,25.1803097093,Asia,Qatar,Qatar - Al Wakrah,2014-02-20,15:02
1870,Pycnonotus leucotis,species,White-eared Bulbul,2,51.6131214577,25.1803194186,Asia,Qatar,Qatar - Al Wakrah,2014-02-20,15:01
1871,Pycnonotus leucotis,species,White-eared Bulbul,2,51.6170239728,25.1800052797,Asia,Qatar,Qatar - Al Wakrah,2014-02-20,14:45
1872,Chroicocephalus genei,species,Slender-billed Gull,10,51.6212858307,25.1814495324,Asia,Qatar,Qatar - Al Wakrah,2014-02-20,14:23
1873,Vanessa cardui,species,Painted Lady,1,51.6167,25.1805194186,Asia,Qatar,Qatar - Al Wakrah,2014-02-20,14:07
1874,Acridotheres tristis,species,Common Myna,2,51.6163,25.1801339826,Asia,Qatar,Qatar - Al Wakrah,2014-02-20,14:04
1875,Passer domesticus,species,House Sparrow,2,51.6154107288,25.181,Asia,Qatar,Qatar - Al Wakrah,2014-02-20,14:00
1876,Streptopelia decaocto,species,Eurasian Collared Dove,1,51.6145,25.1812048546,Asia,Qatar,Qatar - Al Wakrah,2014-02-20,13:51
1877,Spilopelia senegalensis cambayensis,subspecies,Laughing Dove ssp cambayensis,1,51.6083107288,25.1779,Asia,Qatar,Qatar - Al Wakrah,2014-02-20,13:42
1878,Passer domesticus,species,House Sparrow,3,51.6043026822,25.1776072821,Asia,Qatar,Qatar - Al Wakrah,2014-02-20,13:42
1879,Acridotheres tristis,species,Common Myna,2,51.5991107288,25.1796048547,Asia,Qatar,Qatar - Al Wakrah,2014-02-20,13:02
1880,Spilopelia senegalensis cambayensis,subspecies,Laughing Dove ssp cambayensis,1,51.5991214577,25.1795,Asia,Qatar,Qatar - Al Wakrah,2014-02-20,12:50
1881,Passer domesticus,species,House Sparrow,3,51.5989026822,25.1796024273,Asia,Qatar,Qatar - Al Wakrah,2014-02-20,12:46
1882,Columba livia domestica,forma,Feral Pigeon,3,51.5974107288,25.177919419,Asia,Qatar,Qatar - Al Wakrah,2014-02-20,12:46
3101,Spilopelia senegalensis cambayensis,subspecies,Laughing Dove ssp cambayensis,1,51.6017026822,25.1713024275,Asia,Qatar,Qatar - Al Wakrah,2014-02-20,11:55
3102,Passer domesticus,species,House Sparrow,3,51.6016946356,25.1713024275,Asia,Qatar,Qatar - Al Wakrah,2014-02-20,11:55
3103,Columba livia domestica,forma,Feral Pigeon,2,51.6017026822,25.1713,Asia,Qatar,Qatar - Al Wakrah,2014-02-20,11:55
3104,Passer domesticus,species,House Sparrow,2,51.6012,25.1715975725,Asia,Qatar,Qatar - Al Wakrah,2014-02-20,11:06
20752,Jynx torquilla,species,Eurasian Wryneck,1,51.61321287084307,25.15093602374205,Asia,Qatar,Qatar - Al Wakrah,2020-03-31,19:09
20753,Euodice malabarica,species,Indian Silverbill,3,51.61321287084307,25.15093602374205,Asia,Qatar,Qatar - Al Wakrah,2020-03-31,19:06
21734,Acridotheres tristis,species,Common Myna,2,51.540111541748,25.293872833252,Asia,Qatar,Qatar - Doha,2020-01-31,11:16
21735,Vanessa cardui,species,Painted Lady,3,51.53454961,25.28653556,Asia,Qatar,Qatar - Doha,2020-01-31,12:56
21736,Acridotheres tristis,species,Common Myna,10,51.548152923584,25.2905311584473,Asia,Qatar,Qatar - Doha,2020-02-01,16:13
21737,Acridotheres tristis,species,Common Myna,30,51.5439949035645,25.2927093505859,Asia,Qatar,Qatar - Doha,2020-02-01,16:31
57337,Hippotion celerio,species,Silver-striped Hawk-moth,1,51.194076666667,25.006431666667,Asia,Qatar,Qatar - Irakaya Farm,2019-03-04,20:44
58929,Acherontia atropos,species,Death's Head Hawkmoth,1,51.50966428,25.38730709,Asia,Qatar,Qatar - Doha,2020-01-31,
67202,Clamator jacobinus,species,Jacobin Cuckoo,1,51.20173043,24.98800903,Asia,Qatar,Qatar - Irakaya Farm,2019-11-30,
46029,Acridotheres tristis,species,Common Myna,1,51.550178527832,25.2891273498535,Asia,Qatar,Qatar - Doha,2019-07-26,18:20
63211,Pterocles alchata,species,Pin-tailed Sandgrouse,6,51.2,25.81,Asia,Qatar,Qatar - Al Khor,2019-07-06,
63216,Pterocles alchata,species,Pin-tailed Sandgrouse,6,51.2,25.81,Asia,Qatar,Qatar - Al Khor,2019-07-06,
38861,Monticola saxatilis,species,Common Rock Thrush,1,51.20224357,24.998894,Asia,Qatar,Qatar - Irakaya Farm,2019-05-02,
38916,Sylvia communis,species,Common Whitethroat,1,51.6181764,25.19408786,Asia,Qatar,Qatar - Al Wakrah,2019-05-19,
38917,Lanius collurio,species,Red-backed Shrike,20,51.6181764,25.19408786,Asia,Qatar,Qatar - Al Wakrah,2019-05-19,
38919,Lanius collurio,species,Red-backed Shrike,20,51.6181764,25.19408786,Asia,Qatar,Qatar - Al Wakrah,2019-05-19,
38961,Lanius minor,species,Lesser Grey Shrike,1,51.6181764,25.19408786,Asia,Qatar,Qatar - Al Wakrah,2019-05-19,
22118,Ixobrychus minutus,species,Little Bittern,2,51.16223398,25.01314631,Asia,Qatar,Qatar - Irakaya Farm,2019-05-04,
22176,Ixobrychus minutus,species,Little Bittern,4,51.16223398,25.01314631,Asia,Qatar,Qatar - Irakaya Farm,2019-05-04,
22688,Rostratula benghalensis,species,Greater Painted-snipe,1,51.16223398,25.01314631,Asia,Qatar,Qatar - Irakaya Farm,2019-05-04,
20815,Acridotheres tristis,species,Common Myna,3,51.6161843,25.2624443,Asia,Qatar,Qatar - Hamad International Airport,2019-03-11,07:38
59755,Acridotheres tristis,species,Common Myna,2,51.5333786010742,25.3250141143799,Asia,Qatar,Qatar - Doha,2019-03-06,08:32
89762,Falco naumanni,species,Lesser Kestrel,1,51.17889762,25.00605044,Asia,Qatar,Qatar - Irakaya Farm,2019-02-27,
89918,Sylvia nana,species,Asian Desert Warbler,4,51.61764666,25.18829192,Asia,Qatar,Qatar - Al Wakrah,2019-03-03,
89949,Jynx torquilla,species,Eurasian Wryneck,1,51.61764666,25.18829192,Asia,Qatar,Qatar - Al Wakrah,2019-03-03,
89950,Monticola saxatilis,species,Common Rock Thrush,1,51.61065146,25.15477296,Asia,Qatar,Qatar - Al Wakrah,2019-03-03,
89952,Euodice malabarica,species,Indian Silverbill,1,51.61065146,25.15477296,Asia,Qatar,Qatar - Al Wakrah,2019-03-03,
89953,Phylloscopus collybita,species,Common Chiffchaff,1,51.61609434,25.12986568,Asia,Qatar,Qatar - Al Wakrah,2019-03-04,
89957,Phoenicurus ochruros,species,Black Redstart,1,51.61609434,25.12986568,Asia,Qatar,Qatar - Al Wakrah,2019-03-04,
89963,Saxicola rubicola,species,European Stonechat,1,51.26381099,26.14931299,Asia,Qatar,Qatar - Madinat ash Shamal,2019-03-05,
89967,Turdus philomelos,species,Song Thrush,4,51.21069454,26.12404405,Asia,Qatar,Qatar - Al Shamal Park,2019-03-05,
50667,Acridotheres tristis,species,Common Myna,4,51.6091346740723,25.2677612304688,Asia,Qatar,Qatar - Hamad International Airport,2019-02-08,16:56
60874,Acridotheres tristis,species,Common Myna,4,51.6091499328613,25.2677669525146,Asia,Qatar,Qatar - Hamad International Airport,2019-02-08,17:06
52868,Acridotheres tristis,species,Common Myna,1,51.55373740718825,25.26727854726834,Asia,Qatar,Qatar - Doha,2018-11-25,06:28
84292,Erithacus rubecula,species,European Robin,1,51.17946273,25.01220626,Asia,Qatar,Qatar - Irakaya Farm,2018-11-19,
40478,Acridotheres tristis,species,Common Myna,1,51.52,25.32,Asia,Qatar,Qatar - Doha,2018-10-16,14:48
47338,Phoenicurus phoenicurus,species,Common Redstart,1,51.1740911,25.00542816,Asia,Qatar,Qatar - Irakaya Farm,2018-10-05,
47352,Pastor roseus,species,Rosy Starling,1,51.1740911,25.00542816,Asia,Qatar,Qatar - Irakaya Farm,2018-10-05,
47357,Plegadis falcinellus,species,Glossy Ibis,8,51.1740911,25.00542816,Asia,Qatar,Qatar - Irakaya Farm,2018-10-05,
63254,Sylvia communis,species,Common Whitethroat,1,51.18233085,25.007295,Asia,Qatar,Qatar - Irakaya Farm,2018-10-15,
63369,Sylvia nisoria,species,Barred Warbler,1,51.18233085,25.007295,Asia,Qatar,Qatar - Irakaya Farm,2018-10-15,
63389,Vanellus gregarius,species,Sociable Lapwing,3,51.18233085,25.007295,Asia,Qatar,Qatar - Irakaya Farm,2018-10-15,
63405,Emberiza striolata,species,Striolated Bunting,1,51.2046,24.9933,Asia,Qatar,Qatar - Irakaya Farm,2018-10-15,
78553,Porzana porzana,species,Spotted Crake,1,51.18027091,25.00542816,Asia,Qatar,Qatar - Irakaya Farm,2018-09-23,
90507,Jynx torquilla,species,Eurasian Wryneck,1,51.1794865318119,25.0132403243566,Asia,Qatar,Qatar - Irakaya Farm,2018-09-23,12:15
90508,Sylvia nisoria,species,Barred Warbler,1,51.1979051772982,24.9930606829235,Asia,Qatar,Qatar - Irakaya Farm,2018-09-23,11:17
90509,Oena capensis,species,Namaqua Dove,1,51.1977809881355,24.9920412641788,Asia,Qatar,Qatar - Irakaya Farm,2018-09-23,10:07
90510,Muscicapa striata,species,Spotted Flycatcher,1,51.1826301484722,25.0119084853936,Asia,Qatar,Qatar - Irakaya Farm,2018-09-23,10:07
90511,Merops apiaster,species,European Bee-eater,1,51.182917077142,25.0120106153423,Asia,Qatar,Qatar - Irakaya Farm,2018-09-23,09:30
90512,Passer hispaniolensis,species,Spanish Sparrow,1,51.1800297668429,25.0117661407451,Asia,Qatar,Qatar - Irakaya Farm,2018-09-23,08:51
90513,Euodice malabarica,species,Indian Silverbill,1,51.1800297668429,25.0117661407451,Asia,Qatar,Qatar - Irakaya Farm,2018-09-23,08:44
90514,Cercotrichas galactotes,species,Rufous-tailed Scrub Robin,1,51.1800297668429,25.0117661407451,Asia,Qatar,Qatar - Irakaya Farm,2018-09-23,08:43
90515,Upupa epops,species,Eurasian Hoopoe,1,51.1800297668429,25.0117661407451,Asia,Qatar,Qatar - Irakaya Farm,2018-09-23,08:42
90516,Lanius nubicus,species,Masked Shrike,1,51.1800297668429,25.0117661407451,Asia,Qatar,Qatar - Irakaya Farm,2018-09-23,08:42
90517,Oriolus oriolus,species,Eurasian Golden Oriole,1,51.1800297668429,25.0117661407451,Asia,Qatar,Qatar - Irakaya Farm,2018-09-23,08:41
16284,Botaurus stellaris,species,Eurasian Bittern,1,51.18713737,24.99506279,Asia,Qatar,Qatar - Irakaya Farm,2018-06-01,
118721,Tarucus rosaceus,species,Mediterranean Blue,3,51.17944663,26.12560907,Asia,Qatar,Qatar - Madinat ash Shamal,2018-05-04,
118732,Lanius collurio,species,Red-backed Shrike,1,51.17968451,26.12560877,Asia,Qatar,Qatar - Madinat ash Shamal,2018-05-04,
48493,Passer hispaniolensis,species,Spanish Sparrow,100,51.18542075,25.00387244,Asia,Qatar,Qatar - Irakaya Farm,2018-04-18,
48504,Bubulcus ibis,species,Western Cattle Egret,3,51.1937,25.0069,Asia,Qatar,Qatar - Irakaya Farm,2018-04-18,10:18
48505,Himantopus himantopus,species,Black-winged Stilt,4,51.1937,25.0069,Asia,Qatar,Qatar - Irakaya Farm,2018-04-18,10:18
48506,Cercotrichas galactotes,species,Rufous-tailed Scrub Robin,2,51.1814,25.0118,Asia,Qatar,Qatar - Irakaya Farm,2018-04-18,10:00
48507,Muscicapa striata,species,Spotted Flycatcher,1,51.1815,25.0119,Asia,Qatar,Qatar - Irakaya Farm,2018-04-18,09:59
48508,Upupa epops,species,Eurasian Hoopoe,3,51.1814,25.0119,Asia,Qatar,Qatar - Irakaya Farm,2018-04-18,09:59
48509,Phoenicurus phoenicurus,species,Common Redstart,3,51.1814,25.0118,Asia,Qatar,Qatar - Irakaya Farm,2018-04-18,09:59
48679,Saxicola rubetra,species,Whinchat,1,51.18542075,25.00387244,Asia,Qatar,Qatar - Irakaya Farm,2018-04-18,
48685,Merops apiaster,species,European Bee-eater,50,51.18542075,25.00387244,Asia,Qatar,Qatar - Irakaya Farm,2018-04-18,
48687,Hirundo rustica,species,Barn Swallow,50,51.18542075,25.00387244,Asia,Qatar,Qatar - Irakaya Farm,2018-04-18,
48703,Falco tinnunculus,species,Common Kestrel,1,51.18542075,25.00387244,Asia,Qatar,Qatar - Irakaya Farm,2018-04-18,
48707,Lanius excubitor aucheri,subspecies,Levant Grey Shrike,1,51.18542075,25.00387244,Asia,Qatar,Qatar - Irakaya Farm,2018-04-18,
48710,Lanius phoenicuroides,species,Red-tailed Shrike,1,51.18542075,25.00387244,Asia,Qatar,Qatar - Irakaya Farm,2018-04-18,
48721,Oenanthe oenanthe,species,Northern Wheatear,1,51.18542075,25.00387244,Asia,Qatar,Qatar - Irakaya Farm,2018-04-18,
48722,Oenanthe isabellina,species,Isabelline Wheatear,5,51.18542075,25.00387244,Asia,Qatar,Qatar - Irakaya Farm,2018-04-18,
48724,Muscicapa striata,species,Spotted Flycatcher,2,51.18542075,25.00387244,Asia,Qatar,Qatar - Irakaya Farm,2018-04-18,
48734,Lanius collurio,species,Red-backed Shrike,1,51.18542075,25.00387244,Asia,Qatar,Qatar - Irakaya Farm,2018-04-18,
48739,Lanius senator,species,Woodchat Shrike,1,51.18542075,25.00387244,Asia,Qatar,Qatar - Irakaya Farm,2018-04-18,
48740,Circaetus gallicus,species,Short-toed Snake Eagle,1,51.18542075,25.00387244,Asia,Qatar,Qatar - Irakaya Farm,2018-04-18,
48741,Sylvia atricapilla,species,Eurasian Blackcap,1,51.18542075,25.00387244,Asia,Qatar,Qatar - Irakaya Farm,2018-04-18,
48744,Sylvia atricapilla,species,Eurasian Blackcap,1,51.18542075,25.00387244,Asia,Qatar,Qatar - Irakaya Farm,2018-04-18,
48748,Monticola saxatilis,species,Common Rock Thrush,1,51.18542075,25.00387244,Asia,Qatar,Qatar - Irakaya Farm,2018-04-18,
48749,Monticola saxatilis,species,Common Rock Thrush,1,51.18542075,25.00387244,Asia,Qatar,Qatar - Irakaya Farm,2018-04-18,
64992,Azanus ubaldus,species,Desert Babul Blue,1,51.51711009,24.86266599,Asia,Qatar,Qatar - Al Wakrah,2018-04-17,
66638,Brephidium exilis,species,Western Pygmy-Blue,1,51.51620954,24.86159154,Asia,Qatar,Qatar - Al Wakrah,2018-04-17,
66981,Colias crocea,species,Clouded Yellow,5,51.1861074,25.00284176,Asia,Qatar,Qatar - Irakaya Farm,2018-03-11,
67291,Lanius nubicus,species,Masked Shrike,1,51.51595205,24.86130437,Asia,Qatar,Qatar - Al Wakrah,2018-04-17,
67322,Heremites septemtaeniatus,species,,5,51.51595205,24.86130437,Asia,Qatar,Qatar - Al Wakrah,2018-04-17,
67368,Phoenicurus phoenicurus,species,Common Redstart,4,51.51595205,24.86130437,Asia,Qatar,Qatar - Al Wakrah,2018-04-17,
62698,Oenanthe isabellina,species,Isabelline Wheatear,1,51.6169,25.1867,Asia,Qatar,Qatar - Al Wakrah,2018-03-27,09:14
29826,Acontia trabealis,species,Spotted Sulphur,1,51.18748069,25.00449473,Asia,Qatar,Qatar - Irakaya Farm,2017-10-10,
30491,Rhodometra sacraria,species,Vestal,1,51.17909795,25.01218681,Asia,Qatar,Qatar - Irakaya Farm,2018-03-29,
49162,Merops persicus,species,Blue-cheeked Bee-eater,5,51.1828284,25.00096513,Asia,Qatar,Qatar - Irakaya Farm,2018-03-11,
49183,Sylvia mystacea,species,Menetries's Warbler,1,51.19640708,25.007295,Asia,Qatar,Qatar - Irakaya Farm,2018-03-11,
49226,Coccinella undecimpunctata,species,11-spot Ladybird,1,51.19640708,25.007295,Asia,Qatar,Qatar - Irakaya Farm,2018-03-11,
49456,Carpospiza brachydactyla,species,Pale Rockfinch,6,51.20052695,24.99235949,Asia,Qatar,Qatar - Irakaya Farm,2018-03-11,
21741,Spilopelia senegalensis,species,Laughing Dove,1,51.6016,25.1714,Asia,Qatar,Qatar - Al Wakrah,2018-02-12,15:03
80828,Acridotheres tristis,species,Common Myna,1,51.6139984,25.27437934,Asia,Qatar,Qatar - Hamad International Airport,2018-02-15,
121757,Hydroprogne caspia,species,Caspian Tern,14,51.61812544,25.17383484,Asia,Qatar,Qatar - Al Wakrah,2018-02-12,
121759,Egretta gularis,species,Western Reef Heron,1,51.61812544,25.17383484,Asia,Qatar,Qatar - Al Wakrah,2018-02-12,
121760,Ardea cinerea,species,Grey Heron,1,51.61812544,25.17383484,Asia,Qatar,Qatar - Al Wakrah,2018-02-12,
121772,Fulica atra,species,Eurasian Coot,1,51.15984052,25.01211268,Asia,Qatar,Qatar - Irakaya Farm,2018-02-09,
121773,Gallinula chloropus,species,Common Moorhen,1,51.15984052,25.01211268,Asia,Qatar,Qatar - Irakaya Farm,2018-02-09,
121775,Podiceps cristatus,species,Great Crested Grebe,1,51.15984052,25.01211268,Asia,Qatar,Qatar - Irakaya Farm,2018-02-09,
121777,Himantopus himantopus,species,Black-winged Stilt,1,51.16215795,24.99811123,Asia,Qatar,Qatar - Irakaya Farm,2018-02-09,
121778,Circus aeruginosus,species,Western Marsh Harrier,1,51.16215795,24.99811123,Asia,Qatar,Qatar - Irakaya Farm,2018-02-09,
121780,Luscinia svecica,species,Bluethroat,1,51.17850434,24.99547059,Asia,Qatar,Qatar - Irakaya Farm,2018-02-09,
121783,Motacilla alba,species,White Wagtail,1,51.16894126,25.00564207,Asia,Qatar,Qatar - Irakaya Farm,2018-02-09,
121784,Buteo rufinus,species,Long-legged Buzzard,1,51.16894126,25.00564207,Asia,Qatar,Qatar - Irakaya Farm,2018-02-09,
121787,Lanius senator,species,Woodchat Shrike,1,51.16894126,25.00564207,Asia,Qatar,Qatar - Irakaya Farm,2018-02-09,
121788,Anthus campestris,species,Tawny Pipit,1,51.16894126,25.00564207,Asia,Qatar,Qatar - Irakaya Farm,2018-02-09,
121792,Pycnonotus leucotis,species,White-eared Bulbul,1,51.61592267,25.18066915,Asia,Qatar,Qatar - Al Wakrah,2018-02-12,
121793,Passer domesticus,species,House Sparrow,1,51.61592267,25.18066915,Asia,Qatar,Qatar - Al Wakrah,2018-02-12,
121823,Tringa totanus,species,Common Redshank,1,51.61423087,25.15707453,Asia,Qatar,Qatar - Al Wakrah,2018-02-12,
121826,Chroicocephalus genei,species,Slender-billed Gull,1,51.61423087,25.15707453,Asia,Qatar,Qatar - Al Wakrah,2018-02-12,
121827,Chroicocephalus ridibundus,species,Black-headed Gull,1,51.61423087,25.15707453,Asia,Qatar,Qatar - Al Wakrah,2018-02-12,
121829,Calidris alba,species,Sanderling,1,51.61423087,25.15707453,Asia,Qatar,Qatar - Al Wakrah,2018-02-12,
121832,Calidris alpina,species,Dunlin,1,51.61423087,25.15707453,Asia,Qatar,Qatar - Al Wakrah,2018-02-12,
121833,Calidris minuta,species,Little Stint,5,51.61423087,25.15707453,Asia,Qatar,Qatar - Al Wakrah,2018-02-12,
121834,Ichthyaetus hemprichii,species,Sooty Gull,1,51.61423087,25.15707453,Asia,Qatar,Qatar - Al Wakrah,2018-02-12,
121836,Charadrius alexandrinus,species,Kentish Plover,1,51.61423087,25.15707453,Asia,Qatar,Qatar - Al Wakrah,2018-02-12,
121837,Pluvialis squatarola,species,Grey Plover,1,51.61423087,25.15707453,Asia,Qatar,Qatar - Al Wakrah,2018-02-12,
121839,Haematopus ostralegus,species,Eurasian Oystercatcher,1,51.61423087,25.15707453,Asia,Qatar,Qatar - Al Wakrah,2018-02-12,
121840,Numenius arquata,species,Eurasian Curlew,1,51.61423087,25.15707453,Asia,Qatar,Qatar - Al Wakrah,2018-02-12,
121841,Xenus cinereus,species,Terek Sandpiper,1,51.61423087,25.15707453,Asia,Qatar,Qatar - Al Wakrah,2018-02-12,
121881,Arenaria interpres,species,Ruddy Turnstone,2,51.61423087,25.15707453,Asia,Qatar,Qatar - Al Wakrah,2018-02-12,
121883,Euodice malabarica,species,Indian Silverbill,2,51.61618017,25.13281242,Asia,Qatar,Qatar - Al Wakrah,2018-02-12,
121886,Alaemon alaudipes,species,Greater Hoopoe-Lark,1,51.61386274,25.13141373,Asia,Qatar,Qatar - Al Wakrah,2018-02-12,
121887,Streptopelia decaocto,species,Eurasian Collared Dove,10,51.61605142,25.13271529,Asia,Qatar,Qatar - Al Wakrah,2018-02-12,
121904,Acridotheres tristis,species,Common Myna,10,51.61605142,25.13271529,Asia,Qatar,Qatar - Al Wakrah,2018-02-12,
121905,Spilopelia senegalensis,species,Laughing Dove,10,51.61605142,25.13271529,Asia,Qatar,Qatar - Al Wakrah,2018-02-12,
10427,Sylvia nana,species,Asian Desert Warbler,1,51.61700293,25.19177485,Asia,Qatar,Qatar - Al Wakrah,2018-02-11,
89528,Acridotheres tristis,species,Common Myna,1,51.6131767,25.2627605,Asia,Qatar,Qatar - Hamad International Airport,2017-11-13,07:01
114823,Accipiter nisus,species,Eurasian Sparrowhawk,1,51.2012,24.9882,Asia,Qatar,Qatar - Irakaya Farm,2017-12-14,15:26
38992,Aythya ferina,species,Common Pochard,20,51.36704922,25.15802622,Asia,Qatar,Qatar,2017-12-08,
38993,Anas crecca,species,Eurasian Teal,50,51.36704922,25.15802622,Asia,Qatar,Qatar,2017-12-08,
38994,Spatula clypeata,species,Northern Shoveler,20,51.36704922,25.15802622,Asia,Qatar,Qatar,2017-12-08,
38997,Tachybaptus ruficollis,species,Little Grebe,50,51.36704922,25.15802622,Asia,Qatar,Qatar,2017-12-08,
39000,Tringa stagnatilis,species,Marsh Sandpiper,1,51.36704922,25.15802622,Asia,Qatar,Qatar,2017-12-08,
59933,Melanocorypha bimaculata,species,Bimaculated Lark,5,51.1909,25.0007,Asia,Qatar,Qatar - Irakaya Farm,2017-12-05,
60401,Circaetus gallicus,species,Short-toed Snake Eagle,1,51.18679404,25.0037752,Asia,Qatar,Qatar - Irakaya Farm,2017-12-05,
60416,Buteo rufinus,species,Long-legged Buzzard,4,51.18679404,25.0037752,Asia,Qatar,Qatar - Irakaya Farm,2017-12-05,
60423,Pastor roseus,species,Rosy Starling,1,51.21153876,26.12442214,Asia,Qatar,Qatar - Al Shamal Park,2017-12-02,
60450,Sturnus vulgaris,species,Common Starling,6,51.21153876,26.12442214,Asia,Qatar,Qatar - Al Shamal Park,2017-12-02,
60513,Fringilla montifringilla,species,Brambling,1,51.18116509,26.12632158,Asia,Qatar,Qatar - Madinat ash Shamal,2017-12-02,
95192,Oenanthe oenanthe,species,Northern Wheatear,1,51.61574364,25.14044759,Asia,Qatar,Qatar - Al Wakrah,2017-03-19,
25302,Hypocolius ampelinus,species,Grey Hypocolius,20,51.51684707,24.86233106,Asia,Qatar,Qatar - Al Wakrah,2017-11-21,
116876,Circus macrourus,species,Pallid Harrier,1,51.18439078,24.99475162,Asia,Qatar,Qatar - Irakaya Farm,2017-11-05,
31099,Athene noctua lilith,subspecies,Little Owl ssp lilith,1,51.19268417,25.00721721,Asia,Qatar,Qatar - Irakaya Farm,2017-11-03,
31220,Falco subbuteo,species,Eurasian Hobby,1,51.19268417,25.00721721,Asia,Qatar,Qatar - Irakaya Farm,2017-11-03,
31221,Glareola nordmanni,species,Black-winged Pratincole,1,51.19268417,25.00721721,Asia,Qatar,Qatar - Irakaya Farm,2017-11-03,
9491,Gallinago gallinago,species,Common Snipe,1,51.18440151,25.00006084,Asia,Qatar,Qatar - Irakaya Farm,2017-10-13,
30278,Falco naumanni,species,Lesser Kestrel,1,51.1861074,25.00044978,Asia,Qatar,Qatar - Irakaya Farm,2017-10-11,
30280,Circaetus gallicus,species,Short-toed Snake Eagle,1,51.1861074,25.00044978,Asia,Qatar,Qatar - Irakaya Farm,2017-10-11,
30281,Falco subbuteo,species,Eurasian Hobby,1,51.1861074,25.00044978,Asia,Qatar,Qatar - Irakaya Farm,2017-10-11,
34555,Ficedula parva,species,Red-breasted Flycatcher,1,51.51662394,24.86222915,Asia,Qatar,Qatar - Al Wakrah,2017-10-10,
61327,Lanius collurio,species,Red-backed Shrike,1,51.20644659,26.12949127,Asia,Qatar,Qatar - Madinat ash Shamal,2017-10-06,
66511,Milvus migrans,species,Black Kite,1,51.18336082,25.00885068,Asia,Qatar,Qatar - Irakaya Farm,2017-10-07,
122171,Chlidonias leucopterus,species,White-winged Tern,1,51.27451032,26.14582661,Asia,Qatar,Qatar - Madinat ash Shamal,2017-09-29,
122174,Emberiza hortulana,species,Ortolan Bunting,1,51.18035406,26.12633182,Asia,Qatar,Qatar - Madinat ash Shamal,2017-09-29,
122210,Cuculus canorus,species,Common Cuckoo,1,51.211162596002,26.124770436196,Asia,Qatar,Qatar - Al Shamal Park,2017-09-29,
87756,Phalaropus lobatus,species,Red-necked Phalarope,1,51.17898077,24.99572402,Asia,Qatar,Qatar - Irakaya Farm,2017-09-23,
94052,Anax parthenope,species,Lesser Emperor,1,51.51612304,24.86043313,Asia,Qatar,Qatar - Al Wakrah,2017-09-19,
18633,Vanellus indicus,species,Red-wattled Lapwing,6,51.16070151,24.99422652,Asia,Qatar,Qatar - Irakaya Farm,2017-09-18,
22816,Luscinia luscinia,species,Thrush Nightingale,1,51.18027091,25.01133972,Asia,Qatar,Qatar - Irakaya Farm,2017-09-18,
52483,Jynx torquilla,species,Eurasian Wryneck,1,51.18714809,25.00216112,Asia,Qatar,Qatar - Irakaya Farm,2017-09-15,
52484,Oriolus oriolus,species,Eurasian Golden Oriole,2,51.18714809,25.00216112,Asia,Qatar,Qatar - Irakaya Farm,2017-09-15,
52485,Alaudala rufescens,species,Lesser Short-toed Lark,8,51.24578655,26.15388749,Asia,Qatar,Qatar - Madinat ash Shamal,2017-09-15,
52486,Carpodacus erythrinus,species,Common Rosefinch,2,51.18043989,26.12607655,Asia,Qatar,Qatar - Madinat ash Shamal,2017-09-15,
52558,Lanius minor,species,Lesser Grey Shrike,1,51.18043989,26.12607655,Asia,Qatar,Qatar - Madinat ash Shamal,2017-09-15,
52560,Pastor roseus,species,Rosy Starling,1,51.211162596002,26.124770436196,Asia,Qatar,Qatar - Al Shamal Park,2017-09-15,
60738,Crex crex,species,Corn Crake,1,51.2,26.1,Asia,Qatar,Qatar - Al Shamal Park,2017-09-03,
17837,Trithemis annulata,species,Violet Dropwing,8,51.18001074,26.1261777,Asia,Qatar,Qatar - Madinat ash Shamal,2017-08-11,
18186,Dromas ardeola,species,Crab-plover,14,51.25166461,26.15768179,Asia,Qatar,Qatar - Madinat ash Shamal,2017-08-11,
41547,Junonia orithya,species,Blue Pansy,4,51.19469047,25.00169439,Asia,Qatar,Qatar - Irakaya Farm,2017-08-09,
12161,Acridotheres tristis,species,Common Myna,1,51.53491973,25.29089456,Asia,Qatar,Qatar - Doha,2017-05-05,
32532,Pluvialis squatarola,species,Grey Plover,1,51.61609065,25.18118481,Asia,Qatar,Qatar - Al Wakrah,2017-03-26,
11134,Danaus chrysippus,species,African Monarch,1,51.18719101,25.00091651,Asia,Qatar,Qatar - Irakaya Farm,2017-04-27,
22348,Cercotrichas galactotes,species,Rufous-tailed Scrub Robin,1,51.18485212,25.00923959,Asia,Qatar,Qatar - Al Rayyan,2017-04-27,
22506,Luscinia megarhynchos,species,Common Nightingale,1,51.18485212,25.00923959,Asia,Qatar,Qatar - Al Rayyan,2017-04-27,
22554,Chlidonias leucopterus,species,White-winged Tern,2,51.16013288,24.99741598,Asia,Qatar,Qatar - Al Rayyan,2017-04-27,
22560,Charadrius alexandrinus,species,Kentish Plover,1,51.52273268,25.14452706,Asia,Qatar,Qatar - Al Wakrah,2017-04-27,
22576,Merops apiaster,species,European Bee-eater,2,51.52273268,25.14452706,Asia,Qatar,Qatar - Al Wakrah,2017-04-27,
22581,Circaetus gallicus,species,Short-toed Snake Eagle,1,51.16035819,24.9954712,Asia,Qatar,Qatar - Irakaya Farm,2017-04-27,
22631,Oenanthe isabellina,species,Isabelline Wheatear,1,51.16035819,24.9954712,Asia,Qatar,Qatar - Irakaya Farm,2017-04-27,
22708,Podiceps cristatus,species,Great Crested Grebe,20,51.16035819,24.9954712,Asia,Qatar,Qatar - Al Rayyan,2017-04-27,
22870,Hirundo rustica,species,Barn Swallow,50,51.1857748,25.00379465,Asia,Qatar,Qatar - Al Rayyan,2017-04-27,
22872,Monticola saxatilis,species,Common Rock Thrush,3,51.1857748,25.00379465,Asia,Qatar,Qatar - Al Rayyan,2017-04-27,
22879,Streptopelia turtur,species,European Turtle Dove,1,51.1857748,25.00379465,Asia,Qatar,Qatar - Al Rayyan,2017-04-27,
22895,Muscicapa striata,species,Spotted Flycatcher,2,51.1857748,25.00379465,Asia,Qatar,Qatar - Al Rayyan,2017-04-27,
22910,Oriolus oriolus,species,Eurasian Golden Oriole,2,51.1857748,25.00379465,Asia,Qatar,Qatar - Al Rayyan,2017-04-27,
22913,Coracias garrulus,species,European Roller,1,51.1857748,25.00379465,Asia,Qatar,Qatar - Al Rayyan,2017-04-27,
22917,Lanius nubicus,species,Masked Shrike,1,51.1857748,25.00379465,Asia,Qatar,Qatar - Al Rayyan,2017-04-27,
22921,Sylvia nisoria,species,Barred Warbler,1,51.1857748,25.00379465,Asia,Qatar,Qatar - Al Rayyan,2017-04-27,
46890,Streptopelia turtur,species,European Turtle Dove,1,51.18102595,25.01158279,Asia,Qatar,Qatar - Al Rayyan,2017-04-26,
46891,Cercotrichas galactotes,species,Rufous-tailed Scrub Robin,1,51.18102595,25.01158279,Asia,Qatar,Qatar - Al Rayyan,2017-04-26,
46896,Coracias garrulus,species,European Roller,4,51.18102595,25.01158279,Asia,Qatar,Qatar - Al Rayyan,2017-04-26,
46898,Muscicapa striata,species,Spotted Flycatcher,1,51.18102595,25.01158279,Asia,Qatar,Qatar - Al Rayyan,2017-04-26,
46903,Sylvia nisoria,species,Barred Warbler,1,51.18102595,25.01158279,Asia,Qatar,Qatar - Al Rayyan,2017-04-26,
46906,Lanius excubitor aucheri,subspecies,Levant Grey Shrike,1,51.18102595,25.01158279,Asia,Qatar,Qatar - Irakaya Farm,2017-04-26,
46907,Sylvia atricapilla,species,Eurasian Blackcap,1,51.18102595,25.01158279,Asia,Qatar,Qatar - Al Rayyan,2017-04-26,
46910,Luscinia megarhynchos,species,Common Nightingale,4,51.18102595,25.01158279,Asia,Qatar,Qatar - Al Rayyan,2017-04-26,
76915,Jynx torquilla,species,Eurasian Wryneck,2,51.1806,26.1264,Asia,Qatar,Qatar - Madinat ash Shamal,2017-04-22,
76916,Turdus philomelos,species,Song Thrush,1,51.1806,26.1264,Asia,Qatar,Qatar - Madinat ash Shamal,2017-04-22,
76918,Cecropis daurica,species,Red-rumped Swallow,5,51.1806,26.1264,Asia,Qatar,Qatar - Madinat ash Shamal,2017-04-22,
76921,Falco naumanni,species,Lesser Kestrel,2,51.1742,26.1081,Asia,Qatar,Qatar - Madinat ash Shamal,2017-04-22,
76964,Irania gutturalis,species,White-throated Robin,1,51.21196792,26.12447271,Asia,Qatar,Qatar - Al Shamal Park,2017-04-22,
106346,Calidris alpina,species,Dunlin,1,51.6179,25.1372,Asia,Qatar,Qatar - Al Wakrah,2017-03-19,15:00
18161,Lanius phoenicuroides,species,Red-tailed Shrike,1,51.61678836,25.18126263,Asia,Qatar,Qatar - Al Wakrah,2017-03-26,16:00
18162,Numenius arquata,species,Eurasian Curlew,1,51.61678836,25.18126263,Asia,Qatar,Qatar - Al Wakrah,2017-03-26,16:00
18163,Charadrius alexandrinus,species,Kentish Plover,2,51.61678836,25.18126263,Asia,Qatar,Qatar - Al Wakrah,2017-03-26,16:00
18164,Limosa lapponica,species,Bar-tailed Godwit,2,51.61678836,25.18126263,Asia,Qatar,Qatar - Al Wakrah,2017-03-26,16:00
18165,Tringa totanus,species,Common Redshank,1,51.61678836,25.18126263,Asia,Qatar,Qatar - Al Wakrah,2017-03-26,16:00
18166,Tringa nebularia,species,Common Greenshank,1,51.61678836,25.18126263,Asia,Qatar,Qatar - Al Wakrah,2017-03-26,16:00
18167,Xenus cinereus,species,Terek Sandpiper,1,51.61678836,25.18126263,Asia,Qatar,Qatar - Al Wakrah,2017-03-26,16:00
18168,Larus fuscus heuglini,subspecies,Heuglin's Gull,1,51.61678836,25.18126263,Asia,Qatar,Qatar - Al Wakrah,2017-03-26,16:00
18169,Gelochelidon nilotica,species,Gull-billed Tern,4,51.61678836,25.18126263,Asia,Qatar,Qatar - Al Wakrah,2017-03-26,16:00
18170,Butorides striata,species,Striated Heron,1,51.61705624,25.1790125,Asia,Qatar,Qatar - Al Wakrah,2017-03-26,16:00
18171,Alcedo atthis,species,Common Kingfisher,1,51.61705624,25.1790125,Asia,Qatar,Qatar - Al Wakrah,2017-03-26,16:00
18175,Junonia orithya,species,Blue Pansy,1,51.1939,25.0072,Asia,Qatar,Qatar - Al Rayyan,2017-03-26,10:35
18176,Pycnonotus cafer,species,Red-vented Bulbul,1,51.6034,25.1749,Asia,Qatar,Qatar - Al Wakrah,2017-03-26,14:18
18177,Acridotheres tristis,species,Common Myna,1,51.5381,25.2541,Asia,Qatar,Qatar - Doha,2017-03-26,12:34
18178,Orthetrum sabina,species,Slender Skimmer,5,51.1939,25.0072,Asia,Qatar,Qatar - Al Rayyan,2017-03-26,10:35
18179,Lanius excubitor aucheri,subspecies,Levant Grey Shrike,1,51.18,25.0116,Asia,Qatar,Qatar - Al Rayyan,2017-03-26,10:00
18180,Lanius phoenicuroides,species,Red-tailed Shrike,1,51.18,25.0116,Asia,Qatar,Qatar - Al Rayyan,2017-03-26,10:00
18181,Upupa epops,species,Eurasian Hoopoe,4,51.18,25.0116,Asia,Qatar,Qatar - Al Rayyan,2017-03-26,10:00
18182,Coturnix coturnix,species,Common Quail,1,51.18,25.0116,Asia,Qatar,Qatar - Al Rayyan,2017-03-26,10:00
18183,Pycnonotus leucotis,species,White-eared Bulbul,1,51.18,25.0116,Asia,Qatar,Qatar - Al Rayyan,2017-03-26,10:00
18184,Circaetus gallicus,species,Short-toed Snake Eagle,1,51.18,25.0116,Asia,Qatar,Qatar - Al Rayyan,2017-03-26,10:00
18185,Falco tinnunculus,species,Common Kestrel,3,51.18,25.0116,Asia,Qatar,Qatar - Al Rayyan,2017-03-26,10:00
18186,Phoenicurus phoenicurus samamisicus,subspecies,Common Redstart ssp samamisicus,1,51.18,25.0116,Asia,Qatar,Qatar - Al Rayyan,2017-03-26,10:00
18187,Phoenicurus phoenicurus,species,Common Redstart,2,51.18,25.0116,Asia,Qatar,Qatar - Al Rayyan,2017-03-26,10:00
18188,Motacilla flava flava,subspecies,Blue-headed Wagtail,1,51.18,25.0116,Asia,Qatar,Qatar - Al Rayyan,2017-03-26,10:00
18189,Emberiza calandra,species,Corn Bunting,3,51.18,25.0116,Asia,Qatar,Qatar - Al Rayyan,2017-03-26,10:00
18190,Galerida cristata,species,Crested Lark,1,51.18,25.0116,Asia,Qatar,Qatar - Al Rayyan,2017-03-26,10:00
18191,Oena capensis,species,Namaqua Dove,1,51.18,25.0116,Asia,Qatar,Qatar - Al Rayyan,2017-03-26,10:00
18192,Spilopelia senegalensis cambayensis,subspecies,Laughing Dove ssp cambayensis,5,51.18,25.0116,Asia,Qatar,Qatar - Al Rayyan,2017-03-26,10:00
18193,Turdus philomelos,species,Song Thrush,1,51.18,25.0116,Asia,Qatar,Qatar - Al Rayyan,2017-03-26,10:00
87009,Acridotheres tristis,species,Common Myna,1,51.6022,25.2456,Asia,Qatar,Qatar - Doha,2017-03-27,07:52
87012,Passer domesticus,species,House Sparrow,1,51.5979,25.1724,Asia,Qatar,Qatar - Al Wakrah,2017-03-27,07:35
87013,Spilopelia senegalensis cambayensis,subspecies,Laughing Dove ssp cambayensis,1,51.5979,25.1724,Asia,Qatar,Qatar - Al Wakrah,2017-03-27,07:35
87014,Columba livia domestica,forma,Feral Pigeon,1,51.5979,25.1724,Asia,Qatar,Qatar - Al Wakrah,2017-03-27,07:35
87016,Acridotheres tristis,species,Common Myna,1,51.5979,25.1724,Asia,Qatar,Qatar - Al Wakrah,2017-03-27,07:35
12160,Thalasseus bergii,species,Greater Crested Tern,1,51.24515891,26.1749279,Asia,Qatar,Qatar - Madinat ash Shamal,2017-03-28,
12297,Sturnia pagodarum,species,Brahminy Starling,1,51.11687422,25.81488159,Asia,Qatar,Qatar - Al Khor,2017-03-27,
12299,Falco naumanni,species,Lesser Kestrel,1,51.11687422,25.81488159,Asia,Qatar,Qatar - Al Khor,2017-03-27,
48175,Junonia orithya,species,Blue Pansy,1,51.1939,25.0072,Asia,Qatar,Qatar - Al Rayyan,2017-03-26,10:35
49122,Passer domesticus,species,House Sparrow,1,51.6131,25.181,Asia,Qatar,Qatar - Al Wakrah,2017-03-26,15:53
49123,Spilopelia senegalensis cambayensis,subspecies,Laughing Dove ssp cambayensis,1,51.6128,25.1809,Asia,Qatar,Qatar - Al Wakrah,2017-03-26,15:52
49124,Streptopelia decaocto,species,Eurasian Collared Dove,1,51.6127,25.1809,Asia,Qatar,Qatar - Al Wakrah,2017-03-26,15:52
49125,Pycnonotus leucotis,species,White-eared Bulbul,1,51.6133,25.181,Asia,Qatar,Qatar - Al Wakrah,2017-03-26,15:49
49126,Acridotheres tristis,species,Common Myna,1,51.6133,25.181,Asia,Qatar,Qatar - Al Wakrah,2017-03-26,15:48
49127,Streptopelia decaocto,species,Eurasian Collared Dove,2,51.6072,25.178,Asia,Qatar,Qatar - Al Wakrah,2017-03-26,14:24
49128,Passer domesticus,species,House Sparrow,2,51.6064,25.1778,Asia,Qatar,Qatar - Al Wakrah,2017-03-26,14:23
49129,Acridotheres tristis,species,Common Myna,1,51.6038,25.1749,Asia,Qatar,Qatar - Al Wakrah,2017-03-26,14:21
49130,Streptopelia decaocto,species,Eurasian Collared Dove,1,51.6039,25.1749,Asia,Qatar,Qatar - Al Wakrah,2017-03-26,14:19
49131,Pycnonotus cafer,species,Red-vented Bulbul,1,51.6034,25.1749,Asia,Qatar,Qatar - Al Wakrah,2017-03-26,14:18
49132,Passer domesticus,species,House Sparrow,5,51.603,25.1748,Asia,Qatar,Qatar - Al Wakrah,2017-03-26,14:17
50849,Oenanthe pleschanka,species,Pied Wheatear,1,51.61678836,25.18126263,Asia,Qatar,Qatar - Al Wakrah,2017-03-26,16:00
50866,Lanius phoenicuroides,species,Red-tailed Shrike,1,51.61678836,25.18126263,Asia,Qatar,Qatar - Al Wakrah,2017-03-26,16:00
51003,Numenius arquata,species,Eurasian Curlew,1,51.61678836,25.18126263,Asia,Qatar,Qatar - Al Wakrah,2017-03-26,16:00
51007,Charadrius alexandrinus,species,Kentish Plover,2,51.61678836,25.18126263,Asia,Qatar,Qatar - Al Wakrah,2017-03-26,16:00
51010,Limosa lapponica,species,Bar-tailed Godwit,2,51.61678836,25.18126263,Asia,Qatar,Qatar - Al Wakrah,2017-03-26,16:00
51016,Tringa totanus,species,Common Redshank,1,51.61678836,25.18126263,Asia,Qatar,Qatar - Al Wakrah,2017-03-26,16:00
51018,Tringa nebularia,species,Common Greenshank,1,51.61678836,25.18126263,Asia,Qatar,Qatar - Al Wakrah,2017-03-26,16:00
51025,Xenus cinereus,species,Terek Sandpiper,1,51.61678836,25.18126263,Asia,Qatar,Qatar - Al Wakrah,2017-03-26,16:00
51033,Larus fuscus heuglini,subspecies,Heuglin's Gull,1,51.61678836,25.18126263,Asia,Qatar,Qatar - Al Wakrah,2017-03-26,16:00
51043,Gelochelidon nilotica,species,Gull-billed Tern,4,51.61678836,25.18126263,Asia,Qatar,Qatar - Al Wakrah,2017-03-26,16:00
51544,Butorides striata,species,Striated Heron,1,51.61705624,25.1790125,Asia,Qatar,Qatar - Al Wakrah,2017-03-26,16:00
51558,Alcedo atthis,species,Common Kingfisher,1,51.61705624,25.1790125,Asia,Qatar,Qatar - Al Wakrah,2017-03-26,16:00
52198,Passer hispaniolensis,species,Spanish Sparrow,50,51.18,25.0116,Asia,Qatar,Qatar - Al Rayyan,2017-03-26,10:00
52199,Buteo rufinus,species,Long-legged Buzzard,1,51.18,25.0116,Asia,Qatar,Qatar - Al Rayyan,2017-03-26,10:00
52200,Circaetus gallicus,species,Short-toed Snake Eagle,1,51.18,25.0116,Asia,Qatar,Qatar - Al Rayyan,2017-03-26,10:00
52201,Falco tinnunculus,species,Common Kestrel,3,51.18,25.0116,Asia,Qatar,Qatar - Al Rayyan,2017-03-26,10:00
52202,Phoenicurus phoenicurus samamisicus,subspecies,Common Redstart ssp samamisicus,1,51.18,25.0116,Asia,Qatar,Qatar - Al Rayyan,2017-03-26,10:00
52203,Phoenicurus phoenicurus,species,Common Redstart,1,51.18,25.0116,Asia,Qatar,Qatar - Al Rayyan,2017-03-26,10:00
52204,Motacilla flava flava,subspecies,Blue-headed Wagtail,1,51.18,25.0116,Asia,Qatar,Qatar - Al Rayyan,2017-03-26,10:00
52205,Oenanthe pleschanka,species,Pied Wheatear,2,51.18,25.0116,Asia,Qatar,Qatar - Al Rayyan,2017-03-26,10:00
52206,Oenanthe isabellina,species,Isabelline Wheatear,1,51.18,25.0116,Asia,Qatar,Qatar - Al Rayyan,2017-03-26,10:00
52207,Anthus campestris,species,Tawny Pipit,1,51.18,25.0116,Asia,Qatar,Qatar - Al Rayyan,2017-03-26,10:00
52208,Emberiza calandra,species,Corn Bunting,3,51.18,25.0116,Asia,Qatar,Qatar - Al Rayyan,2017-03-26,10:00
52209,Galerida cristata,species,Crested Lark,1,51.18,25.0116,Asia,Qatar,Qatar - Al Rayyan,2017-03-26,10:00
52210,Oena capensis,species,Namaqua Dove,1,51.18,25.0116,Asia,Qatar,Qatar - Al Rayyan,2017-03-26,10:00
52224,Lanius excubitor aucheri,subspecies,Levant Grey Shrike,1,51.18,25.0116,Asia,Qatar,Qatar - Al Rayyan,2017-03-26,10:00
52225,Lanius phoenicuroides,species,Red-tailed Shrike,1,51.18,25.0116,Asia,Qatar,Qatar - Al Rayyan,2017-03-26,10:00
56361,Crocothemis erythraea,species,Broad Scarlet,2,51.1939,25.0072,Asia,Qatar,Qatar - Al Rayyan,2017-03-26,10:35
61439,Orthetrum sabina,species,Slender Skimmer,5,51.1939,25.0072,Asia,Qatar,Qatar - Al Rayyan,2017-03-26,10:35
61793,Spilopelia senegalensis cambayensis,subspecies,Laughing Dove ssp cambayensis,1,51.6013,25.1716,Asia,Qatar,Qatar - Al Wakrah,2017-03-26,13:43
61794,Passer domesticus,species,House Sparrow,1,51.5989,25.1722,Asia,Qatar,Qatar - Al Wakrah,2017-03-26,13:41
61795,Spilopelia senegalensis cambayensis,subspecies,Laughing Dove ssp cambayensis,2,51.5989,25.1722,Asia,Qatar,Qatar - Al Wakrah,2017-03-26,13:41
61796,Passer domesticus,species,House Sparrow,1,51.5974,25.1781,Asia,Qatar,Qatar - Al Wakrah,2017-03-26,13:34
61797,Acridotheres tristis,species,Common Myna,1,51.5992,25.1799,Asia,Qatar,Qatar - Al Wakrah,2017-03-26,13:33
61798,Acridotheres tristis,species,Common Myna,1,51.5502,25.2498,Asia,Qatar,Qatar - Doha,2017-03-26,12:37
61799,Acridotheres tristis,species,Common Myna,1,51.5381,25.2541,Asia,Qatar,Qatar - Doha,2017-03-26,12:34
61800,Lanius excubitor aucheri,subspecies,Levant Grey Shrike,1,51.18,25.0116,Asia,Qatar,Qatar - Al Rayyan,2017-03-26,10:00
61801,Lanius phoenicuroides,species,Red-tailed Shrike,1,51.18,25.0116,Asia,Qatar,Qatar - Al Rayyan,2017-03-26,10:00
61802,Upupa epops,species,Eurasian Hoopoe,4,51.18000081,25.0115998,Asia,Qatar,Qatar - Irakaya Farm,2017-03-26,10:00
61803,Coturnix coturnix,species,Common Quail,1,51.18,25.0116,Asia,Qatar,Qatar - Al Rayyan,2017-03-26,10:00
61804,Pycnonotus leucotis,species,White-eared Bulbul,1,51.18,25.0116,Asia,Qatar,Qatar - Al Rayyan,2017-03-26,10:00
61805,Passer hispaniolensis,species,Spanish Sparrow,50,51.18,25.0116,Asia,Qatar,Qatar - Al Rayyan,2017-03-26,10:00
61806,Buteo rufinus,species,Long-legged Buzzard,1,51.18,25.0116,Asia,Qatar,Qatar - Al Rayyan,2017-03-26,10:00
61807,Circaetus gallicus,species,Short-toed Snake Eagle,1,51.18,25.0116,Asia,Qatar,Qatar - Al Rayyan,2017-03-26,10:00
61808,Falco tinnunculus,species,Common Kestrel,3,51.18,25.0116,Asia,Qatar,Qatar - Al Rayyan,2017-03-26,10:00
61809,Phoenicurus phoenicurus samamisicus,subspecies,Common Redstart ssp samamisicus,1,51.18,25.0116,Asia,Qatar,Qatar - Al Rayyan,2017-03-26,10:00
61810,Phoenicurus phoenicurus,species,Common Redstart,1,51.18,25.0116,Asia,Qatar,Qatar - Al Rayyan,2017-03-26,10:00
61811,Motacilla flava flava,subspecies,Blue-headed Wagtail,1,51.18,25.0116,Asia,Qatar,Qatar - Al Rayyan,2017-03-26,10:00
61812,Oenanthe pleschanka,species,Pied Wheatear,2,51.18,25.0116,Asia,Qatar,Qatar - Al Rayyan,2017-03-26,10:00
61813,Oenanthe isabellina,species,Isabelline Wheatear,1,51.18,25.0116,Asia,Qatar,Qatar - Al Rayyan,2017-03-26,10:00
61814,Anthus campestris,species,Tawny Pipit,1,51.18,25.0116,Asia,Qatar,Qatar - Al Rayyan,2017-03-26,10:00
61815,Emberiza calandra,species,Corn Bunting,3,51.18,25.0116,Asia,Qatar,Qatar - Al Rayyan,2017-03-26,10:00
61816,Galerida cristata,species,Crested Lark,1,51.18,25.0116,Asia,Qatar,Qatar - Al Rayyan,2017-03-26,10:00
61817,Spilopelia senegalensis cambayensis,subspecies,Laughing Dove ssp cambayensis,5,51.18,25.0116,Asia,Qatar,Qatar - Al Rayyan,2017-03-26,10:00
61818,Colias crocea,species,Clouded Yellow,1,51.1939,25.0072,Asia,Qatar,Qatar - Al Rayyan,2017-03-26,10:35
61819,Turdus philomelos,species,Song Thrush,1,51.18,25.0116,Asia,Qatar,Qatar - Al Rayyan,2017-03-26,10:00
61820,Acridotheres tristis,species,Common Myna,1,51.5084,25.2257,Asia,Qatar,Qatar - Doha,2017-03-26,08:39
61821,Spilopelia senegalensis cambayensis,subspecies,Laughing Dove ssp cambayensis,1,51.5089,25.2264,Asia,Qatar,Qatar - Doha,2017-03-26,08:38
61822,Spilopelia senegalensis cambayensis,subspecies,Laughing Dove ssp cambayensis,1,51.5515,25.2462,Asia,Qatar,Qatar - Doha,2017-03-26,08:32
61823,Spilopelia senegalensis cambayensis,subspecies,Laughing Dove ssp cambayensis,1,51.5537,25.2466,Asia,Qatar,Qatar - Doha,2017-03-26,08:31
61824,Streptopelia decaocto,species,Eurasian Collared Dove,1,51.5588,25.2486,Asia,Qatar,Qatar - Doha,2017-03-26,08:31
61825,Spilopelia senegalensis cambayensis,subspecies,Laughing Dove ssp cambayensis,1,51.5589,25.2484,Asia,Qatar,Qatar - Doha,2017-03-26,08:28
61826,Spilopelia senegalensis cambayensis,subspecies,Laughing Dove ssp cambayensis,1,51.5572,25.245,Asia,Qatar,Qatar - Doha,2017-03-26,08:25
61827,Acridotheres tristis,species,Common Myna,1,51.5575,25.2443,Asia,Qatar,Qatar - Doha,2017-03-26,08:25
61828,Spilopelia senegalensis cambayensis,subspecies,Laughing Dove ssp cambayensis,1,51.5608,25.2419,Asia,Qatar,Qatar - Doha,2017-03-26,08:24
61829,Spilopelia senegalensis cambayensis,subspecies,Laughing Dove ssp cambayensis,1,51.562,25.2419,Asia,Qatar,Qatar - Doha,2017-03-26,08:23
61830,Passer domesticus,species,House Sparrow,1,51.602,25.1733,Asia,Qatar,Qatar - Al Wakrah,2017-03-26,08:07
61831,Columba livia domestica,forma,Feral Pigeon,1,51.602,25.1733,Asia,Qatar,Qatar - Al Wakrah,2017-03-26,08:07
61832,Acridotheres tristis,species,Common Myna,1,51.6016,25.1719,Asia,Qatar,Qatar - Al Wakrah,2017-03-26,08:06
61833,Passer domesticus,species,House Sparrow,1,51.6018,25.1713,Asia,Qatar,Qatar - Al Wakrah,2017-03-26,08:06
61834,Spilopelia senegalensis cambayensis,subspecies,Laughing Dove ssp cambayensis,2,51.602,25.1714,Asia,Qatar,Qatar - Al Wakrah,2017-03-26,08:06
82053,Acridotheres tristis,species,Common Myna,2,51.5789,25.2118,Asia,Qatar,Qatar - Doha,2017-03-25,15:24
85175,Gallinago gallinago,species,Common Snipe,1,51.1578,25.0,Asia,Qatar,Qatar - Al Rayyan,2017-03-23,07:00
85352,Limosa lapponica,species,Bar-tailed Godwit,20,51.61806827,25.17900006,Asia,Qatar,Qatar - Al Wakrah,2017-03-21,15:30
85366,Chroicocephalus genei,species,Slender-billed Gull,20,51.6169,25.1811,Asia,Qatar,Qatar - Al Wakrah,2017-03-24,15:59
85367,Larus fuscus heuglini,subspecies,Heuglin's Gull,2,51.6169,25.1811,Asia,Qatar,Qatar - Al Wakrah,2017-03-24,15:59
85368,Hydroprogne caspia,species,Caspian Tern,3,51.6169,25.1811,Asia,Qatar,Qatar - Al Wakrah,2017-03-24,15:59
85369,Charadrius alexandrinus,species,Kentish Plover,1,51.6146,25.1794,Asia,Qatar,Qatar - Al Wakrah,2017-03-24,15:59
85372,Spilopelia senegalensis cambayensis,subspecies,Laughing Dove ssp cambayensis,1,51.5994,25.1731,Asia,Qatar,Qatar - Al Wakrah,2017-03-25,11:39
85373,Psittacula krameri,species,Rose-ringed Parakeet,3,51.6078,25.1782,Asia,Qatar,Qatar - Al Wakrah,2017-03-24,16:16
85378,Gelochelidon nilotica,species,Gull-billed Tern,1,51.617532,25.18178207,Asia,Qatar,Qatar - Al Wakrah,2017-03-21,15:00
85702,Acridotheres tristis,species,Common Myna,1,51.5996,25.1744,Asia,Qatar,Qatar - Al Wakrah,2017-03-25,12:26
85703,Columba livia domestica,forma,Feral Pigeon,3,51.6004,25.1768,Asia,Qatar,Qatar - Al Wakrah,2017-03-25,12:26
85704,Passer domesticus,species,House Sparrow,1,51.5998,25.1774,Asia,Qatar,Qatar - Al Wakrah,2017-03-25,12:26
85705,Streptopelia decaocto,species,Eurasian Collared Dove,1,51.5997,25.1774,Asia,Qatar,Qatar - Al Wakrah,2017-03-25,12:26
85706,Acridotheres tristis,species,Common Myna,1,51.5994,25.1746,Asia,Qatar,Qatar - Al Wakrah,2017-03-25,11:44
85707,Spilopelia senegalensis cambayensis,subspecies,Laughing Dove ssp cambayensis,1,51.5994,25.1731,Asia,Qatar,Qatar - Al Wakrah,2017-03-25,11:39
85947,Gelochelidon nilotica,species,Gull-billed Tern,1,51.617532,25.18178207,Asia,Qatar,Qatar - Al Wakrah,2017-03-21,15:00
87226,Gallinago gallinago,species,Common Snipe,1,51.1578,25.0,Asia,Qatar,Qatar - Al Rayyan,2017-03-23,07:00
87227,Passer domesticus,species,House Sparrow,1,51.6015,25.1715,Asia,Qatar,Qatar - Al Wakrah,2017-03-25,10:19
87228,Spilopelia senegalensis cambayensis,subspecies,Laughing Dove ssp cambayensis,1,51.6015,25.1715,Asia,Qatar,Qatar - Al Wakrah,2017-03-25,10:19
87229,Pycnonotus leucotis,species,White-eared Bulbul,1,51.6014,25.1714,Asia,Qatar,Qatar - Al Wakrah,2017-03-25,10:18
88938,Psittacula krameri,species,Rose-ringed Parakeet,1,51.6111,25.1796,Asia,Qatar,Qatar - Al Wakrah,2017-03-20,15:00
88968,Psittacula krameri,species,Rose-ringed Parakeet,1,51.6111,25.1796,Asia,Qatar,Qatar - Al Wakrah,2017-03-20,15:00
90717,Coturnix coturnix,species,Common Quail,1,51.6181,25.1365,Asia,Qatar,Qatar - Al Wakrah,2017-03-19,10:38
90718,Calidris alba,species,Sanderling,1,51.6181,25.1365,Asia,Qatar,Qatar - Al Wakrah,2017-03-19,10:38
90719,Chroicocephalus genei,species,Slender-billed Gull,2,51.6181,25.1365,Asia,Qatar,Qatar - Al Wakrah,2017-03-19,10:38
91159,Calidris alba,species,Sanderling,1,51.6181,25.1365,Asia,Qatar,Qatar - Al Wakrah,2017-03-19,10:38
91160,Chroicocephalus genei,species,Slender-billed Gull,2,51.6181,25.1365,Asia,Qatar,Qatar - Al Wakrah,2017-03-19,10:38
91348,Ardea cinerea,species,Grey Heron,1,51.6103,25.163,Asia,Qatar,Qatar - Al Wakrah,2017-03-19,11:55
91360,Spilopelia senegalensis cambayensis,subspecies,Laughing Dove ssp cambayensis,1,51.6054,25.1573,Asia,Qatar,Qatar - Al Wakrah,2017-03-19,09:35
92302,Passer domesticus,species,House Sparrow,5,51.6169,25.1811,Asia,Qatar,Qatar - Al Wakrah,2017-03-24,15:59
92303,Spilopelia senegalensis cambayensis,subspecies,Laughing Dove ssp cambayensis,1,51.6153,25.1808,Asia,Qatar,Qatar - Al Wakrah,2017-03-24,15:59
92304,Oenanthe oenanthe,species,Northern Wheatear,1,51.6153,25.1808,Asia,Qatar,Qatar - Al Wakrah,2017-03-24,15:59
92305,Chroicocephalus ridibundus,species,Black-headed Gull,4,51.6169,25.1811,Asia,Qatar,Qatar - Al Wakrah,2017-03-24,15:59
92306,Chroicocephalus genei,species,Slender-billed Gull,20,51.6169,25.1811,Asia,Qatar,Qatar - Al Wakrah,2017-03-24,15:59
92307,Larus fuscus heuglini,subspecies,Heuglin's Gull,2,51.6169,25.1811,Asia,Qatar,Qatar - Al Wakrah,2017-03-24,15:59
92308,Hydroprogne caspia,species,Caspian Tern,3,51.6169,25.1811,Asia,Qatar,Qatar - Al Wakrah,2017-03-24,15:59
92309,Charadrius alexandrinus,species,Kentish Plover,1,51.6146,25.1794,Asia,Qatar,Qatar - Al Wakrah,2017-03-24,15:59
92310,Columba livia domestica,forma,Feral Pigeon,30,51.6078,25.1782,Asia,Qatar,Qatar - Al Wakrah,2017-03-24,16:16
92311,Acridotheres tristis,species,Common Myna,1,51.6078,25.1782,Asia,Qatar,Qatar - Al Wakrah,2017-03-24,16:16
92312,Spilopelia senegalensis cambayensis,subspecies,Laughing Dove ssp cambayensis,1,51.6078,25.1782,Asia,Qatar,Qatar - Al Wakrah,2017-03-24,16:16
92313,Pycnonotus leucotis,species,White-eared Bulbul,1,51.6078,25.1782,Asia,Qatar,Qatar - Al Wakrah,2017-03-24,16:16
92314,Lampides boeticus,species,Long-tailed Blue,1,51.6047,25.1775,Asia,Qatar,Qatar - Al Wakrah,2017-03-24,16:24
92315,Psittacula krameri,species,Rose-ringed Parakeet,3,51.6078,25.1782,Asia,Qatar,Qatar - Al Wakrah,2017-03-24,16:16
92316,Pycnonotus leucotis,species,White-eared Bulbul,1,51.5885,25.1714,Asia,Qatar,Qatar - Al Wakrah,2017-03-24,13:35
103007,Sylvia curruca,species,Lesser Whitethroat,1,51.6158,25.1313,Asia,Qatar,Qatar - Al Wakrah,2017-03-19,09:41
103084,Phoenicopterus roseus,species,Greater Flamingo,17,51.54996883,25.0093587,Asia,Qatar,Qatar - Al Wakrah,2017-03-23,14:00
103169,Colias crocea,species,Clouded Yellow,1,51.1871,24.9991,Asia,Qatar,Qatar - Al Rayyan,2017-03-23,09:00
103170,Falco tinnunculus,species,Common Kestrel,1,51.1871,24.9991,Asia,Qatar,Qatar - Al Rayyan,2017-03-23,09:00
103171,Circus macrourus,species,Pallid Harrier,2,51.1871,24.9991,Asia,Qatar,Qatar - Al Rayyan,2017-03-23,09:00
103172,Euodice malabarica,species,Indian Silverbill,2,51.1871,24.9991,Asia,Qatar,Qatar - Al Rayyan,2017-03-23,09:00
103174,Lanius excubitor aucheri,subspecies,Levant Grey Shrike,1,51.1871,24.9991,Asia,Qatar,Qatar - Al Rayyan,2017-03-23,09:00
103175,Lanius nubicus,species,Masked Shrike,1,51.1871,24.9991,Asia,Qatar,Qatar - Al Rayyan,2017-03-23,09:00
103176,Upupa epops,species,Eurasian Hoopoe,1,51.1871,24.9991,Asia,Qatar,Qatar - Al Rayyan,2017-03-23,09:00
103177,Oenanthe pleschanka,species,Pied Wheatear,1,51.1871,24.9991,Asia,Qatar,Qatar - Al Rayyan,2017-03-23,09:00
103178,Emberiza calandra,species,Corn Bunting,4,51.1871,24.9991,Asia,Qatar,Qatar - Al Rayyan,2017-03-23,09:00
103179,Galerida cristata,species,Crested Lark,15,51.1871,24.9991,Asia,Qatar,Qatar - Al Rayyan,2017-03-23,09:00
103180,Spilopelia senegalensis cambayensis,subspecies,Laughing Dove ssp cambayensis,10,51.1871,24.9991,Asia,Qatar,Qatar - Al Rayyan,2017-03-23,09:00
103181,Oena capensis,species,Namaqua Dove,1,51.1871,24.9991,Asia,Qatar,Qatar - Al Rayyan,2017-03-23,09:00
103323,Phoenicurus phoenicurus,species,Common Redstart,1,51.1871,24.9991,Asia,Qatar,Qatar - Al Rayyan,2017-03-23,09:00
103324,Passer hispaniolensis,species,Spanish Sparrow,10,51.1871,24.9991,Asia,Qatar,Qatar - Al Rayyan,2017-03-23,09:00
103325,Pycnonotus leucotis,species,White-eared Bulbul,1,51.1578,25.0,Asia,Qatar,Qatar - Al Rayyan,2017-03-23,07:00
103326,Merops apiaster,species,European Bee-eater,1,51.1578,25.0,Asia,Qatar,Qatar - Al Rayyan,2017-03-23,07:00
103327,Lanius phoenicuroides,species,Red-tailed Shrike,1,51.1578,25.0,Asia,Qatar,Qatar - Al Rayyan,2017-03-23,07:00
103328,Lanius excubitor aucheri,subspecies,Levant Grey Shrike,1,51.1578,25.0,Asia,Qatar,Qatar - Al Rayyan,2017-03-23,07:00
103329,Francolinus pondicerianus,species,Grey Francolin,1,51.1578,25.0,Asia,Qatar,Qatar - Al Rayyan,2017-03-23,07:00
103330,Coturnix coturnix,species,Common Quail,1,51.1578,25.0,Asia,Qatar,Qatar - Al Rayyan,2017-03-23,07:00
103331,Himantopus himantopus,species,Black-winged Stilt,3,51.1578,25.0,Asia,Qatar,Qatar - Al Rayyan,2017-03-23,07:00
103332,Vanellus indicus,species,Red-wattled Lapwing,3,51.1578,25.0,Asia,Qatar,Qatar - Al Rayyan,2017-03-23,07:00
103333,Luscinia svecica,species,Bluethroat,1,51.1578,25.0,Asia,Qatar,Qatar - Al Rayyan,2017-03-23,07:00
103334,Motacilla flava,species,Western Yellow Wagtail,1,51.1578,25.0,Asia,Qatar,Qatar - Al Rayyan,2017-03-23,07:00
103335,Falco tinnunculus,species,Common Kestrel,1,51.1578,25.0,Asia,Qatar,Qatar - Al Rayyan,2017-03-23,07:00
103336,Circus aeruginosus,species,Western Marsh Harrier,1,51.1578,25.0,Asia,Qatar,Qatar - Al Rayyan,2017-03-23,07:00
103346,Podiceps nigricollis,species,Black-necked Grebe,1,51.1578,25.0,Asia,Qatar,Qatar - Al Rayyan,2017-03-23,07:00
103347,Podiceps cristatus,species,Great Crested Grebe,1,51.1578,25.0,Asia,Qatar,Qatar - Al Rayyan,2017-03-23,07:00
103348,Phoenicopterus roseus,species,Greater Flamingo,1,51.1578,25.0,Asia,Qatar,Qatar - Al Rayyan,2017-03-23,07:00
103349,Porphyrio madagascariensis,species,African Swamphen,4,51.1578,25.0,Asia,Qatar,Qatar - Al Rayyan,2017-03-23,07:00
103350,Fulica atra,species,Eurasian Coot,1,51.1578,25.0,Asia,Qatar,Qatar - Al Rayyan,2017-03-23,07:00
103351,Gallinula chloropus,species,Common Moorhen,1,51.1578,25.0,Asia,Qatar,Qatar - Al Rayyan,2017-03-23,07:00
103352,Ardea purpurea,species,Purple Heron,1,51.1578,25.0,Asia,Qatar,Qatar - Al Rayyan,2017-03-23,07:00
103353,Utetheisa pulchella,species,Crimson Speckled,3,51.6156,25.1818,Asia,Qatar,Qatar - Al Wakrah,2017-03-22,16:00
103354,Oenanthe isabellina,species,Isabelline Wheatear,1,51.6156,25.1818,Asia,Qatar,Qatar - Al Wakrah,2017-03-22,16:00
103355,Sylvia nana,species,Asian Desert Warbler,1,51.6156,25.1818,Asia,Qatar,Qatar - Al Wakrah,2017-03-22,16:00
103372,Jynx torquilla,species,Eurasian Wryneck,1,51.6156,25.1818,Asia,Qatar,Qatar - Al Wakrah,2017-03-22,16:00
103373,Lanius senator,species,Woodchat Shrike,2,51.6157,25.1818,Asia,Qatar,Qatar - Al Wakrah,2017-03-22,16:00
103374,Lanius phoenicuroides,species,Red-tailed Shrike,1,51.6157,25.1818,Asia,Qatar,Qatar - Al Wakrah,2017-03-22,16:00
103375,Lanius isabellinus,species,Isabelline Shrike,1,51.6157,25.1818,Asia,Qatar,Qatar - Al Wakrah,2017-03-22,16:00
103376,Calidris alpina,species,Dunlin,1,51.617,25.1794,Asia,Qatar,Qatar - Al Wakrah,2017-03-22,16:00
103377,Charadrius alexandrinus,species,Kentish Plover,1,51.617,25.1794,Asia,Qatar,Qatar - Al Wakrah,2017-03-22,16:00
103378,Tringa nebularia,species,Common Greenshank,1,51.617,25.1794,Asia,Qatar,Qatar - Al Wakrah,2017-03-22,16:00
103379,Pycnonotus leucotis,species,White-eared Bulbul,3,51.617,25.1794,Asia,Qatar,Qatar - Al Wakrah,2017-03-22,16:00
103380,Acridotheres tristis,species,Common Myna,6,51.617,25.1794,Asia,Qatar,Qatar - Al Wakrah,2017-03-22,16:00
103381,Alcedo atthis,species,Common Kingfisher,1,51.617,25.1794,Asia,Qatar,Qatar - Al Wakrah,2017-03-22,16:00
103382,Butorides striata,species,Striated Heron,1,51.617,25.1794,Asia,Qatar,Qatar - Al Wakrah,2017-03-22,16:00
103383,Passer domesticus,species,House Sparrow,10,51.6116,25.1796,Asia,Qatar,Qatar - Al Wakrah,2017-03-22,13:00
103384,Acridotheres tristis,species,Common Myna,3,51.6116,25.1796,Asia,Qatar,Qatar - Al Wakrah,2017-03-22,13:00
103386,Upupa epops,species,Eurasian Hoopoe,1,51.6116,25.1796,Asia,Qatar,Qatar - Al Wakrah,2017-03-22,13:00
103387,Streptopelia decaocto,species,Eurasian Collared Dove,3,51.6116,25.1796,Asia,Qatar,Qatar - Al Wakrah,2017-03-22,13:00
103388,Spilopelia senegalensis cambayensis,subspecies,Laughing Dove ssp cambayensis,5,51.6116,25.1796,Asia,Qatar,Qatar - Al Wakrah,2017-03-22,13:00
103389,Pycnonotus cafer,species,Red-vented Bulbul,5,51.6116,25.1796,Asia,Qatar,Qatar - Al Wakrah,2017-03-22,13:00
103390,Pycnonotus leucotis,species,White-eared Bulbul,5,51.6116,25.1796,Asia,Qatar,Qatar - Al Wakrah,2017-03-22,13:00
103391,Sylvia atricapilla,species,Eurasian Blackcap,1,51.6116,25.1796,Asia,Qatar,Qatar - Al Wakrah,2017-03-22,13:00
103392,Turdus philomelos,species,Song Thrush,1,51.6116,25.1796,Asia,Qatar,Qatar - Al Wakrah,2017-03-22,13:00
103684,Fulica atra,species,Eurasian Coot,1,51.1578,25.0,Asia,Qatar,Qatar - Al Rayyan,2017-03-23,07:00
103685,Gallinula chloropus,species,Common Moorhen,1,51.1578,25.0,Asia,Qatar,Qatar - Al Rayyan,2017-03-23,07:00
103686,Ardea purpurea,species,Purple Heron,1,51.1578,25.0,Asia,Qatar,Qatar - Al Rayyan,2017-03-23,07:00
103687,Oenanthe isabellina,species,Isabelline Wheatear,1,51.6156,25.1818,Asia,Qatar,Qatar - Al Wakrah,2017-03-22,16:00
103688,Sylvia nana,species,Asian Desert Warbler,1,51.6156,25.1818,Asia,Qatar,Qatar - Al Wakrah,2017-03-22,16:00
103689,Lanius senator,species,Woodchat Shrike,2,51.6157,25.1818,Asia,Qatar,Qatar - Al Wakrah,2017-03-22,16:00
103698,Lanius phoenicuroides,species,Red-tailed Shrike,1,51.1578,25.0,Asia,Qatar,Qatar - Al Rayyan,2017-03-23,07:00
103699,Lanius excubitor aucheri,subspecies,Levant Grey Shrike,1,51.1578,25.0,Asia,Qatar,Qatar - Al Rayyan,2017-03-23,07:00
103700,Francolinus pondicerianus,species,Grey Francolin,1,51.1578,25.0,Asia,Qatar,Qatar - Al Rayyan,2017-03-23,07:00
103701,Coturnix coturnix,species,Common Quail,1,51.1578,25.0,Asia,Qatar,Qatar - Al Rayyan,2017-03-23,07:00
103702,Himantopus himantopus,species,Black-winged Stilt,3,51.1578,25.0,Asia,Qatar,Qatar - Al Rayyan,2017-03-23,07:00
103703,Vanellus indicus,species,Red-wattled Lapwing,3,51.1578,25.0,Asia,Qatar,Qatar - Al Rayyan,2017-03-23,07:00
103704,Luscinia svecica,species,Bluethroat,1,51.1578,25.0,Asia,Qatar,Qatar - Al Rayyan,2017-03-23,07:00
103705,Motacilla flava,species,Western Yellow Wagtail,1,51.1578,25.0,Asia,Qatar,Qatar - Al Rayyan,2017-03-23,07:00
103706,Falco tinnunculus,species,Common Kestrel,1,51.1578,25.0,Asia,Qatar,Qatar - Al Rayyan,2017-03-23,07:00
103707,Circus aeruginosus,species,Western Marsh Harrier,1,51.1578,25.0,Asia,Qatar,Qatar - Al Rayyan,2017-03-23,07:00
103708,Podiceps nigricollis,species,Black-necked Grebe,1,51.1578,25.0,Asia,Qatar,Qatar - Al Rayyan,2017-03-23,07:00
103709,Podiceps cristatus,species,Great Crested Grebe,1,51.1578,25.0,Asia,Qatar,Qatar - Al Rayyan,2017-03-23,07:00
103710,Aythya nyroca,species,Ferruginous Duck,2,51.1578,25.0,Asia,Qatar,Qatar - Al Rayyan,2017-03-23,07:00
103711,Phoenicopterus roseus,species,Greater Flamingo,1,51.1578,25.0,Asia,Qatar,Qatar - Al Rayyan,2017-03-23,07:00
103722,Anthus spinoletta,species,Water Pipit,1,51.1578,25.0,Asia,Qatar,Qatar - Al Rayyan,2017-03-23,07:00
103723,Hirundo rustica,species,Barn Swallow,1,51.1578,25.0,Asia,Qatar,Qatar - Al Rayyan,2017-03-23,07:00
103724,Circus macrourus,species,Pallid Harrier,2,51.1871,24.9991,Asia,Qatar,Qatar - Al Rayyan,2017-03-23,09:00
103725,Euodice malabarica,species,Indian Silverbill,2,51.1871,24.9991,Asia,Qatar,Qatar - Al Rayyan,2017-03-23,09:00
103726,Lanius excubitor aucheri,subspecies,Levant Grey Shrike,1,51.1871,24.9991,Asia,Qatar,Qatar - Al Rayyan,2017-03-23,09:00
103727,Lanius nubicus,species,Masked Shrike,1,51.1871,24.9991,Asia,Qatar,Qatar - Al Rayyan,2017-03-23,09:00
103728,Upupa epops,species,Eurasian Hoopoe,1,51.1871,24.9991,Asia,Qatar,Qatar - Al Rayyan,2017-03-23,09:00
103729,Oenanthe pleschanka,species,Pied Wheatear,1,51.1871,24.9991,Asia,Qatar,Qatar - Al Rayyan,2017-03-23,09:00
103730,Emberiza calandra,species,Corn Bunting,4,51.1871,24.9991,Asia,Qatar,Qatar - Al Rayyan,2017-03-23,09:00
103731,Galerida cristata,species,Crested Lark,15,51.1871,24.9991,Asia,Qatar,Qatar - Al Rayyan,2017-03-23,09:00
103732,Spilopelia senegalensis cambayensis,subspecies,Laughing Dove ssp cambayensis,10,51.1871,24.9991,Asia,Qatar,Qatar - Al Rayyan,2017-03-23,09:00
103733,Oena capensis,species,Namaqua Dove,1,51.1871,24.9991,Asia,Qatar,Qatar - Al Rayyan,2017-03-23,09:00
103734,Phoenicurus phoenicurus,species,Common Redstart,1,51.1871,24.9991,Asia,Qatar,Qatar - Al Rayyan,2017-03-23,09:00
103735,Passer hispaniolensis,species,Spanish Sparrow,10,51.1871,24.9991,Asia,Qatar,Qatar - Al Rayyan,2017-03-23,09:00
103736,Pycnonotus leucotis,species,White-eared Bulbul,1,51.1578,25.0,Asia,Qatar,Qatar - Al Rayyan,2017-03-23,07:00
103738,Merops apiaster,species,European Bee-eater,1,51.1578,25.0,Asia,Qatar,Qatar - Al Rayyan,2017-03-23,07:00
103755,Falco tinnunculus,species,Common Kestrel,1,51.1871,24.9991,Asia,Qatar,Qatar - Al Rayyan,2017-03-23,09:00
103913,Sylvia curruca,species,Lesser Whitethroat,1,51.6158,25.1313,Asia,Qatar,Qatar - Al Wakrah,2017-03-19,09:41
104015,Anthus spinoletta,species,Water Pipit,1,51.1578,25.0,Asia,Qatar,Qatar - Al Rayyan,2017-03-23,07:00
106490,Colias crocea,species,Clouded Yellow,1,51.1871,24.9991,Asia,Qatar,Qatar - Al Rayyan,2017-03-23,09:00
107277,Phoenicopterus roseus,species,Greater Flamingo,17,51.54996883,25.0093587,Asia,Qatar,Qatar - Al Wakrah,2017-03-23,14:00
111475,Hirundo rustica,species,Barn Swallow,1,51.1578,25.0,Asia,Qatar,Qatar - Al Rayyan,2017-03-23,07:00
111477,Falco tinnunculus,species,Common Kestrel,1,51.1871,24.9991,Asia,Qatar,Qatar - Al Rayyan,2017-03-23,09:00
111478,Circus macrourus,species,Pallid Harrier,2,51.1871,24.9991,Asia,Qatar,Qatar - Al Rayyan,2017-03-23,09:00
111479,Pycnonotus leucotis,species,White-eared Bulbul,3,51.1871,24.9991,Asia,Qatar,Qatar - Al Rayyan,2017-03-23,09:00
111480,Euodice malabarica,species,Indian Silverbill,2,51.1871,24.9991,Asia,Qatar,Qatar - Al Rayyan,2017-03-23,09:00
111481,Lanius excubitor aucheri,subspecies,Levant Grey Shrike,1,51.1871,24.9991,Asia,Qatar,Qatar - Al Rayyan,2017-03-23,09:00
111482,Lanius nubicus,species,Masked Shrike,1,51.1871,24.9991,Asia,Qatar,Qatar - Al Rayyan,2017-03-23,09:00
111484,Upupa epops,species,Eurasian Hoopoe,1,51.1871,24.9991,Asia,Qatar,Qatar - Al Rayyan,2017-03-23,09:00
111485,Oenanthe pleschanka,species,Pied Wheatear,1,51.1871,24.9991,Asia,Qatar,Qatar - Al Rayyan,2017-03-23,09:00
111487,Emberiza calandra,species,Corn Bunting,4,51.1871,24.9991,Asia,Qatar,Qatar - Al Rayyan,2017-03-23,09:00
111489,Galerida cristata,species,Crested Lark,15,51.1871,24.9991,Asia,Qatar,Qatar - Al Rayyan,2017-03-23,09:00
111491,Spilopelia senegalensis cambayensis,subspecies,Laughing Dove ssp cambayensis,10,51.1871,24.9991,Asia,Qatar,Qatar - Al Rayyan,2017-03-23,09:00
111492,Phoenicurus phoenicurus,species,Common Redstart,1,51.1871,24.9991,Asia,Qatar,Qatar - Al Rayyan,2017-03-23,09:00
111493,Passer hispaniolensis,species,Spanish Sparrow,10,51.1871,24.9991,Asia,Qatar,Qatar - Al Rayyan,2017-03-23,09:00
111495,Pycnonotus leucotis,species,White-eared Bulbul,1,51.1578,25.0,Asia,Qatar,Qatar - Al Rayyan,2017-03-23,07:00
111496,Merops apiaster,species,European Bee-eater,1,51.1578,25.0,Asia,Qatar,Qatar - Al Rayyan,2017-03-23,07:00
111497,Lanius phoenicuroides,species,Red-tailed Shrike,1,51.1578,25.0,Asia,Qatar,Qatar - Al Rayyan,2017-03-23,07:00
111498,Lanius excubitor aucheri,subspecies,Levant Grey Shrike,1,51.1578,25.0,Asia,Qatar,Qatar - Al Rayyan,2017-03-23,07:00
111500,Francolinus pondicerianus,species,Grey Francolin,1,51.1578,25.0,Asia,Qatar,Qatar - Al Rayyan,2017-03-23,07:00
111501,Coturnix coturnix,species,Common Quail,1,51.1578,25.0,Asia,Qatar,Qatar - Al Rayyan,2017-03-23,07:00
111502,Himantopus himantopus,species,Black-winged Stilt,3,51.1578,25.0,Asia,Qatar,Qatar - Al Rayyan,2017-03-23,07:00
111504,Luscinia svecica,species,Bluethroat,1,51.1578,25.0,Asia,Qatar,Qatar - Al Rayyan,2017-03-23,07:00
111505,Motacilla flava,species,Western Yellow Wagtail,1,51.1578,25.0,Asia,Qatar,Qatar - Al Rayyan,2017-03-23,07:00
111506,Falco tinnunculus,species,Common Kestrel,1,51.1578,25.0,Asia,Qatar,Qatar - Al Rayyan,2017-03-23,07:00
111508,Circus aeruginosus,species,Western Marsh Harrier,1,51.1578,25.0,Asia,Qatar,Qatar - Al Rayyan,2017-03-23,07:00
111510,Podiceps nigricollis,species,Black-necked Grebe,1,51.1578,25.0,Asia,Qatar,Qatar - Al Rayyan,2017-03-23,07:00
111512,Podiceps cristatus,species,Great Crested Grebe,1,51.1578,25.0,Asia,Qatar,Qatar - Al Rayyan,2017-03-23,07:00
111513,Aythya nyroca,species,Ferruginous Duck,2,51.1578,25.0,Asia,Qatar,Qatar - Al Rayyan,2017-03-23,07:00
111515,Phoenicopterus roseus,species,Greater Flamingo,1,51.1578,25.0,Asia,Qatar,Qatar - Al Rayyan,2017-03-23,07:00
111516,Porphyrio madagascariensis,species,African Swamphen,4,51.1578,25.0,Asia,Qatar,Qatar - Al Rayyan,2017-03-23,07:00
111517,Fulica atra,species,Eurasian Coot,1,51.1578,25.0,Asia,Qatar,Qatar - Al Rayyan,2017-03-23,07:00
111518,Gallinula chloropus,species,Common Moorhen,1,51.1578,25.0,Asia,Qatar,Qatar - Al Rayyan,2017-03-23,07:00
111520,Ardea purpurea,species,Purple Heron,1,51.1578,25.0,Asia,Qatar,Qatar - Al Rayyan,2017-03-23,07:00
114721,Brephidium exilis,species,Western Pygmy-Blue,20,51.6156,25.1818,Asia,Qatar,Qatar - Al Wakrah,2017-03-22,16:00
114728,Utetheisa pulchella,species,Crimson Speckled,3,51.6156,25.1818,Asia,Qatar,Qatar - Al Wakrah,2017-03-22,16:00
115212,Oenanthe isabellina,species,Isabelline Wheatear,1,51.6156,25.1818,Asia,Qatar,Qatar - Al Wakrah,2017-03-22,16:00
115214,Sylvia nana,species,Asian Desert Warbler,1,51.6156,25.1818,Asia,Qatar,Qatar - Al Wakrah,2017-03-22,16:00
115215,Jynx torquilla,species,Eurasian Wryneck,1,51.6156,25.1818,Asia,Qatar,Qatar - Al Wakrah,2017-03-22,16:00
115216,Lanius senator,species,Woodchat Shrike,2,51.6157,25.1818,Asia,Qatar,Qatar - Al Wakrah,2017-03-22,16:00
115218,Lanius phoenicuroides,species,Red-tailed Shrike,1,51.6157,25.1818,Asia,Qatar,Qatar - Al Wakrah,2017-03-22,16:00
115219,Lanius isabellinus,species,Isabelline Shrike,1,51.6157,25.1818,Asia,Qatar,Qatar - Al Wakrah,2017-03-22,16:00
115221,Calidris alpina,species,Dunlin,1,51.617,25.1794,Asia,Qatar,Qatar - Al Wakrah,2017-03-22,16:00
115223,Charadrius alexandrinus,species,Kentish Plover,1,51.617,25.1794,Asia,Qatar,Qatar - Al Wakrah,2017-03-22,16:00
115224,Tringa nebularia,species,Common Greenshank,1,51.617,25.1794,Asia,Qatar,Qatar - Al Wakrah,2017-03-22,16:00
115225,Pycnonotus leucotis,species,White-eared Bulbul,3,51.617,25.1794,Asia,Qatar,Qatar - Al Wakrah,2017-03-22,16:00
115227,Acridotheres tristis,species,Common Myna,6,51.617,25.1794,Asia,Qatar,Qatar - Al Wakrah,2017-03-22,16:00
115228,Alcedo atthis,species,Common Kingfisher,1,51.617,25.1794,Asia,Qatar,Qatar - Al Wakrah,2017-03-22,16:00
115230,Butorides striata,species,Striated Heron,1,51.617,25.1794,Asia,Qatar,Qatar - Al Wakrah,2017-03-22,16:00
115232,Passer domesticus,species,House Sparrow,10,51.6116,25.1796,Asia,Qatar,Qatar - Al Wakrah,2017-03-22,13:00
115233,Acridotheres tristis,species,Common Myna,3,51.6116,25.1796,Asia,Qatar,Qatar - Al Wakrah,2017-03-22,13:00
115235,Upupa epops,species,Eurasian Hoopoe,1,51.6116,25.1796,Asia,Qatar,Qatar - Al Wakrah,2017-03-22,13:00
115237,Streptopelia decaocto,species,Eurasian Collared Dove,3,51.6116,25.1796,Asia,Qatar,Qatar - Al Wakrah,2017-03-22,13:00
115238,Spilopelia senegalensis cambayensis,subspecies,Laughing Dove ssp cambayensis,5,51.6116,25.1796,Asia,Qatar,Qatar - Al Wakrah,2017-03-22,13:00
115239,Pycnonotus cafer,species,Red-vented Bulbul,5,51.6116,25.1796,Asia,Qatar,Qatar - Al Wakrah,2017-03-22,13:00
115241,Pycnonotus leucotis,species,White-eared Bulbul,5,51.6116,25.1796,Asia,Qatar,Qatar - Al Wakrah,2017-03-22,13:00
115242,Sylvia atricapilla,species,Eurasian Blackcap,1,51.6116,25.1796,Asia,Qatar,Qatar - Al Wakrah,2017-03-22,13:00
115244,Turdus philomelos,species,Song Thrush,1,51.6116,25.1796,Asia,Qatar,Qatar - Al Wakrah,2017-03-22,13:00
6948,Buteo rufinus,species,Long-legged Buzzard,1,51.1905,25.0007,Asia,Qatar,Qatar - Al Rayyan,2017-03-18,13:00
6957,Lanius nubicus,species,Masked Shrike,1,51.5161,24.8617,Asia,Qatar,Qatar - Al Wakrah,2017-03-20,12:00
6958,Lanius senator,species,Woodchat Shrike,1,51.5161,24.8617,Asia,Qatar,Qatar - Al Wakrah,2017-03-20,12:00
6959,Phoenicopterus roseus,species,Greater Flamingo,34,51.5503,25.0095,Asia,Qatar,Qatar - Mesaieed,2017-03-20,09:35
6965,Calidris alba,species,Sanderling,1,51.6171,25.1795,Asia,Qatar,Qatar - Al Wakrah,2017-03-20,16:00
6966,Calidris alpina,species,Dunlin,15,51.6171,25.1795,Asia,Qatar,Qatar - Al Wakrah,2017-03-20,16:00
6967,Chroicocephalus genei,species,Slender-billed Gull,1,51.6171,25.1795,Asia,Qatar,Qatar - Al Wakrah,2017-03-20,16:00
6968,Actitis hypoleucos,species,Common Sandpiper,2,51.6171,25.1795,Asia,Qatar,Qatar - Al Wakrah,2017-03-20,16:00
6969,Xenus cinereus,species,Terek Sandpiper,1,51.6171,25.1795,Asia,Qatar,Qatar - Al Wakrah,2017-03-20,16:00
6970,Tringa nebularia,species,Common Greenshank,1,51.6171,25.1795,Asia,Qatar,Qatar - Al Wakrah,2017-03-20,16:00
6971,Alcedo atthis,species,Common Kingfisher,1,51.6171,25.1795,Asia,Qatar,Qatar - Al Wakrah,2017-03-20,16:00
6972,Butorides striata,species,Striated Heron,1,51.6171,25.1795,Asia,Qatar,Qatar - Al Wakrah,2017-03-20,16:00
6973,Passer domesticus,species,House Sparrow,3,51.6111,25.1796,Asia,Qatar,Qatar - Al Wakrah,2017-03-20,15:00
6974,Pycnonotus leucotis,species,White-eared Bulbul,10,51.6111,25.1796,Asia,Qatar,Qatar - Al Wakrah,2017-03-20,15:00
6975,Pycnonotus cafer,species,Red-vented Bulbul,3,51.6111,25.1796,Asia,Qatar,Qatar - Al Wakrah,2017-03-20,15:00
6976,Sylvia mystacea,species,Menetries's Warbler,1,51.5161,24.8617,Asia,Qatar,Qatar - Al Wakrah,2017-03-20,12:00
6977,Phoenicurus phoenicurus,species,Common Redstart,1,51.5161,24.8617,Asia,Qatar,Qatar - Al Wakrah,2017-03-20,12:00
6978,Pastor roseus,species,Rosy Starling,1,51.5161,24.8617,Asia,Qatar,Qatar - Al Wakrah,2017-03-20,12:00
6990,Sylvia atricapilla,species,Eurasian Blackcap,2,51.179,25.0118,Asia,Qatar,Qatar - Al Rayyan,2017-03-21,11:00
6991,Phoenicurus phoenicurus,species,Common Redstart,1,51.179,25.0118,Asia,Qatar,Qatar - Al Rayyan,2017-03-21,11:00
6992,Passer hispaniolensis,species,Spanish Sparrow,1,51.179,25.0118,Asia,Qatar,Qatar - Al Rayyan,2017-03-21,11:00
6993,Oenanthe pleschanka,species,Pied Wheatear,1,51.6155,25.1801,Asia,Qatar,Qatar - Al Wakrah,2017-03-20,16:00
6994,Numenius arquata,species,Eurasian Curlew,1,51.6171,25.1795,Asia,Qatar,Qatar - Al Wakrah,2017-03-20,16:00
6995,Charadrius alexandrinus,species,Kentish Plover,1,51.6171,25.1795,Asia,Qatar,Qatar - Al Wakrah,2017-03-20,16:00
6996,Calidris alba,species,Sanderling,1,51.6171,25.1795,Asia,Qatar,Qatar - Al Wakrah,2017-03-20,16:00
6999,Limosa lapponica,species,Bar-tailed Godwit,20,51.61806827,25.17900006,Asia,Qatar,Qatar - Al Wakrah,2017-03-21,15:30
7010,Anthus campestris,species,Tawny Pipit,2,51.179,25.0118,Asia,Qatar,Qatar - Al Rayyan,2017-03-21,11:00
7011,Upupa epops,species,Eurasian Hoopoe,5,51.179,25.0118,Asia,Qatar,Qatar - Al Rayyan,2017-03-21,11:00
7012,Lanius excubitor aucheri,subspecies,Levant Grey Shrike,1,51.179,25.0118,Asia,Qatar,Qatar - Al Rayyan,2017-03-21,11:00
7013,Lanius phoenicuroides,species,Red-tailed Shrike,1,51.179,25.0118,Asia,Qatar,Qatar - Al Rayyan,2017-03-21,11:00
7014,Coturnix coturnix,species,Common Quail,3,51.179,25.0118,Asia,Qatar,Qatar - Al Rayyan,2017-03-21,11:00
7015,Bubulcus ibis,species,Western Cattle Egret,3,51.179,25.0118,Asia,Qatar,Qatar - Al Rayyan,2017-03-21,11:00
7016,Falco tinnunculus,species,Common Kestrel,1,51.179,25.0118,Asia,Qatar,Qatar - Al Rayyan,2017-03-21,11:00
7017,Circus macrourus,species,Pallid Harrier,1,51.179,25.0118,Asia,Qatar,Qatar - Al Rayyan,2017-03-21,11:00
7018,Oenanthe pleschanka,species,Pied Wheatear,1,51.179,25.0118,Asia,Qatar,Qatar - Al Rayyan,2017-03-21,11:00
7019,Pycnonotus leucotis,species,White-eared Bulbul,1,51.179,25.0118,Asia,Qatar,Qatar - Al Rayyan,2017-03-21,11:00
7020,Cercotrichas galactotes,species,Rufous-tailed Scrub Robin,1,51.179,25.0118,Asia,Qatar,Qatar - Al Rayyan,2017-03-21,11:00
7021,Oena capensis,species,Namaqua Dove,4,51.179,25.0118,Asia,Qatar,Qatar - Al Rayyan,2017-03-21,11:00
7022,Turdus philomelos,species,Song Thrush,1,51.179,25.0118,Asia,Qatar,Qatar - Al Rayyan,2017-03-21,11:00
7052,Emberiza calandra,species,Corn Bunting,2,51.179,25.0118,Asia,Qatar,Qatar - Al Rayyan,2017-03-21,11:00
7053,Colias crocea,species,Clouded Yellow,1,51.179,25.0118,Asia,Qatar,Qatar - Al Rayyan,2017-03-21,11:00
7054,Buteo rufinus,species,Long-legged Buzzard,1,51.179,25.0118,Asia,Qatar,Qatar - Al Rayyan,2017-03-21,11:00
7055,Oenanthe oenanthe,species,Northern Wheatear,1,51.179,25.0118,Asia,Qatar,Qatar - Al Rayyan,2017-03-21,11:00
7056,Spilopelia senegalensis cambayensis,subspecies,Laughing Dove ssp cambayensis,1,51.6171,25.1793,Asia,Qatar,Qatar - Al Wakrah,2017-03-21,15:00
7057,Acridotheres tristis,species,Common Myna,2,51.6171,25.1793,Asia,Qatar,Qatar - Al Wakrah,2017-03-21,15:00
7058,Pycnonotus leucotis,species,White-eared Bulbul,2,51.6171,25.1793,Asia,Qatar,Qatar - Al Wakrah,2017-03-21,15:00
7059,Euodice malabarica,species,Indian Silverbill,2,51.6171,25.1793,Asia,Qatar,Qatar - Al Wakrah,2017-03-21,15:00
7060,Alcedo atthis,species,Common Kingfisher,1,51.6171,25.1793,Asia,Qatar,Qatar - Al Wakrah,2017-03-21,15:00
7061,Butorides striata,species,Striated Heron,1,51.6171,25.1793,Asia,Qatar,Qatar - Al Wakrah,2017-03-21,15:00
7062,Calidris alpina,species,Dunlin,5,51.6181,25.1804,Asia,Qatar,Qatar - Al Wakrah,2017-03-21,15:00
7063,Calidris alba,species,Sanderling,2,51.6181,25.1804,Asia,Qatar,Qatar - Al Wakrah,2017-03-21,15:00
7064,Charadrius alexandrinus,species,Kentish Plover,1,51.6181,25.1804,Asia,Qatar,Qatar - Al Wakrah,2017-03-21,15:00
7065,Haematopus ostralegus,species,Eurasian Oystercatcher,5,51.6181,25.1804,Asia,Qatar,Qatar - Al Wakrah,2017-03-21,15:00
7066,Chroicocephalus genei,species,Slender-billed Gull,1,51.6181,25.1804,Asia,Qatar,Qatar - Al Wakrah,2017-03-21,15:00
7469,Emberiza calandra,species,Corn Bunting,2,51.179,25.0118,Asia,Qatar,Qatar - Al Rayyan,2017-03-21,11:00
7506,Sylvia atricapilla,species,Eurasian Blackcap,1,51.18440151,25.00470864,Asia,Qatar,Qatar - Al Rayyan,2017-03-21,
8344,Colias crocea,species,Clouded Yellow,1,51.179,25.0118,Asia,Qatar,Qatar - Al Rayyan,2017-03-21,11:00
8440,Buteo rufinus,species,Long-legged Buzzard,1,51.1905,25.0007,Asia,Qatar,Qatar - Al Rayyan,2017-03-18,13:00
8442,Buteo rufinus,species,Long-legged Buzzard,1,51.179,25.0118,Asia,Qatar,Qatar - Al Rayyan,2017-03-21,11:00
8496,Junonia orithya,species,Blue Pansy,1,51.179,25.0118,Asia,Qatar,Qatar - Al Rayyan,2017-03-21,11:00
8688,Oenanthe oenanthe,species,Northern Wheatear,1,51.179,25.0118,Asia,Qatar,Qatar - Al Rayyan,2017-03-21,11:00
8689,Spilopelia senegalensis cambayensis,subspecies,Laughing Dove ssp cambayensis,1,51.6171,25.1793,Asia,Qatar,Qatar - Al Wakrah,2017-03-21,15:00
8690,Acridotheres tristis,species,Common Myna,2,51.6171,25.1793,Asia,Qatar,Qatar - Al Wakrah,2017-03-21,15:00
8691,Pycnonotus leucotis,species,White-eared Bulbul,2,51.6171,25.1793,Asia,Qatar,Qatar - Al Wakrah,2017-03-21,15:00
8692,Euodice malabarica,species,Indian Silverbill,2,51.6171,25.1793,Asia,Qatar,Qatar - Al Wakrah,2017-03-21,15:00
8693,Alcedo atthis,species,Common Kingfisher,1,51.6171,25.1793,Asia,Qatar,Qatar - Al Wakrah,2017-03-21,15:00
8694,Butorides striata,species,Striated Heron,1,51.6171,25.1793,Asia,Qatar,Qatar - Al Wakrah,2017-03-21,15:00
8695,Calidris alpina,species,Dunlin,5,51.6181,25.1804,Asia,Qatar,Qatar - Al Wakrah,2017-03-21,15:00
8696,Pluvialis squatarola,species,Grey Plover,1,51.6181,25.1804,Asia,Qatar,Qatar - Al Wakrah,2017-03-21,15:00
8697,Calidris alba,species,Sanderling,2,51.6181,25.1804,Asia,Qatar,Qatar - Al Wakrah,2017-03-21,15:00
8698,Charadrius alexandrinus,species,Kentish Plover,1,51.6181,25.1804,Asia,Qatar,Qatar - Al Wakrah,2017-03-21,15:00
8699,Haematopus ostralegus,species,Eurasian Oystercatcher,5,51.6181,25.1804,Asia,Qatar,Qatar - Al Wakrah,2017-03-21,15:00
8700,Chroicocephalus genei,species,Slender-billed Gull,1,51.6181,25.1804,Asia,Qatar,Qatar - Al Wakrah,2017-03-21,15:00
13171,Columba livia domestica,forma,Feral Pigeon,3,51.5652,25.2478,Asia,Qatar,Qatar - Doha,2017-03-21,12:56
13172,Columba livia domestica,forma,Feral Pigeon,1,51.5652,25.2478,Asia,Qatar,Qatar - Doha,2017-03-21,12:55
13173,Anthus campestris,species,Tawny Pipit,2,51.179,25.0118,Asia,Qatar,Qatar - Al Rayyan,2017-03-21,11:00
13174,Upupa epops,species,Eurasian Hoopoe,5,51.179,25.0118,Asia,Qatar,Qatar - Al Rayyan,2017-03-21,11:00
13175,Lanius excubitor aucheri,subspecies,Levant Grey Shrike,1,51.179,25.0118,Asia,Qatar,Qatar - Al Rayyan,2017-03-21,11:00
13176,Lanius phoenicuroides,species,Red-tailed Shrike,1,51.179,25.0118,Asia,Qatar,Qatar - Al Rayyan,2017-03-21,11:00
13177,Coturnix coturnix,species,Common Quail,3,51.179,25.0118,Asia,Qatar,Qatar - Al Rayyan,2017-03-21,11:00
13178,Bubulcus ibis,species,Western Cattle Egret,3,51.179,25.0118,Asia,Qatar,Qatar - Al Rayyan,2017-03-21,11:00
13179,Hirundo rustica,species,Barn Swallow,1,51.179,25.0118,Asia,Qatar,Qatar - Al Rayyan,2017-03-21,11:00
13180,Falco tinnunculus,species,Common Kestrel,1,51.179,25.0118,Asia,Qatar,Qatar - Al Rayyan,2017-03-21,11:00
13181,Circus macrourus,species,Pallid Harrier,1,51.179,25.0118,Asia,Qatar,Qatar - Al Rayyan,2017-03-21,11:00
13182,Oenanthe isabellina,species,Isabelline Wheatear,1,51.179,25.0118,Asia,Qatar,Qatar - Al Rayyan,2017-03-21,11:00
13183,Oenanthe pleschanka,species,Pied Wheatear,1,51.179,25.0118,Asia,Qatar,Qatar - Al Rayyan,2017-03-21,11:00
13184,Pycnonotus leucotis,species,White-eared Bulbul,1,51.179,25.0118,Asia,Qatar,Qatar - Al Rayyan,2017-03-21,11:00
13185,Euodice malabarica,species,Indian Silverbill,2,51.179,25.0118,Asia,Qatar,Qatar - Al Rayyan,2017-03-21,11:00
13186,Cercotrichas galactotes,species,Rufous-tailed Scrub Robin,1,51.179,25.0118,Asia,Qatar,Qatar - Al Rayyan,2017-03-21,11:00
13187,Galerida cristata,species,Crested Lark,1,51.179,25.0118,Asia,Qatar,Qatar - Al Rayyan,2017-03-21,11:00
13188,Spilopelia senegalensis cambayensis,subspecies,Laughing Dove ssp cambayensis,5,51.179,25.0118,Asia,Qatar,Qatar - Al Rayyan,2017-03-21,11:00
13189,Turdus philomelos,species,Song Thrush,1,51.179,25.0118,Asia,Qatar,Qatar - Al Rayyan,2017-03-21,11:00
13190,Sylvia mystacea,species,Menetries's Warbler,1,51.179,25.0118,Asia,Qatar,Qatar - Al Rayyan,2017-03-21,11:00
13191,Sylvia atricapilla,species,Eurasian Blackcap,2,51.179,25.0118,Asia,Qatar,Qatar - Al Rayyan,2017-03-21,11:00
13192,Phoenicurus phoenicurus,species,Common Redstart,1,51.179,25.0118,Asia,Qatar,Qatar - Al Rayyan,2017-03-21,11:00
13193,Passer hispaniolensis,species,Spanish Sparrow,1,51.179,25.0118,Asia,Qatar,Qatar - Al Rayyan,2017-03-21,11:00
13194,Acridotheres tristis,species,Common Myna,1,51.4957,25.2636,Asia,Qatar,Qatar - Doha,2017-03-21,09:01
13195,Streptopelia decaocto,species,Eurasian Collared Dove,1,51.5028,25.2571,Asia,Qatar,Qatar - Doha,2017-03-21,08:42
13196,Spilopelia senegalensis cambayensis,subspecies,Laughing Dove ssp cambayensis,1,51.5043,25.2564,Asia,Qatar,Qatar - Doha,2017-03-21,08:38
13198,Spilopelia senegalensis cambayensis,subspecies,Laughing Dove ssp cambayensis,1,51.5568,25.2464,Asia,Qatar,Qatar - Doha,2017-03-21,08:15
13199,Acridotheres tristis,species,Common Myna,1,51.5568,25.2464,Asia,Qatar,Qatar - Doha,2017-03-21,08:15
18565,Oenanthe pleschanka,species,Pied Wheatear,1,51.18719275,25.00763102,Asia,Qatar,Qatar - Al Rayyan,2017-03-18,
19043,Egretta gularis schistacea,subspecies,Red Sea Reef Heron,1,51.6175,25.1785,Asia,Qatar,Qatar - Al Wakrah,2017-03-20,16:00
19044,Oenanthe pleschanka,species,Pied Wheatear,1,51.6155,25.1801,Asia,Qatar,Qatar - Al Wakrah,2017-03-20,16:00
19045,Numenius arquata,species,Eurasian Curlew,1,51.6171,25.1795,Asia,Qatar,Qatar - Al Wakrah,2017-03-20,16:00
19046,Pluvialis squatarola,species,Grey Plover,1,51.6171,25.1795,Asia,Qatar,Qatar - Al Wakrah,2017-03-20,16:00
19047,Charadrius alexandrinus,species,Kentish Plover,1,51.6171,25.1795,Asia,Qatar,Qatar - Al Wakrah,2017-03-20,16:00
19048,Calidris alba,species,Sanderling,1,51.6171,25.1795,Asia,Qatar,Qatar - Al Wakrah,2017-03-20,16:00
19049,Calidris alpina,species,Dunlin,15,51.6171,25.1795,Asia,Qatar,Qatar - Al Wakrah,2017-03-20,16:00
19050,Chroicocephalus genei,species,Slender-billed Gull,1,51.6171,25.1795,Asia,Qatar,Qatar - Al Wakrah,2017-03-20,16:00
19051,Actitis hypoleucos,species,Common Sandpiper,2,51.6171,25.1795,Asia,Qatar,Qatar - Al Wakrah,2017-03-20,16:00
19052,Tringa nebularia,species,Common Greenshank,1,51.6171,25.1795,Asia,Qatar,Qatar - Al Wakrah,2017-03-20,16:00
19053,Alcedo atthis,species,Common Kingfisher,1,51.6171,25.1795,Asia,Qatar,Qatar - Al Wakrah,2017-03-20,16:00
19054,Butorides striata,species,Striated Heron,1,51.6171,25.1795,Asia,Qatar,Qatar - Al Wakrah,2017-03-20,16:00
19055,Passer domesticus,species,House Sparrow,3,51.6111,25.1796,Asia,Qatar,Qatar - Al Wakrah,2017-03-20,15:00
19056,Acridotheres tristis,species,Common Myna,2,51.6111,25.1796,Asia,Qatar,Qatar - Al Wakrah,2017-03-20,15:00
19057,Spilopelia senegalensis cambayensis,subspecies,Laughing Dove ssp cambayensis,3,51.6111,25.1796,Asia,Qatar,Qatar - Al Wakrah,2017-03-20,15:00
19058,Pycnonotus leucotis,species,White-eared Bulbul,10,51.6111,25.1796,Asia,Qatar,Qatar - Al Wakrah,2017-03-20,15:00
19059,Pycnonotus cafer,species,Red-vented Bulbul,3,51.6111,25.1796,Asia,Qatar,Qatar - Al Wakrah,2017-03-20,15:00
19060,Sylvia mystacea,species,Menetries's Warbler,1,51.5161,24.8617,Asia,Qatar,Qatar - Al Wakrah,2017-03-20,12:00
19061,Phoenicurus phoenicurus,species,Common Redstart,1,51.5161,24.8617,Asia,Qatar,Qatar - Al Wakrah,2017-03-20,12:00
19062,Pastor roseus,species,Rosy Starling,1,51.5161,24.8617,Asia,Qatar,Qatar - Al Wakrah,2017-03-20,12:00
19063,Lanius nubicus,species,Masked Shrike,1,51.5161,24.8617,Asia,Qatar,Qatar - Al Wakrah,2017-03-20,12:00
19064,Lanius senator,species,Woodchat Shrike,1,51.5161,24.8617,Asia,Qatar,Qatar - Al Wakrah,2017-03-20,12:00
19065,Ardea cinerea,species,Grey Heron,1,51.6103,25.163,Asia,Qatar,Qatar - Al Wakrah,2017-03-19,11:55
19192,Phoenicopterus roseus,species,Greater Flamingo,34,51.5503,25.0095,Asia,Qatar,Qatar - Mesaieed,2017-03-20,09:35
22929,Pluvialis squatarola,species,Grey Plover,1,51.6181,25.1365,Asia,Qatar,Qatar - Al Wakrah,2017-03-19,10:38
22930,Numenius arquata,species,Eurasian Curlew,1,51.6181,25.1365,Asia,Qatar,Qatar - Al Wakrah,2017-03-19,10:38
22931,Sternula albifrons,species,Little Tern,2,51.6181,25.1365,Asia,Qatar,Qatar - Al Wakrah,2017-03-19,10:38
22932,Tringa nebularia,species,Common Greenshank,1,51.6181,25.1365,Asia,Qatar,Qatar - Al Wakrah,2017-03-19,10:38
22933,Lanius senator,species,Woodchat Shrike,1,51.6147,25.1396,Asia,Qatar,Qatar - Al Wakrah,2017-03-19,10:49
22934,Haematopus ostralegus,species,Eurasian Oystercatcher,1,51.6181,25.1365,Asia,Qatar,Qatar - Al Wakrah,2017-03-19,10:38
22935,Brephidium exilis,species,Western Pygmy-Blue,5,51.6166,25.1351,Asia,Qatar,Qatar - Al Wakrah,2017-03-19,10:13
22936,Chroicocephalus ridibundus,species,Black-headed Gull,7,51.6163,25.1337,Asia,Qatar,Qatar - Al Wakrah,2017-03-19,10:06
22937,Passer domesticus,species,House Sparrow,1,51.616,25.1296,Asia,Qatar,Qatar - Al Wakrah,2017-03-19,09:52
22942,Larus fuscus heuglini,subspecies,Heuglin's Gull,1,51.6179,25.1372,Asia,Qatar,Qatar - Al Wakrah,2017-03-19,15:00
22943,Calidris alpina,species,Dunlin,1,51.6169,25.1368,Asia,Qatar,Qatar - Al Wakrah,2017-03-19,15:00
22944,Charadrius alexandrinus,species,Kentish Plover,2,51.6169,25.1368,Asia,Qatar,Qatar - Al Wakrah,2017-03-19,15:00
22945,Charadrius leschenaultii,species,Greater Sand Plover,2,51.6169,25.1368,Asia,Qatar,Qatar - Al Wakrah,2017-03-19,15:00
22946,Hydroprogne caspia,species,Caspian Tern,1,51.6103,25.163,Asia,Qatar,Qatar - Al Wakrah,2017-03-19,11:55
22947,Butorides striata,species,Striated Heron,1,51.6169,25.1794,Asia,Qatar,Qatar - Al Wakrah,2017-03-19,12:28
22948,Ichthyaetus hemprichii,species,Sooty Gull,2,51.6103,25.163,Asia,Qatar,Qatar - Al Wakrah,2017-03-19,11:55
22949,Xenus cinereus,species,Terek Sandpiper,1,51.6123,25.158,Asia,Qatar,Qatar - Al Wakrah,2017-03-19,11:33
22950,Sylvia nana,species,Asian Desert Warbler,1,51.6163,25.1513,Asia,Qatar,Qatar - Al Wakrah,2017-03-19,11:19
22951,Egretta gularis schistacea,subspecies,Red Sea Reef Heron,1,51.6185,25.1497,Asia,Qatar,Qatar - Al Wakrah,2017-03-19,11:09
22952,Haematopus ostralegus,species,Eurasian Oystercatcher,1,51.6202,25.1442,Asia,Qatar,Qatar - Al Wakrah,2017-03-19,11:03
22953,Oenanthe pleschanka,species,Pied Wheatear,1,51.6185,25.1422,Asia,Qatar,Qatar - Al Wakrah,2017-03-19,10:58
23557,Larus fuscus heuglini,subspecies,Heuglin's Gull,1,51.6179,25.1372,Asia,Qatar,Qatar - Al Wakrah,2017-03-19,15:00
23558,Calidris ferruginea,species,Curlew Sandpiper,1,51.6169,25.1368,Asia,Qatar,Qatar - Al Wakrah,2017-03-19,15:00
23811,Charadrius alexandrinus,species,Kentish Plover,2,51.6169,25.1368,Asia,Qatar,Qatar - Al Wakrah,2017-03-19,15:00
23812,Charadrius leschenaultii,species,Greater Sand Plover,2,51.6169,25.1368,Asia,Qatar,Qatar - Al Wakrah,2017-03-19,15:00
23813,Charadrius mongolus,species,Lesser Sand Plover,2,51.6169,25.1368,Asia,Qatar,Qatar - Al Wakrah,2017-03-19,15:00
23814,Pluvialis squatarola,species,Grey Plover,1,51.6181,25.1365,Asia,Qatar,Qatar - Al Wakrah,2017-03-19,10:38
23815,Numenius arquata,species,Eurasian Curlew,1,51.6181,25.1365,Asia,Qatar,Qatar - Al Wakrah,2017-03-19,10:38
24892,Larus fuscus heuglini,subspecies,Heuglin's Gull,1,51.61966503,25.18043734,Asia,Qatar,Qatar - Al Wakrah,2015-10-28,
24917,Sternula saundersi,species,Saunders's Tern,1,51.61966503,25.18043734,Asia,Qatar,Qatar - Al Wakrah,2016-08-12,
25719,Hydroprogne caspia,species,Caspian Tern,1,51.6103,25.163,Asia,Qatar,Qatar - Al Wakrah,2017-03-19,11:55
25788,Sternula albifrons,species,Little Tern,2,51.6181,25.1365,Asia,Qatar,Qatar - Al Wakrah,2017-03-19,10:38
25910,Tringa nebularia,species,Common Greenshank,1,51.6181,25.1365,Asia,Qatar,Qatar - Al Wakrah,2017-03-19,10:38
33422,Streptopelia decaocto,species,Eurasian Collared Dove,1,51.6169,25.1794,Asia,Qatar,Qatar - Al Wakrah,2017-03-19,12:28
33423,Butorides striata,species,Striated Heron,1,51.6169,25.1794,Asia,Qatar,Qatar - Al Wakrah,2017-03-19,12:28
33424,Spilopelia senegalensis cambayensis,subspecies,Laughing Dove ssp cambayensis,1,51.6164,25.1805,Asia,Qatar,Qatar - Al Wakrah,2017-03-19,12:13
33425,Ichthyaetus hemprichii,species,Sooty Gull,2,51.6103,25.163,Asia,Qatar,Qatar - Al Wakrah,2017-03-19,11:55
33426,Xenus cinereus,species,Terek Sandpiper,1,51.6123,25.158,Asia,Qatar,Qatar - Al Wakrah,2017-03-19,11:33
33427,Sylvia nana,species,Asian Desert Warbler,1,51.6163,25.1513,Asia,Qatar,Qatar - Al Wakrah,2017-03-19,11:19
33428,Oenanthe isabellina,species,Isabelline Wheatear,1,51.6168,25.1485,Asia,Qatar,Qatar - Al Wakrah,2017-03-19,11:14
33429,Egretta gularis schistacea,subspecies,Red Sea Reef Heron,1,51.6185,25.1497,Asia,Qatar,Qatar - Al Wakrah,2017-03-19,11:09
33430,Streptopelia decaocto,species,Eurasian Collared Dove,2,51.6197,25.1472,Asia,Qatar,Qatar - Al Wakrah,2017-03-19,11:06
33431,Haematopus ostralegus,species,Eurasian Oystercatcher,1,51.6202,25.1442,Asia,Qatar,Qatar - Al Wakrah,2017-03-19,11:03
33432,Galerida cristata,species,Crested Lark,1,51.6185,25.1425,Asia,Qatar,Qatar - Al Wakrah,2017-03-19,10:59
33433,Oenanthe pleschanka,species,Pied Wheatear,1,51.6185,25.1422,Asia,Qatar,Qatar - Al Wakrah,2017-03-19,10:58
33434,Pycnonotus leucotis,species,White-eared Bulbul,1,51.6147,25.1396,Asia,Qatar,Qatar - Al Wakrah,2017-03-19,10:51
33435,Lanius senator,species,Woodchat Shrike,1,51.6147,25.1396,Asia,Qatar,Qatar - Al Wakrah,2017-03-19,10:49
33436,Arenaria interpres,species,Ruddy Turnstone,2,51.6181,25.1365,Asia,Qatar,Qatar - Al Wakrah,2017-03-19,10:38
33437,Haematopus ostralegus,species,Eurasian Oystercatcher,1,51.6181,25.1365,Asia,Qatar,Qatar - Al Wakrah,2017-03-19,10:38
33438,Brephidium exilis,species,Western Pygmy-Blue,5,51.6166,25.1351,Asia,Qatar,Qatar - Al Wakrah,2017-03-19,10:13
33439,Acridotheres tristis,species,Common Myna,1,51.6163,25.1324,Asia,Qatar,Qatar - Al Wakrah,2017-03-19,10:07
33440,Chroicocephalus ridibundus,species,Black-headed Gull,7,51.6163,25.1337,Asia,Qatar,Qatar - Al Wakrah,2017-03-19,10:06
33441,Passer domesticus,species,House Sparrow,1,51.616,25.1296,Asia,Qatar,Qatar - Al Wakrah,2017-03-19,09:52
33442,Passer domesticus,species,House Sparrow,3,51.6158,25.1313,Asia,Qatar,Qatar - Al Wakrah,2017-03-19,09:41
33443,Pycnonotus leucotis,species,White-eared Bulbul,1,51.6158,25.1313,Asia,Qatar,Qatar - Al Wakrah,2017-03-19,09:41
33444,Spilopelia senegalensis cambayensis,subspecies,Laughing Dove ssp cambayensis,1,51.6114,25.1441,Asia,Qatar,Qatar - Al Wakrah,2017-03-19,09:38
33445,Spilopelia senegalensis cambayensis,subspecies,Laughing Dove ssp cambayensis,1,51.6054,25.1573,Asia,Qatar,Qatar - Al Wakrah,2017-03-19,09:35
33446,Spilopelia senegalensis cambayensis,subspecies,Laughing Dove ssp cambayensis,2,51.6074,25.1813,Asia,Qatar,Qatar - Al Wakrah,2017-03-19,09:30
33447,Columba livia domestica,forma,Feral Pigeon,2,51.6067,25.1816,Asia,Qatar,Qatar - Al Wakrah,2017-03-19,09:30
36576,Ammomanes deserti,species,Desert Lark,2,51.132,24.9357,Asia,Qatar,Qatar - Al Wakrah,2017-03-18,13:26
36577,Oenanthe isabellina,species,Isabelline Wheatear,1,51.132,24.9357,Asia,Qatar,Qatar - Al Wakrah,2017-03-18,13:26
36578,Sylvia nana,species,Asian Desert Warbler,1,51.132,24.9357,Asia,Qatar,Qatar - Al Wakrah,2017-03-18,13:26
36579,Eremopterix nigriceps,species,Black-crowned Sparrow-Lark,1,51.127,24.9114,Asia,Qatar,Qatar - Al Wakrah,2017-03-18,12:29
36580,Oenanthe pleschanka,species,Pied Wheatear,1,51.1307,24.9212,Asia,Qatar,Qatar - Al Wakrah,2017-03-18,12:19
36581,Oenanthe pleschanka,species,Pied Wheatear,1,51.1418,24.9206,Asia,Qatar,Qatar - Al Wakrah,2017-03-18,12:13
36588,Hirundo rustica,species,Barn Swallow,1,51.19537443,25.0019472,Asia,Qatar,Qatar - Al Rayyan,2017-03-18,15:00
36589,Circus macrourus,species,Pallid Harrier,1,51.19537443,25.0019472,Asia,Qatar,Qatar - Al Rayyan,2017-03-18,15:00
36590,Circus aeruginosus,species,Western Marsh Harrier,2,51.19537443,25.0019472,Asia,Qatar,Qatar - Al Rayyan,2017-03-18,15:00
36591,Turdus philomelos,species,Song Thrush,1,51.19387692,25.00664963,Asia,Qatar,Qatar - Al Rayyan,2017-03-18,15:08
36592,Lanius excubitor aucheri,subspecies,Levant Grey Shrike,1,51.19056791,25.00039144,Asia,Qatar,Qatar - Al Rayyan,2017-03-18,15:08
36593,Motacilla alba,species,White Wagtail,1,51.1785,24.999,Asia,Qatar,Qatar - Al Rayyan,2017-03-18,16:23
36594,Passer hispaniolensis,species,Spanish Sparrow,10,51.1782,24.9876,Asia,Qatar,Qatar - Al Wakrah,2017-03-18,16:17
36595,Upupa epops,species,Eurasian Hoopoe,4,51.2014,24.988,Asia,Qatar,Qatar - Al Wakrah,2017-03-18,15:43
36596,Coturnix coturnix,species,Common Quail,1,51.2014,24.988,Asia,Qatar,Qatar - Al Wakrah,2017-03-18,15:43
36597,Coturnix coturnix,species,Common Quail,1,51.1902,25.0035,Asia,Qatar,Qatar - Al Rayyan,2017-03-18,15:08
36598,Falco tinnunculus,species,Common Kestrel,1,51.19,25.0042,Asia,Qatar,Qatar - Al Rayyan,2017-03-18,15:08
36599,Merops persicus,species,Blue-cheeked Bee-eater,4,51.1828,25.0054,Asia,Qatar,Qatar - Al Rayyan,2017-03-18,14:58
36600,Galerida cristata,species,Crested Lark,1,51.181,25.0162,Asia,Qatar,Qatar - Al Rayyan,2017-03-18,14:50
36601,Oenanthe pleschanka,species,Pied Wheatear,1,51.0923,25.0092,Asia,Qatar,Qatar - Al Rayyan,2017-03-18,14:18
36602,Galerida cristata,species,Crested Lark,1,51.0964,24.991,Asia,Qatar,Qatar - Al Rayyan,2017-03-18,14:08
36766,Ammomanes deserti,species,Desert Lark,2,51.132,24.9357,Asia,Qatar,Qatar - Al Wakrah,2017-03-18,13:26
36769,Oenanthe isabellina,species,Isabelline Wheatear,1,51.132,24.9357,Asia,Qatar,Qatar - Al Wakrah,2017-03-18,13:26
37377,Pycnonotus leucotis,species,White-eared Bulbul,1,51.1828,25.0054,Asia,Qatar,Qatar - Al Rayyan,2017-03-18,14:58
37383,Hirundo rustica,species,Barn Swallow,1,51.19537443,25.0019472,Asia,Qatar,Qatar - Al Rayyan,2017-03-18,15:00
37454,Circus macrourus,species,Pallid Harrier,1,51.19537443,25.0019472,Asia,Qatar,Qatar - Al Rayyan,2017-03-18,15:00
37610,Circus aeruginosus,species,Western Marsh Harrier,2,51.19537443,25.0019472,Asia,Qatar,Qatar - Al Rayyan,2017-03-18,15:00
37719,Turdus philomelos,species,Song Thrush,1,51.19387692,25.00664963,Asia,Qatar,Qatar - Al Rayyan,2017-03-18,15:08
37741,Lanius excubitor aucheri,subspecies,Levant Grey Shrike,1,51.19056791,25.00039144,Asia,Qatar,Qatar - Al Rayyan,2017-03-18,15:08
37812,Lanius phoenicuroides,species,Red-tailed Shrike,1,51.1599,24.9116,Asia,Qatar,Qatar - Al Wakrah,2017-03-18,12:04
38078,Carpospiza brachydactyla,species,Pale Rockfinch,12,51.1596,24.9121,Asia,Qatar,Qatar - Al Wakrah,2017-03-18,
38291,Motacilla alba,species,White Wagtail,1,51.1785,24.999,Asia,Qatar,Qatar - Al Rayyan,2017-03-18,16:23
38292,Passer hispaniolensis,species,Spanish Sparrow,10,51.1782,24.9876,Asia,Qatar,Qatar - Al Wakrah,2017-03-18,16:17
38293,Upupa epops,species,Eurasian Hoopoe,4,51.2014,24.988,Asia,Qatar,Qatar - Al Wakrah,2017-03-18,15:43
38294,Coturnix coturnix,species,Common Quail,1,51.2014,24.988,Asia,Qatar,Qatar - Al Wakrah,2017-03-18,15:43
38295,Falco tinnunculus,species,Common Kestrel,1,51.19,25.0042,Asia,Qatar,Qatar - Al Rayyan,2017-03-18,15:08
38296,Galerida cristata,species,Crested Lark,1,51.181,25.0162,Asia,Qatar,Qatar - Al Rayyan,2017-03-18,14:50
38297,Oenanthe pleschanka,species,Pied Wheatear,1,51.0923,25.0092,Asia,Qatar,Qatar - Al Rayyan,2017-03-18,14:18
38298,Galerida cristata,species,Crested Lark,1,51.0964,24.991,Asia,Qatar,Qatar - Al Rayyan,2017-03-18,14:08
38299,Sylvia nana,species,Asian Desert Warbler,1,51.132,24.9357,Asia,Qatar,Qatar - Al Wakrah,2017-03-18,13:26
38300,Eremopterix nigriceps,species,Black-crowned Sparrow-Lark,1,51.127,24.9114,Asia,Qatar,Qatar - Al Wakrah,2017-03-18,12:29
38301,Oenanthe pleschanka,species,Pied Wheatear,1,51.1307,24.9212,Asia,Qatar,Qatar - Al Wakrah,2017-03-18,12:19
38302,Oenanthe pleschanka,species,Pied Wheatear,1,51.1418,24.9206,Asia,Qatar,Qatar - Al Wakrah,2017-03-18,12:13
38303,Oenanthe pleschanka,species,Pied Wheatear,1,51.2673,24.9568,Asia,Qatar,Qatar - Al Wakrah,2017-03-18,11:38
38304,Lanius excubitor pallidirostris,subspecies,Steppe Grey Shrike,1,51.3255,25.0651,Asia,Qatar,Qatar - Al Wakrah,2017-03-18,11:29
38305,Passer domesticus,species,House Sparrow,2,51.5991,25.1722,Asia,Qatar,Qatar - Al Wakrah,2017-03-18,10:55
39456,Carpospiza brachydactyla,species,Pale Rockfinch,12,51.1596,24.9121,Asia,Qatar,Qatar - Al Wakrah,2017-03-18,
39814,Athene noctua lilith,subspecies,Little Owl ssp lilith,1,51.18440151,25.00503923,Asia,Qatar,Qatar - Al Rayyan,2017-03-18,
39838,Merops persicus,species,Blue-cheeked Bee-eater,1,51.18440151,25.00503923,Asia,Qatar,Qatar - Al Rayyan,2017-03-18,
51235,Acridotheres tristis,species,Common Myna,1,51.54163613,25.2948166,Asia,Qatar,Qatar - Doha,2017-03-17,
51419,Pycnonotus leucotis mesopotamia,subspecies,White-eared Bulbul ssp mesopotamia,1,51.54252652,25.29391021,Asia,Qatar,Qatar - Doha,2017-03-17,
51859,Spilopelia senegalensis,species,Laughing Dove,1,51.61521084,25.18521384,Asia,Qatar,Qatar - Al Wakrah,2017-03-17,
51860,Sylvia nana,species,Asian Desert Warbler,1,51.61666996,25.18588375,Asia,Qatar,Qatar - Al Wakrah,2017-03-17,
51861,Oenanthe isabellina,species,Isabelline Wheatear,1,51.61635883,25.18553423,Asia,Qatar,Qatar - Al Wakrah,2017-03-17,
51862,Alcedo atthis,species,Common Kingfisher,1,51.61700256,25.17853392,Asia,Qatar,Qatar - Al Wakrah,2017-03-17,
51863,Actitis hypoleucos,species,Common Sandpiper,2,51.54283411,25.2964078,Asia,Qatar,Qatar - Doha,2017-03-17,
51864,Corvus splendens,species,House Crow,2,51.54,25.29,Asia,Qatar,Qatar - Doha,2017-03-17,
51865,Spilopelia senegalensis cambayensis,subspecies,Laughing Dove ssp cambayensis,1,51.54396064,25.29452598,Asia,Qatar,Qatar - Doha,2017-03-17,
51866,Egretta gularis schistacea,subspecies,Red Sea Reef Heron,1,51.54183633,25.29825079,Asia,Qatar,Qatar - Doha,2017-03-17,
51867,Streptopelia decaocto,species,Eurasian Collared Dove,1,51.54171832,25.29481698,Asia,Qatar,Qatar - Doha,2017-03-17,
51868,Spilopelia senegalensis,species,Laughing Dove,2,51.54343493,25.29433197,Asia,Qatar,Qatar - Doha,2017-03-17,
51869,Chroicocephalus ridibundus,species,Black-headed Gull,5,51.54018409,25.2966115,Asia,Qatar,Qatar - Doha,2017-03-17,
51870,Acridotheres tristis,species,Common Myna,1,51.54366024,25.29465208,Asia,Qatar,Qatar - Doha,2017-03-17,
51871,Motacilla alba,species,White Wagtail,1,51.54254444,25.29516939,Asia,Qatar,Qatar - Doha,2017-03-17,
52027,Spilopelia senegalensis cambayensis,subspecies,Laughing Dove ssp cambayensis,1,51.61521084,25.18521384,Asia,Qatar,Qatar - Al Wakrah,2017-03-17,
52032,Sylvia nana,species,Asian Desert Warbler,1,51.61666996,25.18588375,Asia,Qatar,Qatar - Al Wakrah,2017-03-17,
52044,Oenanthe isabellina,species,Isabelline Wheatear,1,51.61635883,25.18553423,Asia,Qatar,Qatar - Al Wakrah,2017-03-17,
52082,Egretta gularis schistacea,subspecies,Red Sea Reef Heron,1,51.61682017,25.17856305,Asia,Qatar,Qatar - Al Wakrah,2017-03-17,
52203,Actitis hypoleucos,species,Common Sandpiper,2,51.54283411,25.2964078,Asia,Qatar,Qatar - Doha,2017-03-17,
52259,Corvus splendens,species,House Crow,2,51.54,25.29,Asia,Qatar,Qatar - Doha,2017-03-17,
52265,Spilopelia senegalensis cambayensis,subspecies,Laughing Dove ssp cambayensis,1,51.54396064,25.29452598,Asia,Qatar,Qatar - Doha,2017-03-17,
52276,Egretta gularis schistacea,subspecies,Red Sea Reef Heron,1,51.54183633,25.29825079,Asia,Qatar,Qatar - Doha,2017-03-17,
52591,Spilopelia senegalensis cambayensis,subspecies,Laughing Dove ssp cambayensis,2,51.54343493,25.29433197,Asia,Qatar,Qatar - Doha,2017-03-17,
52595,Chroicocephalus ridibundus,species,Black-headed Gull,5,51.54018409,25.2966115,Asia,Qatar,Qatar - Doha,2017-03-17,
52599,Acridotheres tristis,species,Common Myna,1,51.54366024,25.29465208,Asia,Qatar,Qatar - Doha,2017-03-17,
52614,Pycnonotus leucotis mesopotamia,subspecies,White-eared Bulbul ssp mesopotamia,2,51.54366024,25.29465208,Asia,Qatar,Qatar - Doha,2017-03-17,
52631,Motacilla alba alba,subspecies,White Wagtail ssp alba,1,51.54254444,25.29516939,Asia,Qatar,Qatar - Doha,2017-03-17,
96577,Phoenicurus ochruros,species,Black Redstart,1,51.18691206,25.00488366,Asia,Qatar,Qatar - Al Rayyan,2017-03-12,
96579,Monticola solitarius,species,Blue Rock Thrush,1,51.18691206,25.00488366,Asia,Qatar,Qatar - Al Rayyan,2017-03-12,
96583,Phoenicurus phoenicurus samamisicus,subspecies,Common Redstart ssp samamisicus,1,51.18691206,25.00488366,Asia,Qatar,Qatar - Al Rayyan,2017-03-12,
96585,Oenanthe melanoleuca,species,Eastern Black-eared Wheatear,1,51.18691206,25.00488366,Asia,Qatar,Qatar - Al Rayyan,2017-03-12,
34289,Chroicocephalus ridibundus,species,Black-headed Gull,50,51.55091377,25.30215992,Asia,Qatar,Qatar - Doha,2016-12-28,09:21
72870,Phoenicopterus roseus,species,Greater Flamingo,35,51.55054115,25.00958931,Asia,Qatar,Qatar - Al Wakrah,2017-02-24,16:30
73954,Sylvia curruca,species,Lesser Whitethroat,1,51.61605142,25.13386143,Asia,Qatar,Qatar - Al Wakrah,2017-02-23,
73991,Circaetus gallicus,species,Short-toed Snake Eagle,1,51.18440151,24.99718261,Asia,Qatar,Qatar - Al Rayyan,2017-02-20,
74014,Circus macrourus,species,Pallid Harrier,1,51.18440151,24.99718261,Asia,Qatar,Qatar - Al Rayyan,2017-02-20,
74140,Ichthyaetus hemprichii,species,Sooty Gull,1,51.61877722,25.15064072,Asia,Qatar,Qatar - Al Wakrah,2017-02-23,
74236,Elanus caeruleus vociferus,subspecies,Black-winged Kite ssp vociferus,1,51.20098293,24.98698187,Asia,Qatar,Qatar - Al Wakrah,2017-02-24,
75004,Chroicocephalus genei,species,Slender-billed Gull,200,51.51546657,24.85808949,Asia,Qatar,Qatar - Al Wakrah,2017-02-24,13:15
75123,Haematopus ostralegus,species,Eurasian Oystercatcher,2,51.51546657,24.85808949,Asia,Qatar,Qatar - Al Wakrah,2017-02-24,13:30
91426,Actitis hypoleucos,species,Common Sandpiper,10,51.52775293,25.29325556,Asia,Qatar,Qatar - Doha,2017-02-21,12:30
77318,Pandion haliaetus,species,Western Osprey,1,51.61488717,25.17777666,Asia,Qatar,Qatar - Al Wakrah,2017-01-29,
77319,Alcedo atthis,species,Common Kingfisher,1,51.61709731,25.17897093,Asia,Qatar,Qatar - Al Wakrah,2017-01-29,
77321,Butorides striata,species,Striated Heron,2,51.61709731,25.17897093,Asia,Qatar,Qatar - Al Wakrah,2017-01-29,
81915,Sylvia mystacea,species,Menetries's Warbler,4,51.1283,25.7808,Asia,Qatar,Qatar - Al Khor,2017-01-28,
82041,Pterocles alchata,species,Pin-tailed Sandgrouse,12,51.1701,25.7846,Asia,Qatar,Qatar - Al Khor,2017-01-28,
119181,Sylvia mystacea,species,Menetries's Warbler,1,51.20190024,24.98510499,Asia,Qatar,Qatar - Al Wakrah,2017-01-24,
119182,Francolinus pondicerianus,species,Grey Francolin,1,51.17992759,25.01093137,Asia,Qatar,Qatar - Al Rayyan,2017-01-24,
24319,Corvus ruficollis,species,Brown-necked Raven,1,50.96706748,25.26982716,Asia,Qatar,Qatar - Al Rayyan,2017-01-22,
71081,Buteo rufinus,species,Long-legged Buzzard,1,51.18278682,25.00440722,Asia,Qatar,Qatar - Al Rayyan,2017-01-16,
71099,Buteo rufinus,species,Long-legged Buzzard,1,51.19411647,24.99149403,Asia,Qatar,Qatar - Al Wakrah,2017-01-16,
71100,Falco tinnunculus,species,Common Kestrel,5,51.17918193,24.99896206,Asia,Qatar,Qatar - Al Rayyan,2017-01-16,
71104,Buteo rufinus,species,Long-legged Buzzard,1,51.17729366,25.00300706,Asia,Qatar,Qatar - Al Rayyan,2017-01-16,
103071,Oenanthe oenanthe,species,Northern Wheatear,1,51.61631595,25.13430884,Asia,Qatar,Qatar - Al Wakrah,2016-09-20,
103445,Luscinia megarhynchos,species,Common Nightingale,1,51.18084691,25.01168852,Asia,Qatar,Qatar - Al Rayyan,2016-09-16,
109682,Chlidonias leucopterus,species,White-winged Tern,8,51.16115749,25.00502951,Asia,Qatar,Qatar - Al Rayyan,2017-01-13,
109685,Oenanthe chrysopygia,species,Red-tailed Wheatear,1,50.80324218,25.19103701,Asia,Qatar,Qatar - Al Rayyan,2017-01-13,
121409,Vanellus leucurus,species,White-tailed Lapwing,1,51.34569347,25.17992275,Asia,Qatar,Qatar - Al Rayyan,2016-10-08,
22718,Upupa epops,species,Eurasian Hoopoe,9,51.61323678,25.18080569,Asia,Qatar,Qatar - Al Wakrah,2016-09-15,
33896,Psittacula krameri,species,Rose-ringed Parakeet,4,51.61198184,25.18013636,Asia,Qatar,Qatar - Al Wakrah,2017-01-07,
33897,Euodice malabarica,species,Indian Silverbill,1,51.61198184,25.18013636,Asia,Qatar,Qatar - Al Wakrah,2017-01-07,
33898,Lanius excubitor aucheri,subspecies,Levant Grey Shrike,1,51.61198184,25.18013636,Asia,Qatar,Qatar - Al Wakrah,2017-01-07,
33900,Lanius nubicus,species,Masked Shrike,1,51.61198184,25.18013636,Asia,Qatar,Qatar - Al Wakrah,2017-01-07,
33901,Turdus philomelos,species,Song Thrush,1,51.61198184,25.18013636,Asia,Qatar,Qatar - Al Wakrah,2017-01-07,
33902,Upupa epops,species,Eurasian Hoopoe,1,51.61198184,25.18013636,Asia,Qatar,Qatar - Al Wakrah,2017-01-07,
33903,Pycnonotus cafer,species,Red-vented Bulbul,10,51.61198184,25.18013636,Asia,Qatar,Qatar - Al Wakrah,2017-01-07,
33904,Pycnonotus leucotis,species,White-eared Bulbul,20,51.61198184,25.18013636,Asia,Qatar,Qatar - Al Wakrah,2017-01-07,
33906,Streptopelia decaocto,species,Eurasian Collared Dove,1,51.61198184,25.18013636,Asia,Qatar,Qatar - Al Wakrah,2017-01-07,
33908,Spilopelia senegalensis,species,Laughing Dove,1,51.61198184,25.18013636,Asia,Qatar,Qatar - Al Wakrah,2017-01-07,
30215,Podiceps nigricollis,species,Black-necked Grebe,2,51.50522321,25.38248969,Asia,Qatar,Qatar - Doha,2016-12-12,
30219,Euodice malabarica,species,Indian Silverbill,30,51.50522321,25.38248969,Asia,Qatar,Qatar - Doha,2016-12-12,
30220,Francolinus pondicerianus,species,Grey Francolin,20,51.50522321,25.38248969,Asia,Qatar,Qatar - Doha,2016-12-12,
30222,Ardeola ralloides,species,Squacco Heron,2,51.50522321,25.38248969,Asia,Qatar,Qatar - Doha,2016-12-12,
30224,Spatula clypeata,species,Northern Shoveler,2,51.50522321,25.38248969,Asia,Qatar,Qatar - Doha,2016-12-12,
30226,Lanius nubicus,species,Masked Shrike,2,51.50522321,25.38248969,Asia,Qatar,Qatar - Doha,2016-12-12,
30227,Ardeola grayii,species,Indian Pond Heron,1,51.50522321,25.38248969,Asia,Qatar,Qatar - Doha,2016-12-12,
41164,Vulpes vulpes,species,Red Fox,1,51.15,24.95,Asia,Qatar,Qatar - Al Rayyan,2016-12-10,
41174,Anas crecca,species,Eurasian Teal,2,51.34370327,25.20486349,Asia,Qatar,Qatar - Al Rayyan,2016-12-10,
41185,Anser anser rubrirostris,subspecies,Greylag Goose ssp rubrirostris,8,51.34370327,25.20486349,Asia,Qatar,Qatar - Al Rayyan,2016-12-10,
41400,Vanellus gregarius,species,Sociable Lapwing,1,51.20396018,25.00253061,Asia,Qatar,Qatar - Al Rayyan,2016-12-10,
62230,Larus fuscus barabensis,subspecies,Lesser Black-backed Gull ssp barabensis,1,51.61520183,25.15490892,Asia,Qatar,Qatar - Al Wakrah,2016-10-09,
73033,Tyto alba,species,Western Barn Owl,1,51.1807,25.0116,Asia,Qatar,Qatar - Al Rayyan,2016-12-05,11:12
104325,Junonia orithya,species,Blue Pansy,1,51.17142767,25.00705678,Asia,Qatar,Qatar - Al Rayyan,2016-12-01,
104334,Lanius excubitor aucheri,subspecies,Levant Grey Shrike,1,51.17142767,25.00705678,Asia,Qatar,Qatar - Al Rayyan,2016-12-01,
104352,Luscinia svecica,species,Bluethroat,1,51.16009802,25.00448987,Asia,Qatar,Qatar - Al Rayyan,2016-12-01,
104360,Sturnus vulgaris,species,Common Starling,1,51.16833776,25.01265714,Asia,Qatar,Qatar - Al Rayyan,2016-12-01,
104362,Turdus philomelos,species,Song Thrush,1,51.16833776,25.01265714,Asia,Qatar,Qatar - Al Rayyan,2016-12-01,
104363,Turdus atrogularis,species,Black-throated Thrush,1,51.16833776,25.01265714,Asia,Qatar,Qatar - Al Rayyan,2016-12-01,
104366,Porphyrio poliocephalus,species,Grey-headed Swamphen,1,51.15,24.95,Asia,Qatar,Qatar - Al Rayyan,2016-12-01,
115223,Buteo rufinus,species,Long-legged Buzzard,1,51.1899,24.9912,Asia,Qatar,Qatar - Al Wakrah,2016-11-29,
115230,Turdus philomelos,species,Song Thrush,2,51.1692,25.0124,Asia,Qatar,Qatar - Al Rayyan,2016-11-29,
115240,Sturnus vulgaris / unicolor,multispecies,Common Starling / Spotless Starling,6,51.1692,25.0124,Asia,Qatar,Qatar - Al Rayyan,2016-11-29,
115250,Gallinago gallinago,species,Common Snipe,2,51.2051,25.0053,Asia,Qatar,Qatar - Al Rayyan,2016-11-29,
115260,Tadorna ferruginea,species,Ruddy Shelduck,1,51.2051,25.0053,Asia,Qatar,Qatar - Al Rayyan,2016-11-29,
115326,Vanellus vanellus,species,Northern Lapwing,31,51.2051,25.0053,Asia,Qatar,Qatar - Al Rayyan,2016-11-29,
115340,Pastor roseus,species,Rosy Starling,1,51.2051,25.0053,Asia,Qatar,Qatar - Al Rayyan,2016-11-29,
69312,Calandrella brachydactyla,species,Greater Short-toed Lark,6,51.33522213,25.21720092,Asia,Qatar,Qatar - Al Rayyan,2016-10-08,
75710,Tringa ochropus,species,Green Sandpiper,1,51.184331774712,25.004407218316,Asia,Qatar,Qatar - Al Rayyan,2016-11-20,
75763,Circaetus gallicus,species,Short-toed Snake Eagle,1,51.183988451958,25.012807843982,Asia,Qatar,Qatar - Al Rayyan,2016-11-20,
120440,Lonchura punctulata,species,Scaly-breasted Munia,1,51.185077428818,25.003464056646,Asia,Qatar,Qatar - Al Rayyan,2016-10-26,
74382,Sylvia nana,species,Asian Desert Warbler,3,51.6165179573,25.151044963509,Asia,Qatar,Qatar - Al Wakrah,2016-10-19,
90991,Sylvia curruca,species,Lesser Whitethroat,1,51.615,25.1851,Asia,Qatar,Qatar - Al Wakrah,2016-10-17,15:37
67087,Chlidonias leucopterus,species,White-winged Tern,14,51.1635,24.9976,Asia,Qatar,Qatar - Al Rayyan,2016-10-04,
70408,Calidris alpina,species,Dunlin,1,51.17987042293,26.126581964536,Asia,Qatar,Qatar - Madinat ash Shamal,2016-10-06,
76866,Thalasseus sandvicensis,species,Sandwich Tern,1,51.619665026665,25.180699495125,Asia,Qatar,Qatar - Al Wakrah,2016-09-01,
77039,Charadrius leschenaultii,species,Greater Sand Plover,1,51.1796,26.1264,Asia,Qatar,Qatar - Madinat ash Shamal,2016-10-06,
96963,Nycticorax nycticorax,species,Black-crowned Night Heron,1,51.178869120777,25.012583615995,Asia,Qatar,Qatar - Al Rayyan,2016-10-04,
100174,Sylvia communis,species,Common Whitethroat,1,51.190138757229,24.991498887596,Asia,Qatar,Qatar - Al Wakrah,2016-10-04,
13728,Columba livia domestica,forma,Feral Pigeon,1,51.537373093888,25.27227689804,Asia,Qatar,Qatar - Doha,2013-07-01,
13733,Pycnonotus leucotis mesopotamia,subspecies,White-eared Bulbul ssp mesopotamia,1,51.537373093888,25.27227689804,Asia,Qatar,Qatar - Doha,2013-07-01,
30258,Ixobrychus minutus,species,Little Bittern,1,51.6015,25.1716,Asia,Qatar,Qatar - Al Wakrah,2016-09-28,12:10
57361,Francolinus pondicerianus,species,Grey Francolin,6,51.21256839484,26.124703291456,Asia,Qatar,Qatar - Madinat ash Shamal,2016-09-25,
93161,Charadrius asiaticus,species,Caspian Plover,1,51.15,25.0,Asia,Qatar,Qatar - Al Rayyan,2016-09-16,
10945,Monticola solitarius,species,Blue Rock Thrush,1,51.2111,26.1241,Asia,Qatar,Qatar - Madinat ash Shamal,2016-09-18,
10977,Cuculus canorus,species,Common Cuckoo,1,51.2111,26.1241,Asia,Qatar,Qatar - Madinat ash Shamal,2016-09-18,
30874,Emberiza hortulana,species,Ortolan Bunting,1,51.616348139942,25.129190450061,Asia,Qatar,Qatar - Al Wakrah,2016-09-17,
36049,Anas platyrhynchos,species,Mallard,1,51.183186471462,25.004726870693,Asia,Qatar,Qatar - Al Rayyan,2016-09-16,
36062,Muscicapa striata,species,Spotted Flycatcher,1,51.181928515434,25.011726198427,Asia,Qatar,Qatar - Al Rayyan,2016-09-16,
36063,Ammomanes deserti,species,Desert Lark,1,51.191267967224,24.999730232159,Asia,Qatar,Qatar - Al Rayyan,2016-09-16,
36064,Riparia riparia,species,Sand Martin,6,51.191267967224,24.999730232159,Asia,Qatar,Qatar - Al Rayyan,2016-09-16,
36236,Motacilla flava,species,Western Yellow Wagtail,25,51.196525096893,24.99227196704,Asia,Qatar,Qatar,2016-09-16,
36237,Hirundo rustica,species,Barn Swallow,50,51.196525096893,24.99227196704,Asia,Qatar,Qatar,2016-09-16,
36238,Coturnix coturnix,species,Common Quail,4,51.196525096893,24.99227196704,Asia,Qatar,Qatar,2016-09-16,
36239,Coracias garrulus,species,European Roller,2,51.182105541229,25.00845203573,Asia,Qatar,Qatar - Al Rayyan,2016-09-16,
36240,Plegadis falcinellus,species,Glossy Ibis,6,51.137473583221,25.011563343103,Asia,Qatar,Qatar - Al Rayyan,2016-09-16,
36242,Streptopelia turtur,species,European Turtle Dove,1,51.182105541229,25.001606882088,Asia,Qatar,Qatar - Al Rayyan,2016-09-16,
98382,Galerida cristata,species,Crested Lark,1,51.19028,25.003193333333,Asia,Qatar,Qatar - Al Rayyan,2016-08-13,11:28
98548,Cercotrichas galactotes,species,Rufous-tailed Scrub Robin,1,51.19074,25.004336666667,Asia,Qatar,Qatar - Al Rayyan,2016-08-13,11:24
98558,Oena capensis,species,Namaqua Dove,1,51.193936666667,25.00619,Asia,Qatar,Qatar - Al Rayyan,2016-08-13,11:07
98564,Hirundo rustica,species,Barn Swallow,1,51.194383333333,25.006608333333,Asia,Qatar,Qatar - Al Rayyan,2016-08-13,10:59
98571,Oena capensis,species,Namaqua Dove,1,51.163648333333,25.013125,Asia,Qatar,Qatar - Al Rayyan,2016-08-13,10:31
98577,Glareola pratincola,species,Collared Pratincole,1,51.166036666667,24.999766666667,Asia,Qatar,Qatar - Al Rayyan,2016-08-13,10:12
98588,Cursorius cursor,species,Cream-colored Courser,1,51.16606,24.999858333333,Asia,Qatar,Qatar - Al Rayyan,2016-08-13,10:00
98599,Himantopus himantopus,species,Black-winged Stilt,1,51.165576666667,25.000023333333,Asia,Qatar,Qatar - Al Rayyan,2016-08-13,09:50
98958,Eremopterix nigriceps,species,Black-crowned Sparrow-Lark,1,51.161326666667,25.00794,Asia,Qatar,Qatar - Al Rayyan,2016-08-13,09:21
98983,Vanellus indicus,species,Red-wattled Lapwing,1,51.176558333333,25.013116666667,Asia,Qatar,Qatar - Al Rayyan,2016-08-13,08:21
98995,Coracias garrulus,species,European Roller,1,51.18921,25.023458333333,Asia,Qatar,Qatar - Al Rayyan,2016-08-13,07:53
119771,Xenus cinereus,species,Terek Sandpiper,5,51.619150042534,25.177289063032,Asia,Qatar,Qatar - Al Wakrah,2016-08-10,
119816,Calidris ferruginea,species,Curlew Sandpiper,1,51.619150042534,25.177289063032,Asia,Qatar,Qatar - Al Wakrah,2016-08-10,
119830,Sterna hirundo,species,Common Tern,10,51.619150042534,25.177289063032,Asia,Qatar,Qatar - Al Wakrah,2016-08-10,
119861,Thalasseus bengalensis,species,Lesser Crested Tern,50,51.618350744247,25.177908045341,Asia,Qatar,Qatar - Al Wakrah,2016-08-10,
120036,Calidris alba,species,Sanderling,3,51.618291735649,25.181483516912,Asia,Qatar,Qatar - Al Wakrah,2016-08-10,
84625,Onychoprion anaethetus,species,Bridled Tern,8,51.345177143812,24.558793985443,Asia,Qatar,Qatar - Al Wakrah,2016-05-01,
72668,Monticola saxatilis,species,Common Rock Thrush,1,50.8498,25.574,Asia,Qatar,Qatar - Al Rayyan,2016-04-23,
72680,Pandion haliaetus,species,Western Osprey,1,50.7984,25.595,Asia,Qatar,Qatar - Al Rayyan,2016-04-23,
87927,Pluvialis squatarola,species,Grey Plover,1,51.619206368923,25.17938752169,Asia,Qatar,Qatar - Al Wakrah,2016-03-25,
88088,Thalasseus bengalensis,species,Lesser Crested Tern,200,51.621437966824,25.171231366348,Asia,Qatar,Qatar - Al Wakrah,2016-03-27,
88138,Sternula albifrons,species,Little Tern,2,51.622926592827,25.140309486557,Asia,Qatar,Qatar - Al Wakrah,2016-03-27,
96827,Limosa lapponica,species,Bar-tailed Godwit,1,51.618948876858,25.177989362391,Asia,Qatar,Qatar - Al Wakrah,2016-03-25,
96831,Tringa totanus,species,Common Redshank,1,51.618948876858,25.177989362391,Asia,Qatar,Qatar - Al Wakrah,2016-03-25,
96834,Tringa nebularia,species,Common Greenshank,1,51.618948876858,25.177989362391,Asia,Qatar,Qatar - Al Wakrah,2016-03-25,
96838,Calidris minuta,species,Little Stint,1,51.618948876858,25.177989362391,Asia,Qatar,Qatar - Al Wakrah,2016-03-25,
37941,Phoenicurus phoenicurus,species,Common Redstart,1,51.6166,25.1301,Asia,Qatar,Qatar - Al Wakrah,2016-03-18,12:26
37942,Anthus cervinus,species,Red-throated Pipit,1,51.6166,25.1301,Asia,Qatar,Qatar - Al Wakrah,2016-03-18,12:24
43218,Oenanthe pleschanka,species,Pied Wheatear,1,51.186794042587,24.991032120295,Asia,Qatar,Qatar,2016-03-20,
43287,Charadrius alexandrinus,species,Kentish Plover,1,51.188853979111,25.030856549798,Asia,Qatar,Qatar - Al Rayyan,2016-03-20,
43291,Corvus splendens,species,House Crow,1,51.17,25.0,Asia,Qatar,Qatar - Al Rayyan,2016-03-20,
43292,Euodice malabarica,species,Indian Silverbill,2,51.171687841415,25.002234046269,Asia,Qatar,Qatar - Al Rayyan,2016-03-20,
43294,Oena capensis,species,Namaqua Dove,1,51.171687841415,25.002234046269,Asia,Qatar,Qatar - Al Rayyan,2016-03-20,
43299,Lanius senator,species,Woodchat Shrike,1,51.185077428818,25.048275675335,Asia,Qatar,Qatar - Al Rayyan,2016-03-20,
43300,Lanius nubicus,species,Masked Shrike,1,51.180270910263,25.001922895447,Asia,Qatar,Qatar - Al Rayyan,2016-03-20,
6864,Upupa epops epops,subspecies,Eurasian Hoopoe ssp epops,3,51.592427194118,25.791853096838,Asia,Qatar,Qatar - Al Khor,2016-03-03,
49097,Oenanthe isabellina,species,Isabelline Wheatear,3,51.614228188992,25.09974458792,Asia,Qatar,Qatar - Al Wakrah,2016-03-08,
49103,Oenanthe pleschanka,species,Pied Wheatear,5,51.614228188992,25.09974458792,Asia,Qatar,Qatar - Al Wakrah,2016-03-08,
49105,Euodice malabarica,species,Indian Silverbill,1,51.614228188992,25.09974458792,Asia,Qatar,Qatar - Al Wakrah,2016-03-08,
77947,Acridotheres tristis,species,Common Myna,1,51.6095,25.26,Asia,Qatar,Qatar - Doha,2016-03-03,10:46
95693,Acridotheres tristis,species,Common Myna,3,51.5469308,25.2861056,Asia,Qatar,Qatar - Doha,2016-03-02,06:00
119947,Ardea purpurea,species,Purple Heron,2,51.17540538311,25.013437381615,Asia,Qatar,Qatar - Al Rayyan,2016-02-29,
60816,Tringa glareola,species,Wood Sandpiper,1,51.169813983142,25.012856305126,Asia,Qatar,Qatar - Al Rayyan,2016-02-21,
60825,Calidris pugnax,species,Ruff,30,51.169813983142,25.012856305126,Asia,Qatar,Qatar - Al Rayyan,2016-02-21,
72601,Clanga clanga,species,Greater Spotted Eagle,1,51.17821097374,25.002234046269,Asia,Qatar,Qatar - Al Rayyan,2016-02-22,
77806,Xenus cinereus,species,Terek Sandpiper,1,51.618463397026,25.181949558432,Asia,Qatar,Qatar - Al Wakrah,2016-02-19,
77924,Tringa glareola,species,Wood Sandpiper,1,51.187148094177,25.002219461092,Asia,Qatar,Qatar - Al Rayyan,2016-02-21,
77925,Fulica atra,species,Eurasian Coot,6,51.187148094177,25.002219461092,Asia,Qatar,Qatar - Al Rayyan,2016-02-21,
77926,Gallinago gallinago,species,Common Snipe,1,51.187148094177,25.002219461092,Asia,Qatar,Qatar - Al Rayyan,2016-02-21,
77927,Charadrius hiaticula,species,Common Ringed Plover,1,51.187148094177,25.002219461092,Asia,Qatar,Qatar - Al Rayyan,2016-02-21,
77928,Ardeola ralloides,species,Squacco Heron,1,51.187148094177,25.002219461092,Asia,Qatar,Qatar - Al Rayyan,2016-02-21,
10361,Chroicocephalus ridibundus,species,Black-headed Gull,15,51.625699996948,25.097996960395,Asia,Qatar,Qatar - Al Wakrah,2016-02-10,
10381,Ichthyaetus ichthyaetus,species,Pallas's Gull,1,51.6198,25.1331,Asia,Qatar,Qatar - Al Wakrah,2016-02-04,15:25
96195,Podiceps nigricollis,species,Black-necked Grebe,1,51.18267416954,25.008145762149,Asia,Qatar,Qatar - Al Rayyan,2016-02-05,
96275,Passer hispaniolensis,species,Spanish Sparrow,20,51.18267416954,25.008145762149,Asia,Qatar,Qatar - Al Rayyan,2016-02-05,
96285,Luscinia svecica,species,Bluethroat,1,51.18267416954,25.008145762149,Asia,Qatar,Qatar - Al Rayyan,2016-02-05,
83028,Saxicola rubicola,species,European Stonechat,1,51.1878,25.0028,Asia,Qatar,Qatar - Al Rayyan,2016-01-23,14:49
83029,Falco tinnunculus,species,Common Kestrel,1,51.1878,25.0028,Asia,Qatar,Qatar - Al Rayyan,2016-01-23,14:45
83030,Lanius excubitor aucheri,subspecies,Levant Grey Shrike,1,51.1878,25.0028,Asia,Qatar,Qatar - Al Rayyan,2016-01-23,14:44
83031,Lanius excubitor pallidirostris,subspecies,Steppe Grey Shrike,1,51.1878,25.0028,Asia,Qatar,Qatar - Al Rayyan,2016-01-23,14:43
83033,Falco tinnunculus,species,Common Kestrel,1,51.1878,25.0028,Asia,Qatar,Qatar - Al Rayyan,2016-01-23,14:41
103020,Apus pallidus,species,Pallid Swift,1,51.3160014153,24.6632326492,Asia,Qatar,Qatar - Khor Al Adaid,2016-01-19,14:41
103021,Hydroprogne caspia,species,Caspian Tern,1,51.6199,25.1447,Asia,Qatar,Qatar - Al Wakrah,2016-01-20,14:38
45262,Columba livia domestica,forma,Feral Pigeon,1,51.6008771583,25.1716985091,Asia,Qatar,Qatar - Al Wakrah,2015-12-02,
45270,Spoladea recurvalis,species,,3,51.3370808959,25.2201601088,Asia,Qatar,Qatar - Al Rayyan,2015-12-02,
45283,Aythya ferina,species,Common Pochard,5,51.3370808959,25.2201601088,Asia,Qatar,Qatar - Al Rayyan,2015-12-02,
45287,Actitis hypoleucos,species,Common Sandpiper,1,51.3370808959,25.2201601088,Asia,Qatar,Qatar - Al Rayyan,2015-12-02,
45356,Motacilla cinerea,species,Grey Wagtail,1,51.3370808959,25.2201601088,Asia,Qatar,Qatar - Al Rayyan,2015-12-02,
45369,Limosa limosa,species,Black-tailed Godwit,1,51.3370808959,25.2201601088,Asia,Qatar,Qatar - Al Rayyan,2015-12-02,
45375,Spatula clypeata,species,Northern Shoveler,1,51.3370808959,25.2201601088,Asia,Qatar,Qatar - Al Rayyan,2015-12-02,
45377,Recurvirostra avosetta,species,Pied Avocet,1,51.3370808959,25.2201601088,Asia,Qatar,Qatar - Al Rayyan,2015-12-02,
45379,Ardea alba,species,Great Egret,1,51.3370808959,25.2201601088,Asia,Qatar,Qatar - Al Rayyan,2015-12-02,
45383,Aythya fuligula,species,Tufted Duck,3,51.3370808959,25.2201601088,Asia,Qatar,Qatar - Al Rayyan,2015-12-02,
45389,Larus fuscus barabensis,subspecies,Lesser Black-backed Gull ssp barabensis,1,51.3370808959,25.2201601088,Asia,Qatar,Qatar - Al Rayyan,2015-12-02,
45392,Chlidonias leucopterus,species,White-winged Tern,1,51.3370808959,25.2201601088,Asia,Qatar,Qatar - Al Rayyan,2015-12-02,
45396,Motacilla flava,species,Western Yellow Wagtail,1,51.3370808959,25.2201601088,Asia,Qatar,Qatar - Al Rayyan,2015-12-02,
45425,Lanius collurio,species,Red-backed Shrike,1,51.1871373653,25.0016117438,Asia,Qatar,Qatar - Al Rayyan,2015-11-06,
45438,Saxicola rubetra,species,Whinchat,1,51.1871373653,25.0016117438,Asia,Qatar,Qatar - Al Rayyan,2015-11-06,
45496,Chroicocephalus genei,species,Slender-billed Gull,1,51.6180074215,25.143104225,Asia,Qatar,Qatar - Al Wakrah,2015-11-03,
45502,Larus cachinnans,species,Caspian Gull,1,51.6180074215,25.143104225,Asia,Qatar,Qatar - Al Wakrah,2015-11-03,
45509,Lanius excubitor pallidirostris,subspecies,Steppe Grey Shrike,1,51.6180074215,25.143104225,Asia,Qatar,Qatar - Al Wakrah,2015-11-22,
45522,Alaemon alaudipes,species,Greater Hoopoe-Lark,1,51.6180074215,25.143104225,Asia,Qatar,Qatar - Al Wakrah,2015-11-27,
45524,Charadrius alexandrinus,species,Kentish Plover,10,51.6180074215,25.143104225,Asia,Qatar,Qatar - Al Wakrah,2015-11-27,
45527,Lanius excubitor pallidirostris,subspecies,Steppe Grey Shrike,1,51.6180074215,25.143104225,Asia,Qatar,Qatar - Al Wakrah,2015-11-30,
45534,Acridotheres tristis,species,Common Myna,1,51.5976628661,25.172163526,Asia,Qatar,Qatar - Al Wakrah,2015-11-30,
45630,Arenaria interpres,species,Ruddy Turnstone,3,51.6235005856,25.146522897,Asia,Qatar,Qatar - Al Wakrah,2015-12-08,
45634,Phoenicopterus roseus,species,Greater Flamingo,1,51.6190373898,25.1791508552,Asia,Qatar,Qatar - Al Wakrah,2015-12-07,
48140,Pycnonotus leucotis,species,White-eared Bulbul,1,51.1829584837,25.006436936,Asia,Qatar,Qatar - Al Rayyan,2015-12-05,
48142,Circus aeruginosus,species,Western Marsh Harrier,1,51.1829584837,25.006436936,Asia,Qatar,Qatar - Al Rayyan,2015-12-05,
48144,Anthus campestris,species,Tawny Pipit,1,51.1829584837,25.006436936,Asia,Qatar,Qatar - Al Rayyan,2015-12-05,
48149,Tringa erythropus,species,Spotted Redshank,1,51.1829584837,25.006436936,Asia,Qatar,Qatar - Al Rayyan,2015-12-05,
48214,Oena capensis,species,Namaqua Dove,1,51.1829584837,25.006436936,Asia,Qatar,Qatar - Al Rayyan,2015-12-05,
48231,Oena capensis,species,Namaqua Dove,1,51.1829584837,25.006436936,Asia,Qatar,Qatar - Al Rayyan,2015-12-05,
48251,Euodice malabarica,species,Indian Silverbill,6,51.1829584837,25.006436936,Asia,Qatar,Qatar - Al Rayyan,2015-12-05,
48270,Oenanthe deserti,species,Desert Wheatear,1,51.1829584837,25.006436936,Asia,Qatar,Qatar - Al Rayyan,2015-12-05,
48319,Emberiza calandra,species,Corn Bunting,6,51.1829584837,25.006436936,Asia,Qatar,Qatar - Al Rayyan,2015-12-05,
48324,Gallinula chloropus,species,Common Moorhen,10,51.1829584837,25.006436936,Asia,Qatar,Qatar - Al Rayyan,2015-12-05,
35389,Vanellus indicus,species,Red-wattled Lapwing,1,51.2242269516,25.1253731841,Asia,Qatar,Qatar - Al Rayyan,2015-11-24,
35556,Galerida cristata,species,Crested Lark,1,51.2173604965,25.1129390376,Asia,Qatar,Qatar - Al Rayyan,2015-11-24,
48964,Alaemon alaudipes,species,Greater Hoopoe-Lark,1,51.6191205382,25.1449726091,Asia,Qatar,Qatar - Al Wakrah,2015-11-22,
49083,Agrius convolvuli,species,Convolvulus Hawkmoth,1,51.1795842648,25.0034786417,Asia,Qatar,Qatar - Al Rayyan,2015-11-10,
55974,Psittacula krameri,species,Rose-ringed Parakeet,8,51.5964612365,25.1683571625,Asia,Qatar,Qatar - Al Wakrah,2015-11-20,
55994,Papilio demoleus,species,Lemon Butterfly,7,51.6014671605,25.1713927576,Asia,Qatar,Qatar - Al Wakrah,2015-11-17,
60761,Aythya nyroca,species,Ferruginous Duck,1,51.1861073971,25.0028563455,Asia,Qatar,Qatar - Al Rayyan,2015-11-13,
60766,Anas platyrhynchos,species,Mallard,30,51.1861073971,25.0028563455,Asia,Qatar,Qatar - Al Rayyan,2015-11-13,
60774,Lanius excubitor pallidirostris,subspecies,Steppe Grey Shrike,1,51.1861073971,25.0028563455,Asia,Qatar,Qatar - Al Rayyan,2015-11-13,
60775,Motacilla alba,species,White Wagtail,1,51.1861073971,25.0028563455,Asia,Qatar,Qatar - Al Rayyan,2015-11-13,
60776,Circus aeruginosus,species,Western Marsh Harrier,1,51.1861073971,25.0028563455,Asia,Qatar,Qatar - Al Rayyan,2015-11-13,
60777,Vanellus indicus,species,Red-wattled Lapwing,1,51.1861073971,25.0028563455,Asia,Qatar,Qatar - Al Rayyan,2015-11-13,
60778,Anthus spinoletta,species,Water Pipit,1,51.1861073971,25.0028563455,Asia,Qatar,Qatar - Al Rayyan,2015-11-13,
60779,Saxicola rubicola,species,European Stonechat,1,51.1861073971,25.0028563455,Asia,Qatar,Qatar - Al Rayyan,2015-11-13,
60780,Galerida cristata,species,Crested Lark,10,51.1861073971,25.0028563455,Asia,Qatar,Qatar - Al Rayyan,2015-11-13,
60781,Gallinula chloropus,species,Common Moorhen,2,51.1861073971,25.0028563455,Asia,Qatar,Qatar - Al Rayyan,2015-11-13,
60784,Himantopus himantopus,species,Black-winged Stilt,2,51.1861073971,25.0028563455,Asia,Qatar,Qatar - Al Rayyan,2015-11-13,
60787,Hirundo rustica,species,Barn Swallow,6,51.1861073971,25.0028563455,Asia,Qatar,Qatar - Al Rayyan,2015-11-13,
60863,Oenanthe lugens,species,Mourning Wheatear,1,50.8101689816,25.6161388519,Asia,Qatar,Qatar - Al Rayyan,2015-11-15,
60864,Phoenicopterus roseus,species,Greater Flamingo,30,50.8101689816,25.6161388519,Asia,Qatar,Qatar - Al Rayyan,2015-11-15,
60866,Phalacrocorax carbo,species,Great Cormorant,50,50.8101689816,25.6161388519,Asia,Qatar,Qatar - Al Rayyan,2015-11-15,
107389,Athene noctua lilith,subspecies,Little Owl ssp lilith,1,51.17626369,25.0097038603,Asia,Qatar,Qatar - Al Rayyan,2015-11-10,
107390,Athene noctua lilith,subspecies,Little Owl ssp lilith,1,51.17626369,25.0097038603,Asia,Qatar,Qatar - Al Rayyan,2015-11-10,
11439,Upupa epops,species,Eurasian Hoopoe,1,51.6126269102,25.1799300323,Asia,Qatar,Qatar - Al Wakrah,2015-11-06,
19593,Alcedo atthis,species,Common Kingfisher,3,51.6163162887,25.1788055641,Asia,Qatar,Qatar - Al Wakrah,2015-10-28,
19630,Orthetrum sabina,species,Slender Skimmer,10,51.1878240108,25.0062789352,Asia,Qatar,Qatar - Al Rayyan,2015-10-31,
19635,Vanessa cardui,species,Painted Lady,1,51.1878240108,25.0062789352,Asia,Qatar,Qatar - Al Rayyan,2015-10-31,
19645,Junonia oenone,species,Dark Blue Pansy,5,51.1878240108,25.0062789352,Asia,Qatar,Qatar - Al Rayyan,2015-10-31,
19651,Motacilla citreola,species,Citrine Wagtail,1,51.1878240108,25.0062789352,Asia,Qatar,Qatar - Al Rayyan,2015-10-31,
19656,Vanellus indicus,species,Red-wattled Lapwing,3,51.1878240108,25.0062789352,Asia,Qatar,Qatar - Al Rayyan,2015-10-31,
19659,Motacilla alba,species,White Wagtail,1,51.1878240108,25.0062789352,Asia,Qatar,Qatar - Al Rayyan,2015-10-31,
19662,Circus aeruginosus,species,Western Marsh Harrier,1,51.1878240108,25.0062789352,Asia,Qatar,Qatar - Al Rayyan,2015-10-31,
19664,Anthus campestris,species,Tawny Pipit,2,51.1878240108,25.0062789352,Asia,Qatar,Qatar - Al Rayyan,2015-10-31,
19666,Lanius excubitor aucheri,subspecies,Levant Grey Shrike,1,51.1878240108,25.0062789352,Asia,Qatar,Qatar - Al Rayyan,2015-10-31,
19669,Ardeola ralloides,species,Squacco Heron,3,51.1878240108,25.0062789352,Asia,Qatar,Qatar - Al Rayyan,2015-10-31,
19673,Gallinula chloropus,species,Common Moorhen,1,51.1878240108,25.0062789352,Asia,Qatar,Qatar - Al Rayyan,2015-10-31,
19676,Bubulcus ibis,species,Western Cattle Egret,30,51.1878240108,25.0062789352,Asia,Qatar,Qatar - Al Rayyan,2015-10-31,
19697,Merops persicus,species,Blue-cheeked Bee-eater,12,51.1878240108,25.0062789352,Asia,Qatar,Qatar - Al Rayyan,2015-10-31,
83041,Sympetrum fonscolombii,species,Red-veined Darter,1,50.8066249453,25.5914377184,Asia,Qatar,Qatar - Al Rayyan,2015-10-26,
83195,Danaus chrysippus,species,African Monarch,1,50.8065570518,25.5914811861,Asia,Qatar,Qatar - Al Rayyan,2015-10-26,
108852,Calidris alpina,species,Dunlin,1,51.6202363372,25.0926713397,Asia,Qatar,Qatar - Al Wakrah,2015-10-21,
110626,Tringa totanus,species,Common Redshank,1,51.6162837669,25.1790681736,Asia,Qatar,Qatar - Al Wakrah,2015-10-21,
110628,Butorides striata,species,Striated Heron,1,51.6162837669,25.1790681736,Asia,Qatar,Qatar - Al Wakrah,2015-10-21,
110632,Galerida cristata,species,Crested Lark,1,51.6162837669,25.1790681736,Asia,Qatar,Qatar - Al Wakrah,2015-10-21,
110634,Sterna hirundo,species,Common Tern,25,51.6162837669,25.1790681736,Asia,Qatar,Qatar - Al Wakrah,2015-10-21,
110641,Phoenicopterus roseus,species,Greater Flamingo,6,51.6162837669,25.1790681736,Asia,Qatar,Qatar - Al Wakrah,2015-10-22,
110643,Alcedo atthis,species,Common Kingfisher,3,51.6162837669,25.1790681736,Asia,Qatar,Qatar - Al Wakrah,2015-10-22,
110645,Pycnonotus cafer,species,Red-vented Bulbul,12,51.6162837669,25.1790681736,Asia,Qatar,Qatar - Al Wakrah,2015-10-22,
110685,Butorides striata,species,Striated Heron,1,51.6162837669,25.1790681736,Asia,Qatar,Qatar - Al Wakrah,2015-10-22,
110848,Asio flammeus,species,Short-eared Owl,1,51.6151249688,25.1852166157,Asia,Qatar,Qatar - Al Wakrah,2015-10-24,
14343,Pandion haliaetus,species,Western Osprey,1,51.6152608395,25.1530491869,Asia,Qatar,Qatar - Al Wakrah,2015-10-20,
26517,Egretta garzetta,species,Little Egret,1,51.6151723266,25.1772126003,Asia,Qatar,Qatar - Al Wakrah,2015-10-19,
26535,Egretta gularis,species,Western Reef Heron,1,51.6151723266,25.1772126003,Asia,Qatar,Qatar - Al Wakrah,2015-10-19,
27289,Nymphicus hollandicus,species,Cockatiel,1,51.6035878658,25.1110883787,Asia,Qatar,Qatar - Al Wakrah,2015-10-19,
27295,Haematopus ostralegus,species,Eurasian Oystercatcher,1,51.6146922112,25.0930514886,Asia,Qatar,Qatar - Al Wakrah,2015-10-19,
27300,Arenaria interpres,species,Ruddy Turnstone,4,51.6146922112,25.0930514886,Asia,Qatar,Qatar - Al Wakrah,2015-10-19,
27309,Passer domesticus,species,House Sparrow,8,51.6146922112,25.0930514886,Asia,Qatar,Qatar - Al Wakrah,2015-10-19,
27314,Gelochelidon nilotica,species,Gull-billed Tern,4,51.6146922112,25.0930514886,Asia,Qatar,Qatar - Al Wakrah,2015-10-19,
27355,Larus fuscus barabensis,subspecies,Lesser Black-backed Gull ssp barabensis,2,51.6156148911,25.0942854462,Asia,Qatar,Qatar - Al Wakrah,2015-10-18,
27364,Charadrius mongolus,species,Lesser Sand Plover,5,51.6156148911,25.0942854462,Asia,Qatar,Qatar - Al Wakrah,2015-10-18,
34033,Oenanthe pleschanka,species,Pied Wheatear,1,51.6085124016,25.0930514886,Asia,Qatar,Qatar - Al Wakrah,2015-10-17,
34743,Calidris alpina,species,Dunlin,10,51.6183507442,25.0924345051,Asia,Qatar,Qatar - Al Wakrah,2015-10-16,
37033,Chroicocephalus genei,species,Slender-billed Gull,1,51.4872014523,24.7985734787,Asia,Qatar,Qatar - Al Wakrah,2015-10-17,
37042,Haematopus ostralegus,species,Eurasian Oystercatcher,1,51.4872014523,24.7985734787,Asia,Qatar,Qatar - Al Wakrah,2015-10-17,
37055,Numenius arquata,species,Eurasian Curlew,1,51.6179484129,25.1457483625,Asia,Qatar,Qatar - Al Wakrah,2015-10-17,
37064,Streptopelia decaocto,species,Eurasian Collared Dove,5,51.6179484129,25.1457483625,Asia,Qatar,Qatar - Al Wakrah,2015-10-17,
37076,Pluvialis squatarola,species,Grey Plover,2,51.6179484129,25.1457483625,Asia,Qatar,Qatar - Al Wakrah,2015-10-17,
37086,Oenanthe isabellina,species,Isabelline Wheatear,1,51.6179484129,25.1457483625,Asia,Qatar,Qatar - Al Wakrah,2015-10-17,
37093,Spilopelia senegalensis,species,Laughing Dove,1,51.6179484129,25.1457483625,Asia,Qatar,Qatar - Al Wakrah,2015-10-17,
37101,Egretta gularis,species,Western Reef Heron,1,51.6179484129,25.1457483625,Asia,Qatar,Qatar - Al Wakrah,2015-10-17,
37126,Pycnonotus leucotis,species,White-eared Bulbul,20,51.6127217934,25.1802041692,Asia,Qatar,Qatar - Al Wakrah,2015-10-18,
37149,Numenius phaeopus,species,Eurasian Whimbrel,1,51.6157583892,25.179659991,Asia,Qatar,Qatar - Al Wakrah,2015-10-18,
37168,Oenanthe isabellina,species,Isabelline Wheatear,1,51.6105723381,25.0955388236,Asia,Qatar,Qatar - Al Wakrah,2015-10-18,
37183,Ardea cinerea,species,Grey Heron,1,51.6157583892,25.1793881285,Asia,Qatar,Qatar - Al Wakrah,2015-10-18,
37198,Alaemon alaudipes,species,Greater Hoopoe-Lark,1,51.4093852043,25.0376952124,Asia,Qatar,Qatar - Al Wakrah,2015-10-18,
37263,Oenanthe deserti,species,Desert Wheatear,1,51.4096212387,25.0358191141,Asia,Qatar,Qatar - Al Wakrah,2015-10-18,
37293,Passer domesticus,species,House Sparrow,25,51.6133189201,25.0930514886,Asia,Qatar,Qatar - Al Wakrah,2015-10-18,
59655,Oenanthe isabellina,species,Isabelline Wheatear,1,51.6190373898,25.1238335557,Asia,Qatar,Qatar - Al Wakrah,2015-10-16,
64086,Tringa nebularia,species,Common Greenshank,1,51.6176748275,25.1334547008,Asia,Qatar,Qatar - Al Wakrah,2015-10-16,
64089,Egretta gularis,species,Western Reef Heron,1,51.6032552719,25.10672149,Asia,Qatar,Qatar - Al Wakrah,2015-10-16,
64098,Alaemon alaudipes,species,Greater Hoopoe-Lark,1,51.6133135557,25.1230588773,Asia,Qatar,Qatar - Al Wakrah,2015-10-16,
104884,Phoenicopterus roseus,species,Greater Flamingo,40,51.3656651974,25.1555353007,Asia,Qatar,Qatar,2015-04-17,
108087,Oenanthe isabellina,species,Isabelline Wheatear,2,51.1827,25.0051,Asia,Qatar,Qatar - Al Rayyan,2015-10-07,17:00
108088,Oenanthe pleschanka,species,Pied Wheatear,1,51.1795,25.0077,Asia,Qatar,Qatar - Al Rayyan,2015-10-07,17:00
119384,Oenanthe isabellina,species,Isabelline Wheatear,2,51.1827,25.0051,Asia,Qatar,Qatar - Al Rayyan,2015-10-07,17:00
119385,Oenanthe pleschanka,species,Pied Wheatear,1,51.1795,25.0077,Asia,Qatar,Qatar - Al Rayyan,2015-10-07,17:00
120755,Pycnonotus leucotis mesopotamia,subspecies,White-eared Bulbul ssp mesopotamia,5,51.6116525978,25.1796214569,Asia,Qatar,Qatar - Al Wakrah,2015-10-08,
120836,Muscicapa striata,species,Spotted Flycatcher,1,51.1790944263,25.0071490004,Asia,Qatar,Qatar - Al Rayyan,2015-10-07,17:00
67,Muscicapa striata,species,Spotted Flycatcher,1,51.1790944263,25.0071490004,Asia,Qatar,Qatar - Al Rayyan,2015-10-07,17:00
3081,Alaemon alaudipes,species,Greater Hoopoe-Lark,1,51.6158,25.1213,Asia,Qatar,Qatar - Al Wakrah,2015-10-07,13:57
3082,Lanius excubitor aucheri,subspecies,Levant Grey Shrike,1,51.1828,25.0048,Asia,Qatar,Qatar - Al Rayyan,2015-10-07,17:00
3083,Spilopelia senegalensis cambayensis,subspecies,Laughing Dove ssp cambayensis,2,51.1828,25.0048,Asia,Qatar,Qatar - Al Rayyan,2015-10-07,17:00
3084,Upupa epops epops,subspecies,Eurasian Hoopoe ssp epops,2,51.1828,25.0048,Asia,Qatar,Qatar - Al Rayyan,2015-10-07,17:00
3085,Motacilla flava,species,Western Yellow Wagtail,2,51.1795,25.0102,Asia,Qatar,Qatar - Al Rayyan,2015-10-07,17:00
3086,Gallinula chloropus,species,Common Moorhen,1,51.1829,25.0048,Asia,Qatar,Qatar - Al Rayyan,2015-10-07,17:00
3087,Falco tinnunculus,species,Common Kestrel,1,51.1848,25.0035,Asia,Qatar,Qatar - Al Rayyan,2015-10-07,17:00
3088,Circus aeruginosus,species,Western Marsh Harrier,1,51.1848,25.0035,Asia,Qatar,Qatar - Al Rayyan,2015-10-07,17:00
3089,Oenanthe deserti,species,Desert Wheatear,1,51.1795,25.0102,Asia,Qatar,Qatar - Al Rayyan,2015-10-07,17:00
3090,Galerida cristata,species,Crested Lark,8,51.1795,25.0102,Asia,Qatar,Qatar - Al Rayyan,2015-10-07,17:00
3091,Merops apiaster,species,European Bee-eater,4,51.1795,25.0102,Asia,Qatar,Qatar - Al Rayyan,2015-10-07,17:00
3092,Coturnix coturnix,species,Common Quail,3,51.1852,25.0058,Asia,Qatar,Qatar - Al Rayyan,2015-10-07,17:26
3093,Hirundo rustica,species,Barn Swallow,1,51.1794,25.0132,Asia,Qatar,Qatar - Al Rayyan,2015-10-07,16:07
3094,Acridotheres tristis,species,Common Myna,1,51.6018,25.1719,Asia,Qatar,Qatar - Al Wakrah,2015-10-07,14:28
3095,Spilopelia senegalensis cambayensis,subspecies,Laughing Dove ssp cambayensis,2,51.6146,25.1425,Asia,Qatar,Qatar - Al Wakrah,2015-10-07,14:18
3096,Alaemon alaudipes,species,Greater Hoopoe-Lark,1,51.6188,25.1401,Asia,Qatar,Qatar - Al Wakrah,2015-10-07,14:16
3097,Ardea cinerea,species,Grey Heron,4,51.6188,25.1401,Asia,Qatar,Qatar - Al Wakrah,2015-10-07,14:16
3309,Lanius excubitor aucheri,subspecies,Levant Grey Shrike,1,51.1828,25.0048,Asia,Qatar,Qatar - Al Rayyan,2015-10-07,17:00
3310,Spilopelia senegalensis cambayensis,subspecies,Laughing Dove ssp cambayensis,2,51.1828,25.0048,Asia,Qatar,Qatar - Al Rayyan,2015-10-07,17:00
3311,Upupa epops epops,subspecies,Eurasian Hoopoe ssp epops,2,51.1828,25.0048,Asia,Qatar,Qatar - Al Rayyan,2015-10-07,17:00
3312,Motacilla flava,species,Western Yellow Wagtail,2,51.1795,25.0102,Asia,Qatar,Qatar - Al Rayyan,2015-10-07,17:00
3313,Gallinula chloropus,species,Common Moorhen,1,51.1829,25.0048,Asia,Qatar,Qatar - Al Rayyan,2015-10-07,17:00
3314,Falco tinnunculus,species,Common Kestrel,1,51.1848,25.0035,Asia,Qatar,Qatar - Al Rayyan,2015-10-07,17:00
3315,Circus aeruginosus,species,Western Marsh Harrier,1,51.1848,25.0035,Asia,Qatar,Qatar - Al Rayyan,2015-10-07,17:00
3316,Oenanthe deserti,species,Desert Wheatear,1,51.1795,25.0102,Asia,Qatar,Qatar - Al Rayyan,2015-10-07,17:00
3317,Galerida cristata,species,Crested Lark,8,51.1795,25.0102,Asia,Qatar,Qatar - Al Rayyan,2015-10-07,17:00
3318,Merops apiaster,species,European Bee-eater,4,51.1795,25.0102,Asia,Qatar,Qatar - Al Rayyan,2015-10-07,17:00
3319,Coturnix coturnix,species,Common Quail,3,51.1852,25.0058,Asia,Qatar,Qatar - Al Rayyan,2015-10-07,17:26
3320,Acridotheres tristis,species,Common Myna,1,51.6018,25.1719,Asia,Qatar,Qatar - Al Wakrah,2015-10-07,14:28
3321,Spilopelia senegalensis cambayensis,subspecies,Laughing Dove ssp cambayensis,2,51.6146,25.1425,Asia,Qatar,Qatar - Al Wakrah,2015-10-07,14:18
3322,Alaemon alaudipes,species,Greater Hoopoe-Lark,1,51.6188,25.1401,Asia,Qatar,Qatar - Al Wakrah,2015-10-07,14:16
3323,Ardea cinerea,species,Grey Heron,4,51.6188,25.1401,Asia,Qatar,Qatar - Al Wakrah,2015-10-07,14:16
3325,Alaemon alaudipes,species,Greater Hoopoe-Lark,1,51.6158,25.1213,Asia,Qatar,Qatar - Al Wakrah,2015-10-07,13:57
3797,Phalacrocorax nigrogularis,species,Socotra Cormorant,1,50.7564801257,25.4024776823,Asia,Qatar,Qatar - Al Rayyan,2013-03-19,
3963,Pandion haliaetus,species,Western Osprey,1,51.3590830564,24.5763167563,Asia,Qatar,Qatar - Khor Al Adaid,2011-05-04,
7866,Phoenicopterus roseus,species,Greater Flamingo,10,51.3266095519,24.5963765361,Asia,Qatar,Qatar - Khor Al Adaid,2012-02-14,
9927,Egretta gularis schistacea,subspecies,Red Sea Reef Heron,1,51.6191500425,25.1109353703,Asia,Qatar,Qatar - Al Wakrah,2013-11-12,
11668,Merops apiaster,species,European Bee-eater,2,51.1777,25.0116,Asia,Qatar,Qatar - Al Rayyan,2015-10-06,16:00
11669,Merops persicus persicus,subspecies,Blue-cheeked Bee-eater ssp persicus,2,51.182,25.0089,Asia,Qatar,Qatar - Al Rayyan,2015-10-06,16:00
11670,Muscicapa striata,species,Spotted Flycatcher,1,51.1806,25.012,Asia,Qatar,Qatar - Al Rayyan,2015-10-06,14:02
11671,Upupa epops epops,subspecies,Eurasian Hoopoe ssp epops,1,51.182,25.0089,Asia,Qatar,Qatar - Al Rayyan,2015-10-06,16:00
11672,Galerida cristata,species,Crested Lark,10,51.1795,25.0103,Asia,Qatar,Qatar - Al Rayyan,2015-10-06,16:00
11673,Lanius excubitor aucheri,subspecies,Levant Grey Shrike,1,51.1808,25.0117,Asia,Qatar,Qatar - Al Rayyan,2015-10-06,16:00
11674,Circus aeruginosus,species,Western Marsh Harrier,2,51.182,25.0089,Asia,Qatar,Qatar - Al Rayyan,2015-10-06,16:00
11675,Francolinus pondicerianus,species,Grey Francolin,1,51.18,25.0107,Asia,Qatar,Qatar - Al Rayyan,2015-10-06,15:08
11676,Galerida cristata,species,Crested Lark,1,51.1853,25.0225,Asia,Qatar,Qatar - Al Rayyan,2015-10-06,17:10
11677,Muscicapa striata,species,Spotted Flycatcher,1,51.1798,25.0072,Asia,Qatar,Qatar - Al Rayyan,2015-10-06,16:40
11678,Pycnonotus leucotis,species,White-eared Bulbul,1,51.1798,25.0072,Asia,Qatar,Qatar - Al Rayyan,2015-10-06,16:39
11679,Spilopelia senegalensis cambayensis,subspecies,Laughing Dove ssp cambayensis,1,51.1799,25.0071,Asia,Qatar,Qatar - Al Rayyan,2015-10-06,16:39
11680,Nycticorax nycticorax,species,Black-crowned Night Heron,1,51.1808,25.0117,Asia,Qatar,Qatar - Al Rayyan,2015-10-06,16:00
11681,Pycnonotus leucotis,species,White-eared Bulbul,1,51.18,25.0111,Asia,Qatar,Qatar - Al Rayyan,2015-10-06,14:35
11682,Columba livia domestica,forma,Feral Pigeon,3,51.4909,25.228,Asia,Qatar,Qatar - Doha,2015-10-06,12:58
11683,Felis catus,species,Domesticated Cat,1,51.6013,25.1715,Asia,Qatar,Qatar - Al Wakrah,2015-10-05,23:54
16437,Pycnonotus leucotis,species,White-eared Bulbul,1,51.6127,25.1807,Asia,Qatar,Qatar - Al Wakrah,2015-10-05,17:33
16438,Pycnonotus leucotis,species,White-eared Bulbul,2,51.6111,25.1806,Asia,Qatar,Qatar - Al Wakrah,2015-10-05,17:31
16439,Pycnonotus leucotis,species,White-eared Bulbul,3,51.611,25.1799,Asia,Qatar,Qatar - Al Wakrah,2015-10-05,17:24
16440,Streptopelia decaocto,species,Eurasian Collared Dove,1,51.6111,25.1798,Asia,Qatar,Qatar - Al Wakrah,2015-10-05,17:20
16441,Pycnonotus leucotis,species,White-eared Bulbul,4,51.6113,25.1796,Asia,Qatar,Qatar - Al Wakrah,2015-10-05,17:20
16442,Pycnonotus leucotis,species,White-eared Bulbul,3,51.6124,25.1794,Asia,Qatar,Qatar - Al Wakrah,2015-10-05,17:15
16443,Pycnonotus cafer,species,Red-vented Bulbul,3,51.6123,25.1794,Asia,Qatar,Qatar - Al Wakrah,2015-10-05,17:15
16444,Felis catus,species,Domesticated Cat,1,51.6128,25.1794,Asia,Qatar,Qatar - Al Wakrah,2015-10-05,17:14
16445,Streptopelia decaocto,species,Eurasian Collared Dove,1,51.6131,25.1796,Asia,Qatar,Qatar - Al Wakrah,2015-10-05,17:12
16446,Spilopelia senegalensis cambayensis,subspecies,Laughing Dove ssp cambayensis,1,51.6131,25.1797,Asia,Qatar,Qatar - Al Wakrah,2015-10-05,17:12
16447,Pycnonotus leucotis,species,White-eared Bulbul,3,51.6131,25.1796,Asia,Qatar,Qatar - Al Wakrah,2015-10-05,17:12
16448,Pycnonotus cafer,species,Red-vented Bulbul,1,51.6131,25.1795,Asia,Qatar,Qatar - Al Wakrah,2015-10-05,17:12
16449,Pycnonotus leucotis,species,White-eared Bulbul,1,51.6133,25.1785,Asia,Qatar,Qatar - Al Wakrah,2015-10-05,17:00
16450,Passer domesticus,species,House Sparrow,1,51.6133,25.1785,Asia,Qatar,Qatar - Al Wakrah,2015-10-05,17:00
16451,Pycnonotus leucotis,species,White-eared Bulbul,3,51.6114,25.1773,Asia,Qatar,Qatar - Al Wakrah,2015-10-05,16:55
16452,Felis catus,species,Domesticated Cat,1,51.6114,25.1776,Asia,Qatar,Qatar - Al Wakrah,2015-10-05,16:42
16453,Passer domesticus,species,House Sparrow,5,51.6109,25.1776,Asia,Qatar,Qatar - Al Wakrah,2015-10-05,16:41
16454,Felis catus,species,Domesticated Cat,3,51.6084,25.1777,Asia,Qatar,Qatar - Al Wakrah,2015-10-05,16:39
16455,Psittacula krameri,species,Rose-ringed Parakeet,3,51.6085,25.1777,Asia,Qatar,Qatar - Al Wakrah,2015-10-05,16:39
16456,Spilopelia senegalensis cambayensis,subspecies,Laughing Dove ssp cambayensis,1,51.6066,25.1777,Asia,Qatar,Qatar - Al Wakrah,2015-10-05,16:35
16457,Passer domesticus,species,House Sparrow,3,51.6066,25.1777,Asia,Qatar,Qatar - Al Wakrah,2015-10-05,16:35
16458,Felis catus,species,Domesticated Cat,1,51.6066,25.1777,Asia,Qatar,Qatar - Al Wakrah,2015-10-05,16:34
16459,Felis catus,species,Domesticated Cat,1,51.6046,25.1758,Asia,Qatar,Qatar - Al Wakrah,2015-10-05,16:29
16460,Spilopelia senegalensis cambayensis,subspecies,Laughing Dove ssp cambayensis,2,51.6033,25.176,Asia,Qatar,Qatar - Al Wakrah,2015-10-05,16:24
16461,Spilopelia senegalensis cambayensis,subspecies,Laughing Dove ssp cambayensis,1,51.6015,25.1717,Asia,Qatar,Qatar - Al Wakrah,2015-10-05,16:17
16462,Columba livia domestica,forma,Feral Pigeon,1,51.6013,25.1716,Asia,Qatar,Qatar - Al Wakrah,2015-10-05,13:31
16463,Passer domesticus,species,House Sparrow,2,51.6015,25.1713,Asia,Qatar,Qatar - Al Wakrah,2015-10-05,13:30
16464,Spilopelia senegalensis cambayensis,subspecies,Laughing Dove ssp cambayensis,1,51.6012,25.1716,Asia,Qatar,Qatar - Al Wakrah,2015-10-05,13:30
16465,Pycnonotus leucotis,species,White-eared Bulbul,1,51.6012,25.1716,Asia,Qatar,Qatar - Al Wakrah,2015-10-05,13:30
16466,Columba livia domestica,forma,Feral Pigeon,1,51.6012,25.1717,Asia,Qatar,Qatar - Al Wakrah,2015-10-05,11:14
22520,Spilopelia senegalensis cambayensis,subspecies,Laughing Dove ssp cambayensis,2,51.5376,25.2524,Asia,Qatar,Qatar - Doha,2015-10-04,15:09
26937,Streptopelia decaocto,species,Eurasian Collared Dove,1,51.6084,25.1697,Asia,Qatar,Qatar - Al Wakrah,2015-10-04,17:24
26938,Felis catus,species,Domesticated Cat,2,51.6153,25.1648,Asia,Qatar,Qatar - Al Wakrah,2015-10-04,17:12
26939,Passer domesticus,species,House Sparrow,1,51.6108,25.1678,Asia,Qatar,Qatar - Al Wakrah,2015-10-04,16:57
26940,Acridotheres tristis,species,Common Myna,2,51.6108,25.1678,Asia,Qatar,Qatar - Al Wakrah,2015-10-04,16:57
26941,Acridotheres tristis,species,Common Myna,2,51.5548,25.2834,Asia,Qatar,Qatar - Doha,2015-10-04,15:41
26942,Acridotheres tristis,species,Common Myna,1,51.5535,25.2834,Asia,Qatar,Qatar - Doha,2015-10-04,15:41
26943,Acridotheres tristis,species,Common Myna,3,51.5546,25.2654,Asia,Qatar,Qatar - Doha,2015-10-04,15:38
26944,Acridotheres tristis,species,Common Myna,4,51.5377,25.2516,Asia,Qatar,Qatar - Doha,2015-10-04,15:28
26945,Pycnonotus cafer,species,Red-vented Bulbul,2,51.5369,25.2526,Asia,Qatar,Qatar - Doha,2015-10-04,15:22
26946,Upupa epops epops,subspecies,Eurasian Hoopoe ssp epops,1,51.5367651545,25.2524153012,Asia,Qatar,Qatar - Doha,2015-10-04,15:21
26947,Acridotheres tristis,species,Common Myna,1,51.5369,25.2524,Asia,Qatar,Qatar - Doha,2015-10-04,15:21
26948,Pycnonotus cafer,species,Red-vented Bulbul,1,51.5367,25.2533,Asia,Qatar,Qatar - Doha,2015-10-04,15:18
26949,Spilopelia senegalensis cambayensis,subspecies,Laughing Dove ssp cambayensis,1,51.5367,25.2531,Asia,Qatar,Qatar - Doha,2015-10-04,15:17
26950,Spilopelia senegalensis cambayensis,subspecies,Laughing Dove ssp cambayensis,1,51.5379,25.2516,Asia,Qatar,Qatar - Doha,2015-10-04,14:29
26951,Pycnonotus leucotis mesopotamia,subspecies,White-eared Bulbul ssp mesopotamia,3,51.5378,25.2515,Asia,Qatar,Qatar - Doha,2015-10-04,14:17
26952,Upupa epops epops,subspecies,Eurasian Hoopoe ssp epops,1,51.5367401764,25.2524394842,Asia,Qatar,Qatar - Doha,2015-10-04,13:11
26953,Pycnonotus cafer,species,Red-vented Bulbul,1,51.5371,25.2526,Asia,Qatar,Qatar - Doha,2015-10-04,13:10
26954,Spilopelia senegalensis cambayensis,subspecies,Laughing Dove ssp cambayensis,1,51.5367,25.2526,Asia,Qatar,Qatar - Doha,2015-10-04,12:53
26955,Acridotheres tristis,species,Common Myna,2,51.5372,25.2527,Asia,Qatar,Qatar - Doha,2015-10-04,12:52
26956,Columba livia domestica,forma,Feral Pigeon,1,51.5371,25.2527,Asia,Qatar,Qatar - Doha,2015-10-04,12:52
26957,Muscicapa striata,species,Spotted Flycatcher,1,51.5383,25.2526,Asia,Qatar,Qatar - Doha,2015-10-04,12:14
26958,Spilopelia senegalensis cambayensis,subspecies,Laughing Dove ssp cambayensis,2,51.5383,25.2526,Asia,Qatar,Qatar - Doha,2015-10-04,11:42
26959,Spilopelia senegalensis cambayensis,subspecies,Laughing Dove ssp cambayensis,2,51.5382,25.2531,Asia,Qatar,Qatar - Doha,2015-10-04,11:26
26960,Streptopelia decaocto,species,Eurasian Collared Dove,1,51.6077,25.162,Asia,Qatar,Qatar - Al Wakrah,2015-10-04,10:45
41884,Spilopelia senegalensis cambayensis,subspecies,Laughing Dove ssp cambayensis,3,51.6015,25.1717,Asia,Qatar,Qatar - Al Wakrah,2015-10-03,14:28
45790,Acridotheres tristis,species,Common Myna,1,51.6104,25.265,Asia,Qatar,Qatar - Doha,2015-09-27,15:11
46209,Passer domesticus,species,House Sparrow,2,51.6018,25.1712,Asia,Qatar,Qatar - Al Wakrah,2015-10-02,17:00
46210,Calidris alpina,species,Dunlin,1,51.6208,25.1817,Asia,Qatar,Qatar - Al Wakrah,2015-10-02,15:01
46211,Charadrius mongolus,species,Lesser Sand Plover,3,51.6208,25.1817,Asia,Qatar,Qatar - Al Wakrah,2015-10-02,15:01
46212,Charadrius alexandrinus,species,Kentish Plover,2,51.6208,25.1817,Asia,Qatar,Qatar - Al Wakrah,2015-10-02,15:01
46213,Tringa nebularia,species,Common Greenshank,1,51.6208,25.1817,Asia,Qatar,Qatar - Al Wakrah,2015-10-02,15:01
46214,Felis catus,species,Domesticated Cat,1,51.6032,25.1772,Asia,Qatar,Qatar - Al Wakrah,2015-10-02,21:17
46215,Felis catus,species,Domesticated Cat,2,51.6035,25.1775,Asia,Qatar,Qatar - Al Wakrah,2015-10-02,21:16
46216,Felis catus,species,Domesticated Cat,6,51.6034,25.1787,Asia,Qatar,Qatar - Al Wakrah,2015-10-02,21:14
46217,Felis catus,species,Domesticated Cat,1,51.6005,25.1801,Asia,Qatar,Qatar - Al Wakrah,2015-10-02,21:08
46218,Felis catus,species,Domesticated Cat,1,51.6003,25.1805,Asia,Qatar,Qatar - Al Wakrah,2015-10-02,20:59
46219,Passer domesticus,species,House Sparrow,3,51.6154,25.1807,Asia,Qatar,Qatar - Al Wakrah,2015-10-02,16:27
46220,Acridotheres tristis,species,Common Myna,7,51.6154,25.1808,Asia,Qatar,Qatar - Al Wakrah,2015-10-02,16:27
46221,Passer domesticus,species,House Sparrow,1,51.6166,25.1801,Asia,Qatar,Qatar - Al Wakrah,2015-10-02,15:58
46222,Pycnonotus leucotis,species,White-eared Bulbul,10,51.6166,25.1801,Asia,Qatar,Qatar - Al Wakrah,2015-10-02,15:58
46223,Spilopelia senegalensis cambayensis,subspecies,Laughing Dove ssp cambayensis,2,51.6167,25.1801,Asia,Qatar,Qatar - Al Wakrah,2015-10-02,15:58
46224,Streptopelia decaocto,species,Eurasian Collared Dove,1,51.6166,25.1801,Asia,Qatar,Qatar - Al Wakrah,2015-10-02,15:58
46225,Pycnonotus leucotis,species,White-eared Bulbul,1,51.6158,25.1814,Asia,Qatar,Qatar - Al Wakrah,2015-10-02,14:44
46226,Spilopelia senegalensis,species,Laughing Dove,2,51.6021,25.1737,Asia,Qatar,Qatar - Al Wakrah,2015-10-02,14:42
46227,Columba livia domestica,forma,Feral Pigeon,2,51.6019,25.1729,Asia,Qatar,Qatar - Al Wakrah,2015-10-02,14:41
53962,Pluvialis squatarola,species,Grey Plover,1,51.6203,25.1335,Asia,Qatar,Qatar - Al Wakrah,2015-10-01,15:39
53963,Calidris alba,species,Sanderling,6,51.6203,25.1335,Asia,Qatar,Qatar - Al Wakrah,2015-10-01,15:39
53964,Calidris alpina,species,Dunlin,5,51.6203,25.1335,Asia,Qatar,Qatar - Al Wakrah,2015-10-01,15:39
53965,Charadrius leschenaultii,species,Greater Sand Plover,1,51.6203,25.1335,Asia,Qatar,Qatar - Al Wakrah,2015-10-01,15:39
53966,Charadrius mongolus,species,Lesser Sand Plover,5,51.6203,25.1335,Asia,Qatar,Qatar - Al Wakrah,2015-10-01,15:39
53967,Charadrius alexandrinus,species,Kentish Plover,10,51.6203,25.1335,Asia,Qatar,Qatar - Al Wakrah,2015-10-01,15:39
53968,Limosa lapponica,species,Bar-tailed Godwit,1,51.6203,25.1335,Asia,Qatar,Qatar - Al Wakrah,2015-10-01,15:39
53970,Tringa totanus,species,Common Redshank,1,51.6203,25.1335,Asia,Qatar,Qatar - Al Wakrah,2015-10-01,15:39
53971,Spilopelia senegalensis cambayensis,subspecies,Laughing Dove ssp cambayensis,1,51.6132,25.1434,Asia,Qatar,Qatar - Al Wakrah,2015-10-01,15:03
53972,Streptopelia decaocto,species,Eurasian Collared Dove,1,51.6013,25.1718,Asia,Qatar,Qatar - Al Wakrah,2015-10-01,14:56
53973,Passer domesticus,species,House Sparrow,1,51.6015,25.1715,Asia,Qatar,Qatar - Al Wakrah,2015-10-01,07:42
53974,Spilopelia senegalensis cambayensis,subspecies,Laughing Dove ssp cambayensis,1,51.6014,25.1717,Asia,Qatar,Qatar - Al Wakrah,2015-10-01,07:42
53975,Acridotheres tristis,species,Common Myna,2,51.5983,25.2455,Asia,Qatar,Qatar - Doha,2015-10-01,06:42
106672,Columba livia domestica,forma,Feral Pigeon,30,51.6105723171,25.2705623752,Asia,Qatar,Qatar - Doha,2015-09-09,06:00
34804,Ichthyaetus ichthyaetus,species,Pallas's Gull,7,51.3790369025,26.0278437076,Asia,Qatar,Qatar - Madinat ash Shamal,2014-02-23,14:30
34805,Galerida cristata,species,Crested Lark,2,51.2526,25.171,Asia,Qatar,Qatar - Al Rayyan,2014-02-22,13:24
34806,Motacilla alba,species,White Wagtail,5,51.3616063446,25.1478291541,Asia,Qatar,Qatar,2014-02-22,12:00
34807,Spatula clypeata,species,Northern Shoveler,16,51.362901181,25.152354814,Asia,Qatar,Qatar,2014-02-22,12:00
34808,Aythya ferina,species,Common Pochard,8,51.3623861969,25.1521994293,Asia,Qatar,Qatar,2014-02-22,12:00
34809,Egretta garzetta,species,Little Egret,1,51.3637594879,25.148625527,Asia,Qatar,Qatar,2014-02-22,12:00
34810,Ardea purpurea purpurea,subspecies,Purple Heron ssp purpurea,2,51.3637594879,25.148625527,Asia,Qatar,Qatar,2014-02-22,12:00
34811,Ardea cinerea,species,Grey Heron,2,51.3637594879,25.148625527,Asia,Qatar,Qatar,2014-02-22,12:00
34812,Phalacrocorax carbo,species,Great Cormorant,100,51.3638594002,25.1497132475,Asia,Qatar,Qatar,2014-02-22,12:00
34813,Tachybaptus ruficollis,species,Little Grebe,1,51.3622071594,25.1486449507,Asia,Qatar,Qatar,2014-02-22,12:00
34814,Podiceps cristatus cristatus,subspecies,Great Crested Grebe ssp cristatus,10,51.3605083153,25.1501891222,Asia,Qatar,Qatar,2014-02-22,12:00
34815,Diplacodes lefebvrii,species,Black Percher,3,51.3589885086,25.1503542211,Asia,Qatar,Qatar,2014-02-22,
34817,Crocothemis erythraea,species,Broad Scarlet,3,51.3589885086,25.1503542211,Asia,Qatar,Qatar,2014-02-22,
34818,Streptopelia decaocto,species,Eurasian Collared Dove,1,51.5991,25.1729,Asia,Qatar,Qatar - Al Wakrah,2014-02-21,16:24
34819,Spilopelia senegalensis cambayensis,subspecies,Laughing Dove ssp cambayensis,1,51.5991,25.1729,Asia,Qatar,Qatar - Al Wakrah,2014-02-21,16:23
34820,Trigonella glabra,species,Egyptian fenugreek,1,51.59874212,25.1728929845,Asia,Qatar,Qatar - Al Wakrah,2014-02-21,
34821,Solanum villosum,species,Yellow Nightshade,1,51.598806493,25.1729221142,Asia,Qatar,Qatar - Al Wakrah,2014-02-21,
34822,Cenchrus ciliaris,species,Buffel-grass,1,51.5986061655,25.1788838464,Asia,Qatar,Qatar - Al Wakrah,2014-02-21,
34823,Psittacula krameri,species,Rose-ringed Parakeet,1,51.6038,25.1731194198,Asia,Qatar,Qatar - Al Wakrah,2014-02-20,16:25
34824,Acridotheres tristis,species,Common Myna,2,51.6120107288,25.1796048547,Asia,Qatar,Qatar - Al Wakrah,2014-02-20,15:47
34825,Felis catus,species,Domesticated Cat,3,51.6120107288,25.1796048547,Asia,Qatar,Qatar - Al Wakrah,2014-02-20,15:47
34826,Vanessa cardui,species,Painted Lady,3,51.6113107288,25.1799242734,Asia,Qatar,Qatar - Al Wakrah,2014-02-20,15:39
34827,Acridotheres tristis,species,Common Myna,3,51.6108,25.18,Asia,Qatar,Qatar - Al Wakrah,2014-02-20,15:33
34828,Passer domesticus,species,House Sparrow,8,51.6109107288,25.1801,Asia,Qatar,Qatar - Al Wakrah,2014-02-20,15:33
34829,Passer domesticus,species,House Sparrow,1,51.6124214577,25.1807194186,Asia,Qatar,Qatar - Al Wakrah,2014-02-20,15:22
34830,Pycnonotus leucotis,species,White-eared Bulbul,1,51.6124107288,25.1807097093,Asia,Qatar,Qatar - Al Wakrah,2014-02-20,15:22
34831,Papilio demoleus,species,Lemon Butterfly,1,51.613,25.1805097093,Asia,Qatar,Qatar - Al Wakrah,2014-02-20,15:17
34832,Pycnonotus cafer,species,Red-vented Bulbul,2,51.6131026822,25.1804048547,Asia,Qatar,Qatar - Al Wakrah,2014-02-20,15:09
34833,Streptopelia decaocto,species,Eurasian Collared Dove,4,51.6130892712,25.1803097093,Asia,Qatar,Qatar - Al Wakrah,2014-02-20,15:02
34834,Pycnonotus leucotis,species,White-eared Bulbul,2,51.6131214577,25.1803194186,Asia,Qatar,Qatar - Al Wakrah,2014-02-20,15:01
34835,Pycnonotus leucotis,species,White-eared Bulbul,2,51.6170239728,25.1800052797,Asia,Qatar,Qatar - Al Wakrah,2014-02-20,14:45
34836,Chroicocephalus genei,species,Slender-billed Gull,10,51.6212858307,25.1814495324,Asia,Qatar,Qatar - Al Wakrah,2014-02-20,14:23
34837,Acridotheres tristis,species,Common Myna,2,51.5991107288,25.1796048547,Asia,Qatar,Qatar - Al Wakrah,2014-02-20,13:02
34838,Columba livia domestica,forma,Feral Pigeon,3,51.5974107288,25.177919419,Asia,Qatar,Qatar - Al Wakrah,2014-02-20,12:46
34839,Spilopelia senegalensis cambayensis,subspecies,Laughing Dove ssp cambayensis,1,51.6017026822,25.1713024275,Asia,Qatar,Qatar - Al Wakrah,2014-02-20,11:55
34840,Passer domesticus,species,House Sparrow,3,51.6016946356,25.1713024275,Asia,Qatar,Qatar - Al Wakrah,2014-02-20,11:55
34842,Cistanche phelypaea,species,,1,51.6155434773,25.1804179257,Asia,Qatar,Qatar - Al Wakrah,2014-02-20,
34843,Canis familiaris,species,Feral Dog,1,51.6168416664,25.1801169369,Asia,Qatar,Qatar - Al Wakrah,2014-02-20,
34844,Spilopelia senegalensis cambayensis,subspecies,Laughing Dove ssp cambayensis,2,51.6119635664,25.1799688696,Asia,Qatar,Qatar - Al Wakrah,2014-02-20,
34845,Spilopelia senegalensis cambayensis,subspecies,Laughing Dove ssp cambayensis,1,51.6125697456,25.1804252077,Asia,Qatar,Qatar - Al Wakrah,2014-02-20,
