,scientificName,taxonRank,vernacularName,individualCount,longitudeDecimal,latitudeDecimal,continent,country,locality,eventDate,eventTime
47400,Cichladusa ruficauda,species,Rufous-tailed Palm Thrush,2,15.2589301765,-4.28461788695,Africa,Republic of the Congo,Republic of the Congo - Pool,2015-02-12,
77704,Naucrates ductor,species,Pilot Fish,10,11.8034362793,-4.75572974293,Africa,Republic of the Congo,Congo,2013-08-04,
106193,Megaptera novaeangliae,species,Humpback Whale,8,11.5768432617,-4.69961638009,Africa,Republic of the Congo,Republic of the Congo - Kouilou,2013-10-07,
3871,Daphnis nerii,species,Oleander Hawk-moth,1,11.8157958984,-4.75162404148,Africa,Republic of the Congo,Congo,2014-01-12,
11619,Stenella attenuata,species,Pantropical Spotted Dolphin,20,10.5296716689,-4.90724101615,Africa,Republic of the Congo,Republic of the Congo - Conkouati-Douli NP,2012-06-11,07:30
11717,Corvus albus,species,Pied Crow,3,12.1319943164,-5.59620709783,Africa,Republic of the Congo,Republic of the Congo - Kouilou,2012-06-21,07:00
11783,Anastomus lamelligerus,species,African Openbill,1,12.9130554199,-5.90701883332,Africa,Republic of the Congo,Republic of the Congo - Kouilou,2012-06-24,15:00
34182,Syncerus caffer nanus,subspecies,African Forest Buffalo,1,14.929012682903856,0.8931450000000609,Africa,Republic of the Congo,Republic of the Congo - Odzala-Kokoua NP,2000-09-18,
72649,Halcyon senegalensis,species,Woodland Kingfisher,4,15.275369073849255,-4.2676603516746265,Africa,Republic of the Congo,Republic of the Congo - Pool,2020-01-30,14:25
73327,Corvus albus,species,Pied Crow,1,15.275779941885068,-4.26776714384165,Africa,Republic of the Congo,Republic of the Congo - Pool,2020-01-30,14:01
73328,Halcyon senegalensis,species,Woodland Kingfisher,1,15.275368470011642,-4.267836011737443,Africa,Republic of the Congo,Republic of the Congo - Pool,2020-01-30,13:33
73329,Turdus pelios,species,African Thrush,1,15.274839707772552,-4.268127403582033,Africa,Republic of the Congo,Republic of the Congo - Pool,2020-01-30,13:32
117415,Cichladusa ruficauda,species,Rufous-tailed Palm Thrush,1,15.268667349606073,-4.267506147738795,Africa,Republic of the Congo,Republic of the Congo - Pool,2020-01-17,07:28
835,Passer domesticus,species,House Sparrow,9,15.268574897214087,-4.26761435810874,Africa,Republic of the Congo,Republic of the Congo - Pool,2020-01-16,11:38
9056,Passer domesticus,species,House Sparrow,1,15.268554613008414,-4.267538250427942,Africa,Republic of the Congo,Republic of the Congo - Pool,2020-01-16,07:32
116438,Corvus albus,species,Pied Crow,2,15.2488,-4.2589,Africa,Republic of the Congo,Republic of the Congo - Pool,2017-11-22,07:57
116439,Cichladusa ruficauda,species,Rufous-tailed Palm Thrush,1,15.2486,-4.2592,Africa,Republic of the Congo,Republic of the Congo - Pool,2017-11-22,07:56
107944,Ploceus ocularis crocatus,subspecies,Spectacled Weaver ssp crocatus,1,16.54550336,-0.30360352,Africa,Republic of the Congo,Republic of the Congo - Cuvette,2015-03-04,
44129,Lanius humeralis,species,Northern Fiscal,1,11.9396352767,-4.93003953711,Africa,Republic of the Congo,Republic of the Congo - Kouilou,2015-11-14,
44880,Upupa africana,species,African Hoopoe,1,11.9440340991,-4.934977903,Africa,Republic of the Congo,Republic of the Congo - Kouilou,2015-11-14,
45025,Ispidina picta,species,African Pygmy Kingfisher,1,11.939191818,-4.92906753678,Africa,Republic of the Congo,Republic of the Congo - Kouilou,2015-11-14,
84737,Butorides striata,species,Striated Heron,1,15.2742273174,-4.3061270396,Africa,Republic of the Congo,Republic of the Congo - Pool,2015-09-07,
84741,Nycticorax nycticorax,species,Black-crowned Night Heron,1,15.2742273174,-4.3061270396,Africa,Republic of the Congo,Republic of the Congo - Pool,2015-09-07,
38388,Hypolimnas misippus,species,Danaid Eggfly,1,11.9167327881,-4.69722119661,Africa,Republic of the Congo,Republic of the Congo - Kouilou,2013-10-06,
48202,Terpsiphone viridis,species,African Paradise Flycatcher,1,11.8240356445,-4.71604027342,Africa,Republic of the Congo,Republic of the Congo - Kouilou,2015-08-16,
25740,Polyboroides typus,species,African Harrier-Hawk,1,17.2585210204,-0.486998803506,Africa,Republic of the Congo,Republic of the Congo - Likouala,2015-03-16,
25786,Milvus aegyptius,species,Yellow-billed Kite,1,17.2585210204,-0.486998803506,Africa,Republic of the Congo,Republic of the Congo - Likouala,2015-03-15,
25816,Charadrius marginatus,species,White-fronted Plover,1,17.2591218352,-0.485282251527,Africa,Republic of the Congo,Republic of the Congo - Likouala,2015-03-15,
25833,Ciconia episcopus,species,Woolly-necked Stork,1,17.2588938475,-0.485111937361,Africa,Republic of the Congo,Republic of the Congo - Likouala,2015-03-15,
26146,Psittacus erithacus,species,Grey Parrot,5,17.2582414001,-0.485581642363,Africa,Republic of the Congo,Republic of the Congo - Likouala,2015-03-15,
26213,Glareola nuchalis,species,Rock Pratincole,1,17.2584351897,-0.485024768692,Africa,Republic of the Congo,Republic of the Congo - Likouala,2015-03-15,
26223,Tringa nebularia,species,Common Greenshank,1,17.2582487762,-0.485453236216,Africa,Republic of the Congo,Republic of the Congo - Likouala,2015-03-15,
26348,Bostrychia hagedash,species,Hadada Ibis,1,17.2598084807,-0.486998803506,Africa,Republic of the Congo,Republic of the Congo - Likouala,2015-03-15,
26358,Anhinga rufa,species,African Darter,1,17.2598084807,-0.486998803506,Africa,Republic of the Congo,Republic of the Congo - Likouala,2015-03-15,
26364,Merops gularis,species,Black Bee-eater,1,17.26079,-0.46543,Africa,Republic of the Congo,Republic of the Congo - Likouala,2015-03-15,
26378,Lophoceros camurus,species,Red-billed Dwarf Hornbill,1,17.26079,-0.46543,Africa,Republic of the Congo,Republic of the Congo - Likouala,2015-03-15,
26388,Eichhornia crassipes,species,Water Hyacinth,1,17.2614,-0.46268,Africa,Republic of the Congo,Republic of the Congo - Likouala,2015-03-15,
26401,Psittacus erithacus,species,Grey Parrot,1,17.28484,-0.4431,Africa,Republic of the Congo,Republic of the Congo - Likouala,2015-03-15,
26485,Cercopithecus pogonias grayi,subspecies,Gray's Crowned Monkey,1,17.28478,-0.44307,Africa,Republic of the Congo,Republic of the Congo - Likouala,2015-03-15,
26495,Cercopithecus nictitans nictitans,subspecies,Eastern Putty-nosed Monkey,1,17.28478,-0.44307,Africa,Republic of the Congo,Republic of the Congo - Likouala,2015-03-15,
26515,Varanus ornatus,species,Ornate monitor,1,17.29575,-0.4312,Africa,Republic of the Congo,Republic of the Congo - Likouala,2015-03-14,
26539,Cercopithecus nictitans nictitans,subspecies,Eastern Putty-nosed Monkey,1,17.29458,-0.43334,Africa,Republic of the Congo,Republic of the Congo - Likouala,2015-03-14,
26545,Cercopithecus nictitans nictitans,subspecies,Eastern Putty-nosed Monkey,1,17.29221,-0.4339,Africa,Republic of the Congo,Republic of the Congo - Likouala,2015-03-14,
26548,Psittacus erithacus,species,Grey Parrot,1,17.28901,-0.43652,Africa,Republic of the Congo,Republic of the Congo - Likouala,2015-03-14,
26554,Cercopithecus pogonias grayi,subspecies,Gray's Crowned Monkey,1,17.29,-0.439,Africa,Republic of the Congo,Republic of the Congo - Likouala,2015-03-14,
26850,Cercopithecus nictitans nictitans,subspecies,Eastern Putty-nosed Monkey,1,17.28825,-0.44193,Africa,Republic of the Congo,Republic of the Congo - Likouala,2015-03-13,
26898,Bubulcus ibis,species,Western Cattle Egret,1,15.2660001442,-4.28095836951,Africa,Republic of the Congo,Republic of the Congo - Pool,2015-04-01,
26899,Corvus albus,species,Pied Crow,1,15.2660001442,-4.28095836951,Africa,Republic of the Congo,Republic of the Congo - Pool,2015-04-01,
119651,Vanellus albiceps,species,White-crowned Lapwing,1,17.2586926818,-0.482621595099,Africa,Republic of the Congo,Republic of the Congo - Likouala,2015-03-13,
119657,Ceryle rudis,species,Pied Kingfisher,1,17.2586926818,-0.482621595099,Africa,Republic of the Congo,Republic of the Congo - Likouala,2015-03-13,
119660,Rynchops flavirostris,species,African Skimmer,2,17.2586926818,-0.482621595099,Africa,Republic of the Congo,Republic of the Congo - Likouala,2015-03-13,
119802,Polyboroides typus,species,African Harrier-Hawk,1,17.2582635283,-0.485368079136,Africa,Republic of the Congo,Republic of the Congo - Likouala,2015-03-13,
119817,Cercopithecus nictitans nictitans,subspecies,Eastern Putty-nosed Monkey,1,17.2548303008,-0.485797217167,Africa,Republic of the Congo,Republic of the Congo - Likouala,2015-03-13,
119825,Cercopithecus nictitans nictitans,subspecies,Eastern Putty-nosed Monkey,1,17.25943,-0.4874,Africa,Republic of the Congo,Republic of the Congo - Likouala,2015-03-12,
119829,Psittacus erithacus,species,Grey Parrot,1,17.25943,-0.4874,Africa,Republic of the Congo,Republic of the Congo - Likouala,2015-03-12,
119834,Ciconia episcopus,species,Woolly-necked Stork,1,17.25943,-0.4874,Africa,Republic of the Congo,Republic of the Congo - Likouala,2015-03-12,
119864,Tringa nebularia,species,Common Greenshank,1,17.25766,-0.49006,Africa,Republic of the Congo,Republic of the Congo - Likouala,2015-03-12,
119892,Eichhornia crassipes,species,Water Hyacinth,1,17.25608,-0.49208,Africa,Republic of the Congo,Republic of the Congo - Likouala,2015-03-12,
119894,Rynchops flavirostris,species,African Skimmer,1,17.25608,-0.49208,Africa,Republic of the Congo,Republic of the Congo - Likouala,2015-03-12,
119899,Vanellus albiceps,species,White-crowned Lapwing,1,17.25608,-0.49208,Africa,Republic of the Congo,Republic of the Congo - Likouala,2015-03-12,
120018,Vanellus albiceps,species,White-crowned Lapwing,1,17.23506,-0.5011,Africa,Republic of the Congo,Republic of the Congo - Likouala,2015-03-12,
120026,Hirundo albigularis,species,White-throated Swallow,1,17.23506,-0.5011,Africa,Republic of the Congo,Republic of the Congo - Likouala,2015-03-12,
120092,Anhinga rufa,species,African Darter,1,17.22886,-0.50242,Africa,Republic of the Congo,Republic of the Congo - Likouala,2015-03-12,
120100,Merops malimbicus,species,Rosy Bee-eater,1,17.22316,-0.50329,Africa,Republic of the Congo,Republic of the Congo - Likouala,2015-03-12,
120119,Ardea intermedia,species,Intermediate Egret,1,17.14763,-0.52064,Africa,Republic of the Congo,Republic of the Congo - Cuvette,2015-03-11,
120125,Muscicapa cassini,species,Cassin's Flycatcher,1,17.15924,-0.54305,Africa,Republic of the Congo,Republic of the Congo - Cuvette,2015-03-11,
120144,Ceryle rudis,species,Pied Kingfisher,1,17.15987,-0.5457,Africa,Republic of the Congo,Republic of the Congo - Cuvette,2015-03-11,
120150,Ceryle rudis,species,Pied Kingfisher,1,17.16391,-0.56297,Africa,Republic of the Congo,Republic of the Congo - Cuvette,2015-03-11,
120161,Glareola cinerea,species,Grey Pratincole,1,17.16324,-0.57398,Africa,Republic of the Congo,Republic of the Congo - Cuvette,2015-03-11,
120168,Ceryle rudis,species,Pied Kingfisher,1,17.16324,-0.57398,Africa,Republic of the Congo,Republic of the Congo - Cuvette,2015-03-11,
120176,Vanellus albiceps,species,White-crowned Lapwing,1,17.16324,-0.57398,Africa,Republic of the Congo,Republic of the Congo - Cuvette,2015-03-11,
120191,Pseudhirundo griseopyga,species,Grey-rumped Swallow,1,17.16283,-0.57772,Africa,Republic of the Congo,Republic of the Congo - Cuvette,2015-03-11,
120196,Charadrius marginatus,species,White-fronted Plover,1,17.16283,-0.57772,Africa,Republic of the Congo,Republic of the Congo - Cuvette,2015-03-11,
120210,Glareola cinerea,species,Grey Pratincole,1,17.16283,-0.57772,Africa,Republic of the Congo,Republic of the Congo - Cuvette,2015-03-11,
120367,Vanellus albiceps,species,White-crowned Lapwing,1,17.16283,-0.57772,Africa,Republic of the Congo,Republic of the Congo - Cuvette,2015-03-11,
120400,Rynchops flavirostris,species,African Skimmer,1,17.15891,-0.58846,Africa,Republic of the Congo,Republic of the Congo - Cuvette,2015-03-11,
120411,Vanellus albiceps,species,White-crowned Lapwing,1,17.15891,-0.58846,Africa,Republic of the Congo,Republic of the Congo - Cuvette,2015-03-11,
120420,Ceryle rudis,species,Pied Kingfisher,1,17.15643,-0.59928,Africa,Republic of the Congo,Republic of the Congo - Cuvette,2015-03-11,
120426,Ceryle rudis,species,Pied Kingfisher,1,17.15788,-0.5895,Africa,Republic of the Congo,Republic of the Congo - Cuvette,2015-03-11,
120585,Milvus aegyptius,species,Yellow-billed Kite,1,17.16007,-0.62894,Africa,Republic of the Congo,Republic of the Congo - Cuvette,2015-03-11,
120605,Glareola cinerea,species,Grey Pratincole,1,17.15715,-0.64553,Africa,Republic of the Congo,Republic of the Congo - Cuvette,2015-03-11,
120644,Microcarbo africanus,species,Reed Cormorant,1,17.15352,-0.65228,Africa,Republic of the Congo,Republic of the Congo - Cuvette,2015-03-11,
120674,Aves indet.,multispecies,Unidentified bird,1,17.18003,-0.6852,Africa,Republic of the Congo,Republic of the Congo - Cuvette,2015-03-11,
120883,Egretta garzetta,species,Little Egret,1,17.19498,-0.72848,Africa,Republic of the Congo,Republic of the Congo - Cuvette,2015-03-11,
120918,Glareola cinerea,species,Grey Pratincole,30,17.18375,-0.74167,Africa,Republic of the Congo,Republic of the Congo - Cuvette,2015-03-11,
121041,Pseudhirundo griseopyga,species,Grey-rumped Swallow,1,17.16866,-0.74864,Africa,Republic of the Congo,Republic of the Congo - Cuvette,2015-03-11,
121046,Vanellus albiceps,species,White-crowned Lapwing,2,17.16318,-0.74905,Africa,Republic of the Congo,Republic of the Congo - Cuvette,2015-03-11,
121108,Microcarbo africanus,species,Reed Cormorant,1,17.15553,-0.74947,Africa,Republic of the Congo,Republic of the Congo - Cuvette,2015-03-11,
121115,Pandion haliaetus,species,Western Osprey,1,17.15108,-0.75028,Africa,Republic of the Congo,Republic of the Congo - Cuvette,2015-03-11,
121138,Egretta garzetta,species,Little Egret,1,17.15108,-0.75028,Africa,Republic of the Congo,Republic of the Congo - Cuvette,2015-03-11,
121151,Lophoceros fasciatus,species,African Pied Hornbill,1,17.13568,-0.75663,Africa,Republic of the Congo,Republic of the Congo - Cuvette,2015-03-11,
121188,Psittacus erithacus,species,Grey Parrot,2,17.13257,-0.75652,Africa,Republic of the Congo,Republic of the Congo - Cuvette,2015-03-11,
121200,Vanellus albiceps,species,White-crowned Lapwing,1,17.12327,-0.76087,Africa,Republic of the Congo,Republic of the Congo - Cuvette,2015-03-11,
121221,Pseudhirundo griseopyga,species,Grey-rumped Swallow,1,17.11954,-0.76183,Africa,Republic of the Congo,Republic of the Congo - Cuvette,2015-03-11,
121231,Muscicapa cassini,species,Cassin's Flycatcher,1,17.10836,-0.78162,Africa,Republic of the Congo,Republic of the Congo - Cuvette,2015-03-11,
121235,Ceryle rudis,species,Pied Kingfisher,1,17.10999,-0.78535,Africa,Republic of the Congo,Republic of the Congo - Cuvette,2015-03-11,
121245,Lophoceros fasciatus,species,African Pied Hornbill,1,17.11199,-0.76625,Africa,Republic of the Congo,Republic of the Congo - Cuvette,2015-03-11,
121267,Ciconia episcopus,species,Woolly-necked Stork,1,17.11034,-0.79457,Africa,Republic of the Congo,Republic of the Congo - Cuvette,2015-03-11,
121275,Chrysococcyx caprius,species,Diederik Cuckoo,1,17.11081,-0.79732,Africa,Republic of the Congo,Republic of the Congo - Cuvette,2015-03-11,
121472,Pseudhirundo griseopyga,species,Grey-rumped Swallow,1,17.11132,-0.8,Africa,Republic of the Congo,Republic of the Congo - Cuvette,2015-03-11,
121730,Lophoceros fasciatus,species,African Pied Hornbill,1,17.11269,-0.80834,Africa,Republic of the Congo,Republic of the Congo - Cuvette,2015-03-11,
121755,Psittacus erithacus,species,Grey Parrot,2,17.11272,-0.81689,Africa,Republic of the Congo,Republic of the Congo - Cuvette,2015-03-11,
121761,Lophoceros fasciatus,species,African Pied Hornbill,1,17.11272,-0.81689,Africa,Republic of the Congo,Republic of the Congo - Cuvette,2015-03-11,
121777,Lophoceros fasciatus,species,African Pied Hornbill,1,17.11285,-0.82102,Africa,Republic of the Congo,Republic of the Congo - Cuvette,2015-03-11,
121793,Scopus umbretta,species,Hamerkop,1,17.11563,-0.84009,Africa,Republic of the Congo,Republic of the Congo - Cuvette,2015-03-11,
121809,Egretta garzetta,species,Little Egret,1,17.11563,-0.84009,Africa,Republic of the Congo,Republic of the Congo - Cuvette,2015-03-11,
121825,Ceryle rudis,species,Pied Kingfisher,1,17.11913,-0.84718,Africa,Republic of the Congo,Republic of the Congo - Cuvette,2015-03-11,
121830,Milvus aegyptius,species,Yellow-billed Kite,1,17.12599,-0.87457,Africa,Republic of the Congo,Republic of the Congo - Cuvette,2015-03-11,
121831,Lophoceros fasciatus,species,African Pied Hornbill,3,17.12599,-0.87457,Africa,Republic of the Congo,Republic of the Congo - Cuvette,2015-03-11,
121851,Eichhornia crassipes,species,Water Hyacinth,1,17.12081,-0.85181,Africa,Republic of the Congo,Republic of the Congo - Cuvette,2015-03-11,
122133,Actophilornis africanus,species,African Jacana,1,17.12611,-0.86568,Africa,Republic of the Congo,Republic of the Congo - Cuvette,2015-03-11,
122148,Ceryle rudis,species,Pied Kingfisher,1,17.1263,-0.86854,Africa,Republic of the Congo,Republic of the Congo - Cuvette,2015-03-11,
122164,Lophoceros fasciatus,species,African Pied Hornbill,8,17.12615,-0.87293,Africa,Republic of the Congo,Republic of the Congo - Cuvette,2015-03-11,
3457,Ploceus ocularis,species,Spectacled Weaver,1,17.1259984374,-0.877585814692,Africa,Republic of the Congo,Republic of the Congo - Cuvette,2015-03-10,
3572,Vidua macroura,species,Pin-tailed Whydah,1,17.12563,-0.87332,Africa,Republic of the Congo,Republic of the Congo - Cuvette,2015-03-10,
3582,Milvus aegyptius,species,Yellow-billed Kite,1,17.1289019287,-0.890844406483,Africa,Republic of the Congo,Republic of the Congo - Cuvette,2015-03-10,
10552,Ploceus cucullatus,species,Village Weaver,1,17.1290566772,-0.892093124816,Africa,Republic of the Congo,Republic of the Congo - Cuvette,2015-03-10,
12504,Allenopithecus nigroviridis,species,Allen's Swamp Monkey,1,17.1290566772,-0.892093124816,Africa,Republic of the Congo,Republic of the Congo - Cuvette,2015-03-10,
12538,Tragelaphus spekii,species,Sitatunga,1,17.1290566772,-0.892093124816,Africa,Republic of the Congo,Republic of the Congo - Cuvette,2015-03-10,
12546,Muscicapa cassini,species,Cassin's Flycatcher,1,17.12811,-0.90103,Africa,Republic of the Congo,Republic of the Congo - Cuvette,2015-03-09,
12556,Corythornis cristatus,species,Malachite Kingfisher,1,17.12135,-0.91714,Africa,Republic of the Congo,Republic of the Congo - Cuvette,2015-03-09,
12584,Muscicapa cassini,species,Cassin's Flycatcher,1,17.11891,-0.92024,Africa,Republic of the Congo,Republic of the Congo - Cuvette,2015-03-09,
12588,Ceryle rudis,species,Pied Kingfisher,1,17.11508,-0.93598,Africa,Republic of the Congo,Republic of the Congo - Cuvette,2015-03-09,
12656,Milvus aegyptius,species,Yellow-billed Kite,1,17.11416,-0.93933,Africa,Republic of the Congo,Republic of the Congo - Cuvette,2015-03-09,
12784,Ploceus pelzelni,species,Slender-billed Weaver,1,17.11416,-0.93933,Africa,Republic of the Congo,Republic of the Congo - Cuvette,2015-03-09,
12857,Merops variegatus,species,Blue-breasted Bee-eater,1,17.11451,-0.94068,Africa,Republic of the Congo,Republic of the Congo - Cuvette,2015-03-09,
12882,Actophilornis africanus,species,African Jacana,1,17.11418,-0.94432,Africa,Republic of the Congo,Republic of the Congo - Cuvette,2015-03-09,
12888,Eichhornia crassipes,species,Water Hyacinth,1,17.11418,-0.94432,Africa,Republic of the Congo,Republic of the Congo - Cuvette,2015-03-09,
13013,Egretta garzetta,species,Little Egret,1,17.1143107116,-1.04034019129,Africa,Republic of the Congo,Republic of the Congo - Cuvette,2015-03-08,
13025,Ardea purpurea,species,Purple Heron,2,17.1143107116,-1.04034019129,Africa,Republic of the Congo,Republic of the Congo - Cuvette,2015-03-08,
13161,Ceryle rudis,species,Pied Kingfisher,1,17.06403,-1.0537,Africa,Republic of the Congo,Republic of the Congo - Cuvette,2015-03-07,
13179,Egretta garzetta,species,Little Egret,1,17.06403,-1.0537,Africa,Republic of the Congo,Republic of the Congo - Cuvette,2015-03-07,
13379,Ceryle rudis,species,Pied Kingfisher,1,17.0457,-1.06907,Africa,Republic of the Congo,Republic of the Congo - Cuvette,2015-03-07,
13521,Egretta garzetta,species,Little Egret,1,16.9191,-1.15445,Africa,Republic of the Congo,Republic of the Congo - Cuvette,2015-03-07,
13627,Ardea purpurea,species,Purple Heron,1,16.85293,-1.20626,Africa,Republic of the Congo,Republic of the Congo - Cuvette,2015-03-07,
13706,Egretta garzetta,species,Little Egret,1,16.8484642357,-1.20967255327,Africa,Republic of the Congo,Republic of the Congo - Cuvette,2015-03-07,
14087,Ceryle rudis,species,Pied Kingfisher,1,16.81446,-1.18021,Africa,Republic of the Congo,Republic of the Congo - Cuvette,2015-03-06,
14137,Ardea purpurea,species,Purple Heron,1,16.81003,-1.19244,Africa,Republic of the Congo,Republic of the Congo - Cuvette,2015-03-06,
14261,Ardea purpurea,species,Purple Heron,1,16.80283,-1.15223,Africa,Republic of the Congo,Republic of the Congo - Cuvette,2015-03-06,
14264,Ardea purpurea,species,Purple Heron,1,16.79412,-1.12478,Africa,Republic of the Congo,Republic of the Congo - Cuvette,2015-03-06,
14282,Anhinga rufa,species,African Darter,1,16.78217,-1.06948,Africa,Republic of the Congo,Republic of the Congo - Cuvette,2015-03-06,
14309,Gypohierax angolensis,species,Palm-nut Vulture,1,16.75564,-0.98718,Africa,Republic of the Congo,Republic of the Congo - Cuvette,2015-03-06,
14353,Ardea purpurea,species,Purple Heron,1,16.74836,-0.89945,Africa,Republic of the Congo,Republic of the Congo - Cuvette,2015-03-06,
14356,Gypohierax angolensis,species,Palm-nut Vulture,1,16.74836,-0.89945,Africa,Republic of the Congo,Republic of the Congo - Cuvette,2015-03-06,
14483,Vanellus albiceps,species,White-crowned Lapwing,1,16.71754,-0.83781,Africa,Republic of the Congo,Republic of the Congo - Cuvette,2015-03-06,
14564,Merops persicus,species,Blue-cheeked Bee-eater,1,16.67283,-0.78282,Africa,Republic of the Congo,Republic of the Congo - Cuvette,2015-03-06,
14619,Scopus umbretta,species,Hamerkop,1,16.6365341842,-0.769320928955,Africa,Republic of the Congo,Republic of the Congo - Cuvette,2015-03-06,
14630,Ardea purpurea,species,Purple Heron,1,16.6503,-0.78393,Africa,Republic of the Congo,Republic of the Congo - Cuvette,2015-03-06,
14841,Actophilornis africanus,species,African Jacana,1,16.63676,-0.7705,Africa,Republic of the Congo,Republic of the Congo - Cuvette,2015-03-06,
14843,Ardea purpurea,species,Purple Heron,1,16.63676,-0.7705,Africa,Republic of the Congo,Republic of the Congo - Cuvette,2015-03-06,
14848,Ploceus melanocephalus,species,Black-headed Weaver,1,16.63676,-0.7705,Africa,Republic of the Congo,Republic of the Congo - Cuvette,2015-03-06,
60205,Ardea purpurea,species,Purple Heron,1,16.64039,-0.69478,Africa,Republic of the Congo,Republic of the Congo - Cuvette,2015-03-05,
60213,Scopus umbretta,species,Hamerkop,1,16.63563,-0.68974,Africa,Republic of the Congo,Republic of the Congo - Cuvette,2015-03-05,
60226,Ardea purpurea,species,Purple Heron,1,16.61773,-0.63823,Africa,Republic of the Congo,Republic of the Congo - Cuvette,2015-03-05,
60244,Gypohierax angolensis,species,Palm-nut Vulture,1,16.62036,-0.62918,Africa,Republic of the Congo,Republic of the Congo - Cuvette,2015-03-05,
60298,Brachycope anomala,species,Bob-tailed Weaver,1,16.62256,-0.55095,Africa,Republic of the Congo,Republic of the Congo - Cuvette,2015-03-05,
60447,Lophoceros fasciatus,species,African Pied Hornbill,1,16.61936,-0.60399,Africa,Republic of the Congo,Republic of the Congo - Cuvette,2015-03-05,
60472,Scopus umbretta,species,Hamerkop,1,16.61967,-0.54501,Africa,Republic of the Congo,Republic of the Congo - Cuvette,2015-03-05,
60507,Cyperus papyrus,species,Papyrus,1,16.57407,-0.43935,Africa,Republic of the Congo,Republic of the Congo - Cuvette,2015-03-05,
60516,Eichhornia crassipes,species,Water Hyacinth,1,16.57407,-0.43935,Africa,Republic of the Congo,Republic of the Congo - Cuvette,2015-03-05,
60537,Ardea purpurea,species,Purple Heron,7,16.54353,-0.41952,Africa,Republic of the Congo,Republic of the Congo - Cuvette,2015-03-05,
60578,Ardea purpurea,species,Purple Heron,1,16.56887,-0.37668,Africa,Republic of the Congo,Republic of the Congo - Cuvette,2015-03-05,
60608,Brachycope anomala,species,Bob-tailed Weaver,1,16.56698,-0.35163,Africa,Republic of the Congo,Republic of the Congo - Cuvette,2015-03-05,
60754,Ardea purpurea,species,Purple Heron,1,16.55506,-0.30317,Africa,Republic of the Congo,Republic of the Congo - Cuvette,2015-03-05,
60829,Brachycope anomala,species,Bob-tailed Weaver,1,16.55506,-0.30317,Africa,Republic of the Congo,Republic of the Congo - Cuvette,2015-03-05,
60859,Milvus aegyptius,species,Yellow-billed Kite,1,16.54515,-0.2735,Africa,Republic of the Congo,Republic of the Congo - Cuvette,2015-03-04,
60985,Ceryle rudis,species,Pied Kingfisher,1,16.53718,-0.27053,Africa,Republic of the Congo,Republic of the Congo - Cuvette,2015-03-04,
61193,Anhinga rufa,species,African Darter,1,16.53873,-0.25659,Africa,Republic of the Congo,Republic of the Congo - Cuvette,2015-03-04,
61451,Anhinga rufa,species,African Darter,1,16.54391,-0.25129,Africa,Republic of the Congo,Republic of the Congo - Cuvette,2015-03-04,
61732,Scopus umbretta,species,Hamerkop,1,16.53416,-0.24243,Africa,Republic of the Congo,Republic of the Congo - Cuvette,2015-03-04,
61743,Milvus aegyptius,species,Yellow-billed Kite,1,16.53416,-0.24243,Africa,Republic of the Congo,Republic of the Congo - Cuvette,2015-03-04,
61767,Ploceus melanocephalus,species,Black-headed Weaver,1,16.5211,-0.21296,Africa,Republic of the Congo,Republic of the Congo - Cuvette,2015-03-04,
61783,Bostrychia hagedash,species,Hadada Ibis,1,16.5211,-0.21296,Africa,Republic of the Congo,Republic of the Congo - Cuvette,2015-03-04,
61794,Milvus aegyptius,species,Yellow-billed Kite,1,16.51614,-0.21615,Africa,Republic of the Congo,Republic of the Congo - Cuvette,2015-03-04,
61823,Anhinga rufa,species,African Darter,1,16.47921,-0.19591,Africa,Republic of the Congo,Republic of the Congo - Cuvette,2015-03-04,
61954,Anhinga rufa,species,African Darter,1,16.47833,-0.18926,Africa,Republic of the Congo,Republic of the Congo - Cuvette,2015-03-04,
61963,Pycnonotus tricolor,species,Dark-capped Bulbul,1,16.4849,-0.16398,Africa,Republic of the Congo,Republic of the Congo - Cuvette,2015-03-04,
61968,Merops variegatus,species,Blue-breasted Bee-eater,1,16.4849,-0.16398,Africa,Republic of the Congo,Republic of the Congo - Cuvette,2015-03-04,
62086,Cyperus papyrus,species,Papyrus,1,16.43792,-0.12944,Africa,Republic of the Congo,Republic of the Congo - Cuvette,2015-03-04,
62130,Cercopithecus nictitans nictitans,subspecies,Eastern Putty-nosed Monkey,1,16.38543,-0.0647,Africa,Republic of the Congo,Republic of the Congo - Cuvette,2015-03-04,
74275,Ardea purpurea,species,Purple Heron,1,16.32386,0.08056,Africa,Republic of the Congo,Republic of the Congo - Sangha,2015-03-03,
74296,Gypohierax angolensis,species,Palm-nut Vulture,1,16.30466,0.13582,Africa,Republic of the Congo,Republic of the Congo - Sangha,2015-03-03,
74384,Ardea purpurea,species,Purple Heron,1,16.24895,0.22191,Africa,Republic of the Congo,Republic of the Congo - Sangha,2015-03-03,
74387,Gypohierax angolensis,species,Palm-nut Vulture,1,16.24571,0.22519,Africa,Republic of the Congo,Republic of the Congo - Sangha,2015-03-03,
74480,Osteolaemus tetraspis,species,Dwarf Crocodile,1,16.2371653318,0.26401158127,Africa,Republic of the Congo,Republic of the Congo - Sangha,2015-03-03,
74505,Cercopithecus nictitans nictitans,subspecies,Eastern Putty-nosed Monkey,1,16.21395,0.29606,Africa,Republic of the Congo,Republic of the Congo - Sangha,2015-03-02,
74732,Cercopithecus nictitans nictitans,subspecies,Eastern Putty-nosed Monkey,1,16.23706,0.2755,Africa,Republic of the Congo,Republic of the Congo - Sangha,2015-03-01,
75200,Cercopithecus nictitans nictitans,subspecies,Eastern Putty-nosed Monkey,1,16.23267,0.28044,Africa,Republic of the Congo,Republic of the Congo - Sangha,2015-02-28,
75231,Cercopithecus nictitans nictitans,subspecies,Eastern Putty-nosed Monkey,1,16.23642,0.28192,Africa,Republic of the Congo,Republic of the Congo - Sangha,2015-02-28,
75251,Cercopithecus nictitans nictitans,subspecies,Eastern Putty-nosed Monkey,1,16.2367,0.27343,Africa,Republic of the Congo,Republic of the Congo - Sangha,2015-02-28,
75395,Lophoceros fasciatus,species,African Pied Hornbill,1,16.24835,0.23603,Africa,Republic of the Congo,Republic of the Congo - Sangha,2015-02-28,
75405,Ardea purpurea,species,Purple Heron,1,16.24629,0.23152,Africa,Republic of the Congo,Republic of the Congo - Sangha,2015-02-28,
75412,Ardea purpurea,species,Purple Heron,1,16.24499,0.22253,Africa,Republic of the Congo,Republic of the Congo - Sangha,2015-02-28,
75414,Ardea purpurea,species,Purple Heron,1,16.25088,0.21892,Africa,Republic of the Congo,Republic of the Congo - Sangha,2015-02-28,
75434,Ardea purpurea,species,Purple Heron,1,16.26096,0.211,Africa,Republic of the Congo,Republic of the Congo - Sangha,2015-02-28,
75472,Ardea purpurea,species,Purple Heron,1,16.27022,0.18207,Africa,Republic of the Congo,Republic of the Congo - Sangha,2015-02-28,
75481,Ardea purpurea,species,Purple Heron,1,16.27258,0.17277,Africa,Republic of the Congo,Republic of the Congo - Sangha,2015-02-28,
75614,Varanus ornatus,species,Ornate monitor,1,16.24618,0.25321,Africa,Republic of the Congo,Republic of the Congo - Sangha,2015-02-28,
75702,Gypohierax angolensis,species,Palm-nut Vulture,1,16.2485,0.23672,Africa,Republic of the Congo,Republic of the Congo - Sangha,2015-02-28,
75752,Butorides striata,species,Striated Heron,1,16.26554,0.20274,Africa,Republic of the Congo,Republic of the Congo - Sangha,2015-02-28,
75781,Microcarbo africanus,species,Reed Cormorant,1,16.26554,0.20274,Africa,Republic of the Congo,Republic of the Congo - Sangha,2015-02-28,
75921,Osteolaemus tetraspis,species,Dwarf Crocodile,1,16.2781628966,0.169771512275,Africa,Republic of the Congo,Republic of the Congo - Sangha,2015-02-28,
76510,Estrilda astrild,species,Common Waxbill,1,16.274214685,0.165994978195,Africa,Republic of the Congo,Republic of the Congo - Sangha,2015-02-28,
76522,Aves indet.,multispecies,Unidentified bird,1,16.274214685,0.165994978195,Africa,Republic of the Congo,Republic of the Congo - Sangha,2015-02-28,
76552,Treron calvus,species,African Green Pigeon,2,16.274214685,0.165994978195,Africa,Republic of the Congo,Republic of the Congo - Sangha,2015-02-28,
76563,Bycanistes fistulator,species,Piping Hornbill,2,16.274214685,0.165994978195,Africa,Republic of the Congo,Republic of the Congo - Sangha,2015-02-28,
76930,Corythaeola cristata,species,Great Blue Turaco,1,16.27135,0.15136,Africa,Republic of the Congo,Republic of the Congo - Sangha,2015-02-27,
76978,Chloropicus xantholophus,species,Yellow-crested Woodpecker,1,16.27135,0.15136,Africa,Republic of the Congo,Republic of the Congo - Sangha,2015-02-27,
77298,Lophoceros fasciatus,species,African Pied Hornbill,1,16.27544,0.16297,Africa,Republic of the Congo,Republic of the Congo - Sangha,2015-02-27,
77318,Estrilda astrild,species,Common Waxbill,1,16.27544,0.16297,Africa,Republic of the Congo,Republic of the Congo - Sangha,2015-02-27,
77484,Gymnobucco bonapartei,species,Grey-throated Barbet,1,16.27544,0.16297,Africa,Republic of the Congo,Republic of the Congo - Sangha,2015-02-27,
77492,Platysteira castanea,species,Chestnut Wattle-eye,1,16.27544,0.16297,Africa,Republic of the Congo,Republic of the Congo - Sangha,2015-02-27,
77611,Aves indet.,multispecies,Unidentified bird,1,16.274,0.165,Africa,Republic of the Congo,Republic of the Congo - Sangha,2015-02-27,
77694,Merops gularis,species,Black Bee-eater,1,16.274,0.165,Africa,Republic of the Congo,Republic of the Congo - Sangha,2015-02-27,
77705,Corythaeola cristata,species,Great Blue Turaco,1,16.274,0.165,Africa,Republic of the Congo,Republic of the Congo - Sangha,2015-02-27,
78385,Lophoceros fasciatus,species,African Pied Hornbill,4,16.28027,0.1641,Africa,Republic of the Congo,Republic of the Congo - Sangha,2015-02-26,
78387,Ardea purpurea,species,Purple Heron,1,16.286,0.15196,Africa,Republic of the Congo,Republic of the Congo - Sangha,2015-02-26,
78398,Ardea purpurea,species,Purple Heron,1,16.30357,0.13676,Africa,Republic of the Congo,Republic of the Congo - Sangha,2015-02-26,
78399,Halcyon senegalensis,species,Woodland Kingfisher,1,16.30487,0.12933,Africa,Republic of the Congo,Republic of the Congo - Sangha,2015-02-26,
78437,Ardea purpurea,species,Purple Heron,1,16.30587,0.11125,Africa,Republic of the Congo,Republic of the Congo - Sangha,2015-02-26,
78712,Ardea purpurea,species,Purple Heron,1,16.31846,0.09383,Africa,Republic of the Congo,Republic of the Congo - Sangha,2015-02-26,
78727,Scopus umbretta,species,Hamerkop,1,16.31799,0.09165,Africa,Republic of the Congo,Republic of the Congo - Sangha,2015-02-26,
78744,Butorides striata,species,Striated Heron,1,16.31799,0.09165,Africa,Republic of the Congo,Republic of the Congo - Sangha,2015-02-26,
78757,Gypohierax angolensis,species,Palm-nut Vulture,1,16.32411,0.07818,Africa,Republic of the Congo,Republic of the Congo - Sangha,2015-02-26,
78880,Halcyon senegalensis,species,Woodland Kingfisher,1,16.32411,0.07818,Africa,Republic of the Congo,Republic of the Congo - Sangha,2015-02-26,
78884,Ardea purpurea,species,Purple Heron,1,16.32513,0.07347,Africa,Republic of the Congo,Republic of the Congo - Sangha,2015-02-26,
78886,Halcyon senegalensis,species,Woodland Kingfisher,1,16.32517,0.06421,Africa,Republic of the Congo,Republic of the Congo - Cuvette,2015-02-26,
78973,Merops albicollis,species,White-throated Bee-eater,1,16.3537234068,0.00926703210605,Africa,Republic of the Congo,Republic of the Congo - Cuvette,2015-02-25,
78987,Hirundo rustica,species,Barn Swallow,100,16.356375441,0.00654425470598,Africa,Republic of the Congo,Republic of the Congo - Cuvette,2015-02-25,
78996,Lonchura bicolor,species,Black-and-white Mannikin,1,16.356375441,0.00654425470598,Africa,Republic of the Congo,Republic of the Congo - Cuvette,2015-02-25,
79001,Chrysococcyx caprius,species,Diederik Cuckoo,1,16.356375441,0.00654425470598,Africa,Republic of the Congo,Republic of the Congo - Cuvette,2015-02-25,
79003,Gypohierax angolensis,species,Palm-nut Vulture,1,16.356375441,0.00654425470598,Africa,Republic of the Congo,Republic of the Congo - Cuvette,2015-02-25,
79018,Passer griseus,species,Northern Grey-headed Sparrow,1,16.356375441,0.00654425470598,Africa,Republic of the Congo,Republic of the Congo - Cuvette,2015-02-25,
79098,Aves indet.,multispecies,Unidentified bird,1,16.356375441,0.00654425470598,Africa,Republic of the Congo,Republic of the Congo - Cuvette,2015-02-25,
79263,Merops albicollis,species,White-throated Bee-eater,1,16.356375441,0.00654425470598,Africa,Republic of the Congo,Republic of the Congo - Cuvette,2015-02-25,
79268,Pycnonotus tricolor,species,Dark-capped Bulbul,1,16.356375441,0.00654425470598,Africa,Republic of the Congo,Republic of the Congo - Cuvette,2015-02-25,
79278,Aves indet.,multispecies,Unidentified bird,1,16.35335,0.00998,Africa,Republic of the Congo,Republic of the Congo - Cuvette,2015-02-25,
79312,Halcyon senegalensis,species,Woodland Kingfisher,1,16.35335,0.00998,Africa,Republic of the Congo,Republic of the Congo - Cuvette,2015-02-22,
79324,Pycnonotus tricolor,species,Dark-capped Bulbul,1,16.35335,0.00998,Africa,Republic of the Congo,Republic of the Congo - Cuvette,2015-02-22,
79325,Passer griseus,species,Northern Grey-headed Sparrow,1,16.35335,0.00998,Africa,Republic of the Congo,Republic of the Congo - Cuvette,2015-02-22,
79331,Aves indet.,multispecies,Unidentified bird,1,16.35335,0.00998,Africa,Republic of the Congo,Republic of the Congo - Cuvette,2015-02-25,
79335,Estrilda melpoda,species,Orange-cheeked Waxbill,1,16.35335,0.00998,Africa,Republic of the Congo,Republic of the Congo - Cuvette,2015-02-22,
79475,Brachycope anomala,species,Bob-tailed Weaver,1,16.35335,0.00998,Africa,Republic of the Congo,Republic of the Congo - Cuvette,2015-02-22,
79487,Chrysococcyx cupreus,species,African Emerald Cuckoo,1,16.35335,0.00998,Africa,Republic of the Congo,Republic of the Congo - Cuvette,2015-02-22,
79503,Ploceus nigricollis,species,Black-necked Weaver,1,16.35335,0.00998,Africa,Republic of the Congo,Republic of the Congo - Cuvette,2015-02-22,
79509,Aves indet.,multispecies,Unidentified bird,1,16.35335,0.00998,Africa,Republic of the Congo,Republic of the Congo - Cuvette,2015-02-22,
79561,Cecropis abyssinica,species,Lesser Striped Swallow,1,16.35335,0.00998,Africa,Republic of the Congo,Republic of the Congo - Cuvette,2015-02-22,
79582,Actophilornis africanus,species,African Jacana,1,16.05734,0.09769,Africa,Republic of the Congo,Republic of the Congo - Cuvette,2015-02-21,
79715,Eichhornia crassipes,species,Water Hyacinth,1,15.86694,0.0356,Africa,Republic of the Congo,Republic of the Congo - Cuvette,2015-02-21,
79723,Bubulcus ibis,species,Western Cattle Egret,1,15.86694,0.0356,Africa,Republic of the Congo,Republic of the Congo - Cuvette,2015-02-21,
79751,Milvus aegyptius,species,Yellow-billed Kite,1,15.84286,0.02392,Africa,Republic of the Congo,Republic of the Congo - Cuvette,2015-02-21,
79782,Ardea purpurea,species,Purple Heron,1,15.82772,0.0151,Africa,Republic of the Congo,Republic of the Congo - Cuvette,2015-02-21,
79805,Lophoceros fasciatus,species,African Pied Hornbill,1,15.82217,0.01639,Africa,Republic of the Congo,Republic of the Congo - Cuvette,2015-02-21,
79818,Lophoceros fasciatus,species,African Pied Hornbill,1,15.73645,0.02638,Africa,Republic of the Congo,Republic of the Congo - Cuvette,2015-02-21,
79887,Ardea purpurea,species,Purple Heron,1,15.81307,0.01587,Africa,Republic of the Congo,Republic of the Congo - Cuvette,2015-02-21,
79896,Ardea purpurea,species,Purple Heron,1,15.77839,0.01925,Africa,Republic of the Congo,Republic of the Congo - Cuvette,2015-02-21,
79898,Ardea purpurea,species,Purple Heron,2,15.76033,0.01402,Africa,Republic of the Congo,Republic of the Congo - Cuvette,2015-02-21,
79908,Milvus aegyptius,species,Yellow-billed Kite,1,15.73909,0.02629,Africa,Republic of the Congo,Republic of the Congo - Cuvette,2015-02-21,
79943,Ardea purpurea,species,Purple Heron,1,15.72699,0.03837,Africa,Republic of the Congo,Republic of the Congo - Cuvette,2015-02-21,
79947,Lophoceros fasciatus,species,African Pied Hornbill,1,15.71555,0.02206,Africa,Republic of the Congo,Republic of the Congo - Cuvette,2015-02-21,
79956,Milvus aegyptius,species,Yellow-billed Kite,1,15.69932,0.00776,Africa,Republic of the Congo,Republic of the Congo - Cuvette,2015-02-21,
79960,Merops albicollis,species,White-throated Bee-eater,1,15.65994,0.01155,Africa,Republic of the Congo,Republic of the Congo - Cuvette,2015-02-21,
80198,Merops albicollis,species,White-throated Bee-eater,1,15.63306,0.00199,Africa,Republic of the Congo,Republic of the Congo - Cuvette,2015-02-21,
80242,Ploceus cucullatus,species,Village Weaver,1,15.61747,-0.00644,Africa,Republic of the Congo,Republic of the Congo - Cuvette,2015-02-21,
80276,Merops albicollis,species,White-throated Bee-eater,1,15.71546,-0.13737,Africa,Republic of the Congo,Republic of the Congo - Cuvette,2015-02-20,
121712,Hypsignathus monstrosus,species,Hammer-headed Fruit Bat,1,17.1439,-0.52849,Africa,Republic of the Congo,Republic of the Congo - Cuvette,2015-03-18,
18439,Cercopithecus nictitans nictitans,subspecies,Eastern Putty-nosed Monkey,1,16.19983,0.30771,Africa,Republic of the Congo,Republic of the Congo - Sangha,2015-03-02,
