,scientificName,taxonRank,vernacularName,individualCount,longitudeDecimal,latitudeDecimal,continent,country,locality,eventDate,eventTime
96657,Emberiza socotrana,species,Socotra Bunting,2,53.9977849647,12.5311567023,Asia,Yemen,Yemen,2009-02-26,
120000,Tursiops truncatus,species,Common Bottlenose Dolphin,10,53.3939570189,12.5902480442,Asia,Yemen,Yemen,2009-03-01,
4975,Pachysmopoda abbreviata,species,,2,53.4703803621,12.659238945,Asia,Yemen,Yemen,2009-02-28,
5000,Pachysmopoda abbreviata,species,,20,53.9926886838,12.6060166172,Asia,Yemen,Yemen,2009-02-22,
10739,Hakaria simonyi,species,,1,53.4703231975,12.6593278415,Asia,Yemen,Yemen,2009-02-28,
11622,Caprimulgus aegyptius,species,Egyptian Nightjar,1,54.5310170017,12.5524585051,Asia,Yemen,Yemen,2010-11-03,
11631,Milvus migrans,species,Black Kite,1,54.0113229118,12.6487602363,Asia,Yemen,Yemen,2010-11-03,
15192,Puffinus persicus,species,Persian Shearwater,10,53.3951586485,12.6431831876,Asia,Yemen,Yemen,2010-10-28,
15212,Passer insularis,species,Socotra Sparrow,10,54.3540718406,12.5881561563,Asia,Yemen,Yemen,2009-03-04,
15217,Anthus similis sokotrae,subspecies,Long-billed Pipit ssp sokotrae,1,53.4002137743,12.57641298,Asia,Yemen,Yemen,2009-03-31,
15219,Sphingonotus ganglbaueri,species,,1,53.4990960918,12.6980932935,Asia,Yemen,Yemen,2009-02-28,
15374,Phalacrocorax nigrogularis,species,Socotra Cormorant,300,53.3956005424,12.5759676991,Asia,Yemen,Yemen,2009-03-01,
15394,Stenella longirostris,species,Spinner Dolphin,1,53.4622782469,12.6830448223,Asia,Yemen,Yemen,2009-03-01,
15470,Glomeremus mediopictus,species,,2,53.4699619375,12.6588411598,Asia,Yemen,Yemen,2009-02-28,
15478,Otus socotranus,species,Socotra Scops Owl,1,53.4699619375,12.6588411598,Asia,Yemen,Yemen,2009-02-28,
15523,Buteo socotraensis,species,Socotra Buzzard,1,53.9699757379,12.6423351819,Asia,Yemen,Yemen,2009-02-27,
15765,Otus socotranus,species,Socotra Scops Owl,1,53.9926994126,12.6059904417,Asia,Yemen,Yemen,2009-02-22,
15767,Pachysmopoda abbreviata,species,,5,53.9926994126,12.6059904417,Asia,Yemen,Yemen,2009-02-22,
15770,Oecanthus chopardi,species,,1,53.9926994126,12.6059904417,Asia,Yemen,Yemen,2009-02-22,
15773,Rhynchostruthus socotranus,species,Socotra Golden-winged Grosbeak,2,53.940013703,12.6189286313,Asia,Yemen,Yemen,2009-02-21,
15843,Emberiza socotrana,species,Socotra Bunting,1,54.0429515205,12.5669571195,Asia,Yemen,Yemen,2010-11-01,
15858,Hypolimnas misippus,species,Danaid Eggfly,1,54.0544796549,12.6174471677,Asia,Yemen,Yemen,2010-11-01,
15874,Trigonidium cicindeloides,species,,5,53.9917981904,12.4938667229,Asia,Yemen,Yemen,2010-11-05,
15911,Socotracris kleukersi,species,,30,53.990253238,12.4910254264,Asia,Yemen,Yemen,2010-11-06,
16082,Scintharista forbesi,species,,1,54.0531065315,12.5752346978,Asia,Yemen,Yemen,2010-10-31,
16162,Chamaeleo monachus,species,Monarch Chameleon,1,54.0508533083,12.585371118,Asia,Yemen,Yemen,2010-10-30,
16277,Trachylepis socotrana,species,Socotra Skink,1,53.9927020948,12.6059695013,Asia,Yemen,Yemen,2010-10-26,
16282,Pachycalamus brevis,species,Short Worm Lizard,1,53.9927020948,12.6059695013,Asia,Yemen,Yemen,2010-10-26,
18315,Zosterops socotranus,subspecies,Socotra White-eye,5,54.0384301543,12.6575052542,Asia,Yemen,Yemen,2009-02-27,
65395,Ichthyaetus hemprichii,species,Sooty Gull,1,43.302612304688,13.648655851179,Asia,Yemen,Yemen,2007-04-14,
65712,Gelochelidon nilotica nilotica,subspecies,Gull-billed Tern ssp nilotica,1,43.299522399902,13.646320446064,Asia,Yemen,Yemen,2007-04-14,
118488,Spilopelia senegalensis senegalensis,subspecies,Laughing Dove ssp senegalensis,1,43.937072753906,15.131124524155,Asia,Yemen,Yemen,2007-04-14,
118557,Thalasseus bengalensis bengalensis,subspecies,Lesser Crested Tern ssp bengalensis,1,43.310852050781,13.631306575791,Asia,Yemen,Yemen,2007-04-14,
118566,Ichthyaetus leucophthalmus,species,White-eyed Gull,1,43.310852050781,13.631306575791,Asia,Yemen,Yemen,2007-04-14,
118569,Thalasseus bengalensis,species,Lesser Crested Tern,1,43.31085205,13.63130658,Asia,Yemen,Yemen,2007-04-14,
118573,Sterna hirundo,species,Common Tern,1,43.310852050781,13.631306575791,Asia,Yemen,Yemen,2007-04-14,
118668,Sternula saundersi,species,Saunders's Tern,1,43.310852050781,13.631306575791,Asia,Yemen,Yemen,2007-04-14,
118673,Pluvialis squatarola squatarola,subspecies,Grey Plover ssp squatarola,1,43.310852050781,13.631306575791,Asia,Yemen,Yemen,2007-04-14,
118689,Vanellus spinosus,species,Spur-winged Lapwing,1,43.310852050781,13.631306575791,Asia,Yemen,Yemen,2007-04-14,
118696,Ardea cinerea cinerea,subspecies,Grey Heron ssp cinerea,1,43.310852050781,13.631306575791,Asia,Yemen,Yemen,2007-04-14,
118711,Phoenicopterus roseus,species,Greater Flamingo,1,43.310852050781,13.631306575791,Asia,Yemen,Yemen,2007-04-14,
118717,Pelecanus rufescens,species,Pink-backed Pelican,1,43.310852050781,13.631306575791,Asia,Yemen,Yemen,2007-04-14,
118746,Ichthyaetus leucophthalmus,species,White-eyed Gull,1,43.255920410156,13.325484885598,Asia,Yemen,Yemen,2007-04-13,
118748,Ichthyaetus leucophthalmus,species,White-eyed Gull,1,43.255920410156,13.325484885598,Asia,Yemen,Yemen,2007-04-13,
118753,Thalasseus bergii velox,subspecies,Greater Crested Tern ssp velox,1,43.255920410156,13.325484885598,Asia,Yemen,Yemen,2007-04-13,
118795,Precis limnoria,species,,1,44.029769897461,13.558559225741,Asia,Yemen,Yemen,2007-04-12,
119136,Cinnyricinclus leucogaster arabicus,subspecies,Violet-backed Starling ssp arabicus,1,44.147186279297,13.922737426085,Asia,Yemen,Yemen,2007-04-11,
119166,Argemone ochroleuca,species,Pale Mexican Poppy,1,44.184265136719,13.955392274642,Asia,Yemen,Yemen,2007-04-10,
119250,Solanum elaeagnifolium,species,White nightshade,1,44.84842300415,14.405253358198,Asia,Yemen,Yemen,2007-04-09,
119430,Actitis hypoleucos,species,Common Sandpiper,1,48.344650268555,14.024685189362,Asia,Yemen,Yemen,2007-04-07,
119478,Ardea alba alba,subspecies,Great Egret ssp alba,1,49.167938232422,14.527756480539,Asia,Yemen,Yemen - Hadramaut,2007-04-06,
119484,Egretta gularis schistacea,subspecies,Red Sea Reef Heron,1,49.167938232422,14.527756480539,Asia,Yemen,Yemen,2007-04-06,
119495,Ichthyaetus hemprichii,species,Sooty Gull,1,49.167938232422,14.527756480539,Asia,Yemen,Yemen,2007-04-06,
119618,Citrullus colocynthis,species,Colocynth,1,49.185791015625,14.793472080214,Asia,Yemen,Yemen,2007-04-06,
119689,Senna italica,species,Italian Senna,1,48.300704956055,15.735423007543,Asia,Yemen,Yemen,2007-04-05,
119701,Calotropis procera,species,Roostertree,1,48.300704956055,15.735423007543,Asia,Yemen,Yemen,2007-04-05,
119823,Oenanthe melanura,species,Blackstart,1,48.890533447266,15.708323771618,Asia,Yemen,Yemen,2007-04-04,
119921,Pycnonotus xanthopygos,species,White-spectacled Bulbul,1,45.324096679688,15.465261762059,Asia,Yemen,Yemen,2007-04-02,
71898,Emberiza socotrana,species,Socotra Bunting,3,54.171524047852,12.526412437544,Asia,Yemen,Yemen,2008-01-21,
71974,Turdus menachensis,species,Yemen Thrush,1,44.132251739502,15.386660064692,Asia,Yemen,Yemen,2008-01-19,
72091,Sylvia buryi,species,Yemen Warbler,1,43.899822235107,15.50248374449,Asia,Yemen,Yemen,2008-01-18,
92474,Spilopelia senegalensis,species,Laughing Dove,1,43.26404571,15.17947319,Asia,Yemen,Yemen - Al Hudaydah,2008-03-01,
109603,Lanius nubicus,species,Masked Shrike,1,43.26004744,15.1790811,Asia,Yemen,Yemen - Al Hudaydah,2008-03-02,
109615,Carpospiza brachydactyla,species,Pale Rockfinch,1,42.91717527,15.34440696,Asia,Yemen,Yemen - Al Hudaydah,2008-02-29,
109637,Thalasseus bengalensis,species,Lesser Crested Tern,1,42.79495236,15.29937465,Asia,Yemen,Yemen - Al Hudaydah,2008-02-29,
109672,Chroicocephalus genei,species,Slender-billed Gull,1,42.79495236,15.29937465,Asia,Yemen,Yemen - Al Hudaydah,2008-02-29,
109753,Egretta gularis,species,Western Reef Heron,1,42.79495236,15.29937465,Asia,Yemen,Yemen - Al Hudaydah,2008-02-29,
109755,Pelecanus rufescens,species,Pink-backed Pelican,1,42.79495236,15.29937465,Asia,Yemen,Yemen - Al Hudaydah,2008-02-29,
109758,Onychognathus tristramii,species,Tristram's Starling,1,49.3490705586718,15.789429187774658,Asia,Yemen,Yemen,2008-02-28,
109790,Buteo rufinus,species,Long-legged Buzzard,1,42.99675248810236,14.9104023350185,Asia,Yemen,Yemen - Al Hudaydah,2008-02-28,
109801,Aquila fasciata,species,Bonelli's Eagle,1,43.58024596,14.92320054,Asia,Yemen,Yemen,2008-02-28,
109805,Ciconia nigra,species,Black Stork,1,42.99675248810236,14.9104023350185,Asia,Yemen,Yemen - Al Hudaydah,2008-02-28,
109848,Buteo buteo,species,Common Buzzard,1,43.26490402,15.17908662,Asia,Yemen,Yemen - Al Hudaydah,2008-02-25,
109872,Eremopterix nigriceps,species,Black-crowned Sparrow-Lark,1,43.26490402,15.17908662,Asia,Yemen,Yemen - Al Hudaydah,2008-02-25,
109889,Columba livia,species,Rock Dove,1,43.26490402,15.17908662,Asia,Yemen,Yemen - Al Hudaydah,2008-02-25,
109892,Charadrius dubius,species,Little Ringed Plover,1,43.26490402,15.17908662,Asia,Yemen,Yemen - Al Hudaydah,2008-02-25,
109980,Falco tinnunculus,species,Common Kestrel,1,43.265419,15.18162692,Asia,Yemen,Yemen - Al Hudaydah,2008-02-25,
109982,Corvus rhipidurus,species,Fan-tailed Raven,1,43.35388181,15.1156135,Asia,Yemen,Yemen - Al Hudaydah,2008-02-24,
109992,Passer domesticus,species,House Sparrow,1,43.35388181,15.1156135,Asia,Yemen,Yemen - Al Hudaydah,2008-02-24,
110049,Oenanthe melanura,species,Blackstart,1,43.35388181,15.1156135,Asia,Yemen,Yemen - Al Hudaydah,2008-02-24,
110050,Cercotrichas podobe,species,Black Scrub Robin,1,43.26453209,15.17857856,Asia,Yemen,Yemen - Al Hudaydah,2008-02-24,
110052,Pycnonotus xanthopygos,species,White-spectacled Bulbul,1,43.35388181,15.1156135,Asia,Yemen,Yemen - Al Hudaydah,2008-02-24,
110055,Motacilla flava feldegg,subspecies,Black-headed Wagtail,1,43.35388181,15.1156135,Asia,Yemen,Yemen - Al Hudaydah,2008-02-24,
110067,Coracias abyssinicus,species,Abyssinian Roller,1,43.35388181,15.1156135,Asia,Yemen,Yemen - Al Hudaydah,2008-02-24,
110073,Milvus migrans,species,Black Kite,1,43.35388181,15.1156135,Asia,Yemen,Yemen - Al Hudaydah,2008-02-24,
110074,Ciconia abdimii,species,Abdim's Stork,1,43.35388181,15.1156135,Asia,Yemen,Yemen - Al Hudaydah,2008-02-24,
110075,Bubulcus ibis,species,Western Cattle Egret,1,43.35388181,15.1156135,Asia,Yemen,Yemen - Al Hudaydah,2008-02-24,
118161,Oenanthe deserti,species,Desert Wheatear,1,44.75212099999999,13.275769,Asia,Yemen,Yemen,1975-01-01,
118199,Alaemon alaudipes,species,Greater Hoopoe-Lark,1,48.80229899999995,15.839028,Asia,Yemen,Yemen - Hadramaut,1974-08-22,
118208,Ammomanes deserti,species,Desert Lark,1,48.80229949951172,15.839027704272937,Asia,Yemen,Yemen - Hadramaut,1974-07-15,
118223,Merops orientalis,species,Green Bee-eater,1,44.88018035888672,13.106096352189876,Asia,Yemen,Yemen,1974-12-20,
120381,Pelecanus rufescens,species,Pink-backed Pelican,1,52.23243713378906,16.17880365471536,Asia,Yemen,Yemen - Al Mahrah,1974-08-23,
120716,Lanius excubitor,species,Great Grey Shrike,1,48.74226093292236,15.939525662222293,Asia,Yemen,Yemen - Hadramaut,1974-10-02,
47607,Aegypius monachus,species,Cinereous Vulture,1,44.93419647,12.85212735,Asia,Yemen,Yemen,1974-11-15,
47944,Neophron percnopterus,species,Egyptian Vulture,1,48.7962341,15.92277124,Asia,Yemen,Yemen - Hadramaut,1974-07-15,
94852,Chamaeleo monachus,species,Monarch Chameleon,1,54.0508533083,12.585371118,Asia,Yemen,Yemen,2010-10-30,
56632,Zosterops socotranus,subspecies,Socotra White-eye,5,54.0382719,12.65742216,Asia,Yemen,Yemen - Socotra,2010-11-07,
56842,Tursiops truncatus,species,Common Bottlenose Dolphin,3,53.35716248,12.5512019,Asia,Yemen,Yemen - Socotra,2010-10-28,
56874,Sula leucogaster,species,Brown Booby,25,53.35716248,12.5512019,Asia,Yemen,Yemen - Socotra,2010-10-28,
56879,Puffinus persicus,species,Persian Shearwater,1000,53.35716248,12.5512019,Asia,Yemen,Yemen - Socotra,2010-10-28,
56896,Rhynchostruthus socotranus,species,Socotra Golden-winged Grosbeak,5,53.99138689,12.60528603,Asia,Yemen,Yemen - Socotra,2010-10-26,
56898,Zosterops socotranus,subspecies,Socotra White-eye,5,53.99138689,12.60528603,Asia,Yemen,Yemen - Socotra,2010-10-26,
56904,Otus socotranus,species,Socotra Scops Owl,3,53.99138689,12.60528603,Asia,Yemen,Yemen - Socotra,2010-10-26,
56954,Buteo socotraensis,species,Socotra Buzzard,2,53.99138689,12.60528603,Asia,Yemen,Yemen - Socotra,2010-10-26,
56958,Trachylepis socotrana,species,Socotra Skink,10,53.99138689,12.60528603,Asia,Yemen,Yemen - Socotra,2010-10-26,
57097,Eretmochelys imbricata,species,Hawksbill Turtle,1,54.53145504,12.55129549,Asia,Yemen,Yemen - Socotra,2010-11-03,
13387,Stenella longirostris,species,Spinner Dolphin,1,53.4622782469,12.6830448223,Asia,Yemen,Yemen,2009-03-01,
13396,Hypolimnas misippus,species,Danaid Eggfly,1,54.0544796549,12.6174471677,Asia,Yemen,Yemen,2010-11-01,
79852,Zosterops socotranus,subspecies,Socotra White-eye,4,53.991823419929,12.493397690143,Asia,Yemen,Yemen,2009-02-21,
79856,Lanius excubitor uncinatus,subspecies,Socotra Grey Shrike,1,53.991823419929,12.493397690143,Asia,Yemen,Yemen - Socotra,2009-02-21,
80205,Lanius excubitor uncinatus,subspecies,Socotra Grey Shrike,1,54.059287011623,12.630035490767,Asia,Yemen,Yemen - Socotra,2009-02-20,
31622,Oecanthus chopardi,species,,1,53.9926994126,12.6059904417,Asia,Yemen,Yemen,2009-02-22,
72321,Passer insularis,species,Socotra Sparrow,10,54.3540718406,12.5881561563,Asia,Yemen,Yemen,2009-03-04,
72323,Buteo socotraensis,species,Socotra Buzzard,1,53.9699757379,12.6423351819,Asia,Yemen,Yemen,2009-02-27,
72325,Rhynchostruthus socotranus,species,Socotra Golden-winged Grosbeak,2,53.940013703,12.6189286313,Asia,Yemen,Yemen,2009-02-21,
72330,Otus socotranus,species,Socotra Scops Owl,1,53.9926994126,12.6059904417,Asia,Yemen,Yemen,2009-02-22,
72331,Otus socotranus,species,Socotra Scops Owl,1,53.4699619375,12.6588411598,Asia,Yemen,Yemen,2009-02-28,
72355,Caprimulgus aegyptius,species,Egyptian Nightjar,1,54.5310170017,12.5524585051,Asia,Yemen,Yemen,2010-11-03,
72372,Emberiza socotrana,species,Socotra Bunting,1,54.0429515205,12.5669571195,Asia,Yemen,Yemen,2010-11-01,
72374,Emberiza socotrana,species,Socotra Bunting,2,53.9977849647,12.5311567023,Asia,Yemen,Yemen,2009-02-26,
119038,Glomeremus mediopictus,species,,2,53.4699619375,12.6588411598,Asia,Yemen,Yemen,2009-02-28,
119040,Pachysmopoda abbreviata,species,,2,53.4703803621,12.659238945,Asia,Yemen,Yemen,2009-02-28,
119041,Pachysmopoda abbreviata,species,,20,53.9926886838,12.6060166172,Asia,Yemen,Yemen,2009-02-22,
119042,Pachysmopoda abbreviata,species,,5,53.9926994126,12.6059904417,Asia,Yemen,Yemen,2009-02-22,
119043,Pachysmopoda abbreviata,species,,2,53.4703803621,12.659238945,Asia,Yemen,Yemen,2009-02-28,
119044,Scintharista forbesi,species,,1,54.0531065315,12.5752346978,Asia,Yemen,Yemen,2010-10-31,
119046,Socotracris kleukersi,species,,30,53.990253238,12.4910254264,Asia,Yemen,Yemen,2010-11-06,
119047,Socotracris kleukersi,species,,30,53.990253238,12.4910254264,Asia,Yemen,Yemen,2010-11-06,
119048,Sphingonotus ganglbaueri,species,,1,53.4990960918,12.6980932935,Asia,Yemen,Yemen,2009-02-28,
119091,Trigonidium cicindeloides,species,,5,53.9917981904,12.4938667229,Asia,Yemen,Yemen,2010-11-05,
